{
"type": "FeatureCollection",
"features": [
{
  "type": "Feature",
  "id": "relation/6385148",
  "properties": {
    "amenity": "marketplace",
    "building": "yes",
    "type": "multipolygon",
    "id": "relation/6385148"
  },
  "geometry": {
    "type": "Point",
    "coordinates": [
      -9.5378347,
      30.3685402
    ]
  }
},
{
  "type": "Feature",
  "id": "way/135886361",
  "properties": {
    "amenity": "marketplace",
    "building": "yes",
    "description": "Fishmarket",
    "name": "Souk al Hout",
    "id": "way/135886361"
  },
  "geometry": {
    "type": "Point",
    "coordinates": [
      -9.5677377,
      30.4151477
    ]
  }
},
{
  "type": "Feature",
  "id": "way/135887503",
  "properties": {
    "amenity": "marketplace",
    "building": "yes",
    "name": "Souk Al Massira",
    "id": "way/135887503"
  },
  "geometry": {
    "type": "Point",
    "coordinates": [
      -9.567403,
      30.4147365
    ]
  }
},
{
  "type": "Feature",
  "id": "way/362660313",
  "properties": {
    "addr:city": "Agadir",
    "amenity": "marketplace",
    "barrier": "wall",
    "name": "Souq El Had",
    "id": "way/362660313"
  },
  "geometry": {
    "type": "Point",
    "coordinates": [
      -9.5796086,
      30.4128173
    ]
  }
},
{
  "type": "Feature",
  "id": "way/363017952",
  "properties": {
    "addr:city": "Inezgane إنزكان",
    "amenity": "marketplace",
    "building": "yes",
    "name": "Marché de Mardi ⵙⵓⵇ ⵏ ⵜⵍⴰⵜⴰ سوق الثلاثاء سوق الثلاثاء",
    "name:ar": "سوق الثلاثاء",
    "name:ber": "ⵙⵓⵇ ⵏ ⵜⵍⴰⵜⴰ",
    "name:de": "Souk",
    "name:fr": "Marché de Mardi",
    "id": "way/363017952"
  },
  "geometry": {
    "type": "Point",
    "coordinates": [
      -9.5303162,
      30.3596609
    ]
  }
},
{
  "type": "Feature",
  "id": "way/363022992",
  "properties": {
    "addr:city": "Inezgane إنزكان",
    "amenity": "marketplace",
    "building": "yes",
    "name": "Souk",
    "id": "way/363022992"
  },
  "geometry": {
    "type": "Point",
    "coordinates": [
      -9.532654,
      30.3561408
    ]
  }
},
{
  "type": "Feature",
  "id": "way/381276021",
  "properties": {
    "amenity": "marketplace",
    "building": "yes",
    "name": "سوق الحرية",
    "id": "way/381276021"
  },
  "geometry": {
    "type": "Point",
    "coordinates": [
      -9.5255961,
      30.3574093
    ]
  }
},
{
  "type": "Feature",
  "id": "way/381276023",
  "properties": {
    "amenity": "marketplace",
    "area": "yes",
    "barrier": "wall",
    "name": "سوق الجملة الجديد",
    "id": "way/381276023"
  },
  "geometry": {
    "type": "Point",
    "coordinates": [
      -9.5219479,
      30.3565087
    ]
  }
},
{
  "type": "Feature",
  "id": "way/381288663",
  "properties": {
    "amenity": "marketplace",
    "building": "yes",
    "id": "way/381288663"
  },
  "geometry": {
    "type": "Point",
    "coordinates": [
      -9.5383392,
      30.3685885
    ]
  }
},
{
  "type": "Feature",
  "id": "way/381292380",
  "properties": {
    "amenity": "marketplace",
    "building": "yes",
    "name": "السوق اليومي عمر الخيام",
    "id": "way/381292380"
  },
  "geometry": {
    "type": "Point",
    "coordinates": [
      -9.541479,
      30.3656303
    ]
  }
},
{
  "type": "Feature",
  "id": "way/382246891",
  "properties": {
    "amenity": "marketplace",
    "building": "yes",
    "id": "way/382246891"
  },
  "geometry": {
    "type": "Point",
    "coordinates": [
      -9.5568774,
      30.3522718
    ]
  }
},
{
  "type": "Feature",
  "id": "way/382248565",
  "properties": {
    "amenity": "marketplace",
    "building": "yes",
    "name": "سوق",
    "id": "way/382248565"
  },
  "geometry": {
    "type": "Point",
    "coordinates": [
      -9.5360575,
      30.3750815
    ]
  }
},
{
  "type": "Feature",
  "id": "way/382880741",
  "properties": {
    "amenity": "marketplace",
    "building": "yes",
    "id": "way/382880741"
  },
  "geometry": {
    "type": "Point",
    "coordinates": [
      -9.5260914,
      30.36003
    ]
  }
},
{
  "type": "Feature",
  "id": "way/383104915",
  "properties": {
    "amenity": "marketplace",
    "building": "yes",
    "name": "سوق أربعاء أنزا",
    "id": "way/383104915"
  },
  "geometry": {
    "type": "Point",
    "coordinates": [
      -9.6522227,
      30.4493995
    ]
  }
},
{
  "type": "Feature",
  "id": "way/383364870",
  "properties": {
    "amenity": "marketplace",
    "building": "yes",
    "name": "سوق السلع المستعملة",
    "name:fr": "Brocante",
    "id": "way/383364870"
  },
  "geometry": {
    "type": "Point",
    "coordinates": [
      -9.530122,
      30.3552547
    ]
  }
},
{
  "type": "Feature",
  "id": "way/384255359",
  "properties": {
    "amenity": "marketplace",
    "area": "yes",
    "name": "سوق الجملة",
    "name:de": "Obst- und Gemüse Großmarkt",
    "id": "way/384255359"
  },
  "geometry": {
    "type": "Point",
    "coordinates": [
      -9.529772,
      30.3575384
    ]
  }
},
{
  "type": "Feature",
  "id": "way/386321140",
  "properties": {
    "amenity": "marketplace",
    "building": "yes",
    "id": "way/386321140"
  },
  "geometry": {
    "type": "Point",
    "coordinates": [
      -9.5302565,
      30.3562558
    ]
  }
},
{
  "type": "Feature",
  "id": "way/395341431",
  "properties": {
    "amenity": "marketplace",
    "building": "yes",
    "name": "سوق السلع المستعملة",
    "id": "way/395341431"
  },
  "geometry": {
    "type": "Point",
    "coordinates": [
      -9.5064298,
      30.3809358
    ]
  }
},
{
  "type": "Feature",
  "id": "way/413937308",
  "properties": {
    "amenity": "marketplace",
    "area": "yes",
    "name": "سوق المواشي",
    "id": "way/413937308"
  },
  "geometry": {
    "type": "Point",
    "coordinates": [
      -9.5302737,
      30.3535211
    ]
  }
},
{
  "type": "Feature",
  "id": "way/426351449",
  "properties": {
    "amenity": "marketplace",
    "building": "yes",
    "name": "السوق النموذجي",
    "id": "way/426351449"
  },
  "geometry": {
    "type": "Point",
    "coordinates": [
      -9.5365302,
      30.3751186
    ]
  }
}
]
}
