{
"type": "FeatureCollection",
"features": [
{
  "type": "Feature",
  "id": "way/215248929",
  "properties": {
    "amenity": "townhall",
    "building": "yes",
    "name": "Sous-préfecture",
    "id": "way/215248929"
  },
  "geometry": {
    "type": "Point",
    "coordinates": [
      10.329283,
      5.3869039
    ]
  }
},
{
  "type": "Feature",
  "id": "way/218612112",
  "properties": {
    "amenity": "townhall",
    "building": "public",
    "name": "Mairie",
    "id": "way/218612112"
  },
  "geometry": {
    "type": "Point",
    "coordinates": [
      10.3301006,
      5.3884795
    ]
  }
},
{
  "type": "Feature",
  "id": "way/225225428",
  "properties": {
    "amenity": "townhall",
    "building": "public",
    "name": "Mairie",
    "id": "way/225225428"
  },
  "geometry": {
    "type": "Point",
    "coordinates": [
      10.411917,
      5.3752551
    ]
  }
},
{
  "type": "Feature",
  "id": "way/225225429",
  "properties": {
    "amenity": "townhall",
    "building": "public",
    "name": "Préfecture du Koung-Khi",
    "id": "way/225225429"
  },
  "geometry": {
    "type": "Point",
    "coordinates": [
      10.4114034,
      5.3749507
    ]
  }
},
{
  "type": "Feature",
  "id": "way/394654451",
  "properties": {
    "addr:city": "Bafoussam II",
    "amenity": "townhall",
    "building": "yes",
    "building:levels": "1",
    "name": "Mairie de Bafoussam II",
    "id": "way/394654451"
  },
  "geometry": {
    "type": "Point",
    "coordinates": [
      10.398525,
      5.5052822
    ]
  }
},
{
  "type": "Feature",
  "id": "way/395568928",
  "properties": {
    "addr:city": "Bafoussam III",
    "amenity": "townhall",
    "building": "yes",
    "building:levels": "0",
    "name": "Mairie de Bafoussam III",
    "id": "way/395568928"
  },
  "geometry": {
    "type": "Point",
    "coordinates": [
      10.3976144,
      5.4960319
    ]
  }
},
{
  "type": "Feature",
  "id": "way/424738578",
  "properties": {
    "amenity": "townhall",
    "building": "office",
    "name": "Hôtel de Ville",
    "id": "way/424738578"
  },
  "geometry": {
    "type": "Point",
    "coordinates": [
      10.419044,
      5.4724616
    ]
  }
},
{
  "type": "Feature",
  "id": "way/424758169",
  "properties": {
    "amenity": "townhall",
    "name": "Mairie de de Bafoussam 1",
    "id": "way/424758169"
  },
  "geometry": {
    "type": "Point",
    "coordinates": [
      10.436739,
      5.4569324
    ]
  }
},
{
  "type": "Feature",
  "id": "node/4058424573",
  "properties": {
    "amenity": "townhall",
    "name": "Mairie",
    "id": "node/4058424573"
  },
  "geometry": {
    "type": "Point",
    "coordinates": [
      10.3962437,
      5.4979342
    ]
  }
}
]
}
