{
"type": "FeatureCollection",
"features": [
{
  "type": "Feature",
  "id": "way/163214645",
  "properties": {
    "amenity": "marketplace",
    "landuse": "retail",
    "name": "Bamenda City Main Market",
    "name:fr": "Marché principal de Bamenda",
    "id": "way/163214645"
  },
  "geometry": {
    "type": "Point",
    "coordinates": [
      10.1509023,
      5.9538261
    ]
  }
},
{
  "type": "Feature",
  "id": "way/309167327",
  "properties": {
    "amenity": "marketplace",
    "landuse": "retail",
    "name": "Mbon Market",
    "note": "Purchase meet, clothes, fruits, vegetables, and basic goods.",
    "id": "way/309167327"
  },
  "geometry": {
    "type": "Point",
    "coordinates": [
      10.0139289,
      5.9982908
    ]
  }
},
{
  "type": "Feature",
  "id": "way/403273772",
  "properties": {
    "amenity": "marketplace",
    "landuse": "retail",
    "name": "Bamenda food market",
    "name:fr": "Marché alimentaire de Bamenda",
    "id": "way/403273772"
  },
  "geometry": {
    "type": "Point",
    "coordinates": [
      10.1475504,
      5.9576644
    ]
  }
},
{
  "type": "Feature",
  "id": "way/433088255",
  "properties": {
    "amenity": "marketplace",
    "landuse": "retail",
    "name": "Mile 4 market",
    "id": "way/433088255"
  },
  "geometry": {
    "type": "Point",
    "coordinates": [
      10.1843645,
      5.9928625
    ]
  }
},
{
  "type": "Feature",
  "id": "way/453057875",
  "properties": {
    "amenity": "marketplace",
    "landuse": "retail",
    "name": "Market",
    "id": "way/453057875"
  },
  "geometry": {
    "type": "Point",
    "coordinates": [
      10.2521109,
      5.8393257
    ]
  }
},
{
  "type": "Feature",
  "id": "way/454567852",
  "properties": {
    "amenity": "marketplace",
    "landuse": "retail",
    "name": "Bafut Central Market",
    "id": "way/454567852"
  },
  "geometry": {
    "type": "Point",
    "coordinates": [
      10.1176689,
      6.0872824
    ]
  }
}
]
}
