{
"type": "FeatureCollection",
"features": [
{
  "type": "Feature",
  "id": "way/153283538",
  "properties": {
    "amenity": "marketplace",
    "name": "Pasar Sederhana",
    "id": "way/153283538"
  },
  "geometry": {
    "type": "Point",
    "coordinates": [
      107.5992971,
      -6.8904495
    ]
  }
},
{
  "type": "Feature",
  "id": "way/182985175",
  "properties": {
    "amenity": "marketplace",
    "name": "Penampungan Susu",
    "id": "way/182985175"
  },
  "geometry": {
    "type": "Point",
    "coordinates": [
      107.6364377,
      -6.8113781
    ]
  }
},
{
  "type": "Feature",
  "id": "way/182987701",
  "properties": {
    "amenity": "marketplace",
    "name": "Pasar Panorama",
    "operator": "government",
    "id": "way/182987701"
  },
  "geometry": {
    "type": "Point",
    "coordinates": [
      107.6227669,
      -6.8167434
    ]
  }
},
{
  "type": "Feature",
  "id": "way/182987703",
  "properties": {
    "amenity": "marketplace",
    "name": "Pasar Panorama",
    "operator": "government",
    "id": "way/182987703"
  },
  "geometry": {
    "type": "Point",
    "coordinates": [
      107.6229168,
      -6.8173978
    ]
  }
},
{
  "type": "Feature",
  "id": "way/182987707",
  "properties": {
    "amenity": "marketplace",
    "building": "yes",
    "ele": "10",
    "name": "Pasar Panorama",
    "operator": "government",
    "id": "way/182987707"
  },
  "geometry": {
    "type": "Point",
    "coordinates": [
      107.6236123,
      -6.8177016
    ]
  }
},
{
  "type": "Feature",
  "id": "way/185039739",
  "properties": {
    "addr:city": "Bandung",
    "addr:street": "Jalan ABC",
    "amenity": "marketplace",
    "building": "yes",
    "name": "Pasar Cikapundung",
    "id": "way/185039739"
  },
  "geometry": {
    "type": "Point",
    "coordinates": [
      107.6088534,
      -6.9189841
    ]
  }
},
{
  "type": "Feature",
  "id": "way/263441027",
  "properties": {
    "amenity": "marketplace",
    "name": "PASAR CIHAUR GEULIS",
    "id": "way/263441027"
  },
  "geometry": {
    "type": "Point",
    "coordinates": [
      107.6276866,
      -6.8992897
    ]
  }
},
{
  "type": "Feature",
  "id": "way/374697406",
  "properties": {
    "amenity": "marketplace",
    "name": "Pasar Induk Gedebage",
    "id": "way/374697406"
  },
  "geometry": {
    "type": "Point",
    "coordinates": [
      107.6978777,
      -6.9345653
    ]
  }
},
{
  "type": "Feature",
  "id": "way/382982559",
  "properties": {
    "addr:city": "Bandung",
    "addr:housenumber": "3",
    "addr:postcode": "40286",
    "addr:street": "Rancabolang",
    "amenity": "marketplace",
    "building": "commercial",
    "name": "Pasar Sumber Hurip",
    "operator": "PD. Pasar Bermartabat Kota Bandung",
    "id": "way/382982559"
  },
  "geometry": {
    "type": "Point",
    "coordinates": [
      107.6643091,
      -6.940171
    ]
  }
},
{
  "type": "Feature",
  "id": "way/416041501",
  "properties": {
    "amenity": "marketplace",
    "name": "Pasar makanan",
    "id": "way/416041501"
  },
  "geometry": {
    "type": "Point",
    "coordinates": [
      107.6200645,
      -6.8975403
    ]
  }
},
{
  "type": "Feature",
  "id": "way/425979899",
  "properties": {
    "amenity": "marketplace",
    "building": "yes",
    "id": "way/425979899"
  },
  "geometry": {
    "type": "Point",
    "coordinates": [
      107.582282,
      -6.8029894
    ]
  }
},
{
  "type": "Feature",
  "id": "way/425979901",
  "properties": {
    "amenity": "marketplace",
    "building": "yes",
    "id": "way/425979901"
  },
  "geometry": {
    "type": "Point",
    "coordinates": [
      107.5818995,
      -6.8028766
    ]
  }
},
{
  "type": "Feature",
  "id": "way/462559612",
  "properties": {
    "amenity": "marketplace",
    "covered": "yes",
    "name": "Pasar Antri Baru Cimahi",
    "id": "way/462559612"
  },
  "geometry": {
    "type": "Point",
    "coordinates": [
      107.5382594,
      -6.8802864
    ]
  }
},
{
  "type": "Feature",
  "id": "node/1342928034",
  "properties": {
    "amenity": "marketplace",
    "name": "Pasar Simpang Dago",
    "id": "node/1342928034"
  },
  "geometry": {
    "type": "Point",
    "coordinates": [
      107.61415,
      -6.8848062
    ]
  }
},
{
  "type": "Feature",
  "id": "node/1870972248",
  "properties": {
    "amenity": "marketplace",
    "name": "Pasar Sarijadi",
    "id": "node/1870972248"
  },
  "geometry": {
    "type": "Point",
    "coordinates": [
      107.5749695,
      -6.8839529
    ]
  }
},
{
  "type": "Feature",
  "id": "node/1879485856",
  "properties": {
    "amenity": "marketplace",
    "name": "Pasar Atas Kota Cimahi",
    "id": "node/1879485856"
  },
  "geometry": {
    "type": "Point",
    "coordinates": [
      107.5426212,
      -6.8692154
    ]
  }
},
{
  "type": "Feature",
  "id": "node/1919646280",
  "properties": {
    "amenity": "marketplace",
    "id": "node/1919646280"
  },
  "geometry": {
    "type": "Point",
    "coordinates": [
      107.6065555,
      -6.9280313
    ]
  }
},
{
  "type": "Feature",
  "id": "node/1966181176",
  "properties": {
    "amenity": "marketplace",
    "name": "Pasar Kordon",
    "opening_hours": "02.00-12.00",
    "operator": "Kordon",
    "id": "node/1966181176"
  },
  "geometry": {
    "type": "Point",
    "coordinates": [
      107.6393052,
      -6.9541302
    ]
  }
},
{
  "type": "Feature",
  "id": "node/2429244622",
  "properties": {
    "addr:city": "Bandung",
    "addr:housenumber": "#33E",
    "addr:postcode": "40391",
    "addr:street": "Jl. Grand Hotel",
    "amenity": "marketplace",
    "name": "Lembang Floating Market",
    "id": "node/2429244622"
  },
  "geometry": {
    "type": "Point",
    "coordinates": [
      107.6185906,
      -6.8188423
    ]
  }
},
{
  "type": "Feature",
  "id": "node/2503856213",
  "properties": {
    "amenity": "marketplace",
    "name": "Pasar Kiaracondong",
    "id": "node/2503856213"
  },
  "geometry": {
    "type": "Point",
    "coordinates": [
      107.6450363,
      -6.9263499
    ]
  }
},
{
  "type": "Feature",
  "id": "node/2669874511",
  "properties": {
    "amenity": "marketplace",
    "name": "Pasar Margahayu",
    "id": "node/2669874511"
  },
  "geometry": {
    "type": "Point",
    "coordinates": [
      107.5612858,
      -6.9747403
    ]
  }
}
]
}
