{
"type": "FeatureCollection",
"features": [
{
  "type": "Feature",
  "id": "way/176163176",
  "properties": {
    "amenity": "hospital",
    "emergency": "yes",
    "name": "Hôpital Universitaire Mohamed Taher Maamouri Nabeul",
    "name:ar": "المستشفى الجامعي محمد الطاهر المعموري بنابل",
    "id": "way/176163176"
  },
  "geometry": {
    "type": "Point",
    "coordinates": [
      10.6742717,
      36.4375334
    ]
  }
},
{
  "type": "Feature",
  "id": "way/244662752",
  "properties": {
    "amenity": "hospital",
    "barrier": "wall",
    "id": "way/244662752"
  },
  "geometry": {
    "type": "Point",
    "coordinates": [
      10.7317946,
      36.4536399
    ]
  }
},
{
  "type": "Feature",
  "id": "way/477096434",
  "properties": {
    "amenity": "hospital",
    "name": "Hôpital de Korba",
    "id": "way/477096434"
  },
  "geometry": {
    "type": "Point",
    "coordinates": [
      10.8537347,
      36.5699172
    ]
  }
},
{
  "type": "Feature",
  "id": "node/1859399455",
  "properties": {
    "amenity": "hospital",
    "id": "node/1859399455"
  },
  "geometry": {
    "type": "Point",
    "coordinates": [
      10.744162,
      36.4491858
    ]
  }
},
{
  "type": "Feature",
  "id": "node/1859403682",
  "properties": {
    "amenity": "hospital",
    "id": "node/1859403682"
  },
  "geometry": {
    "type": "Point",
    "coordinates": [
      10.6834366,
      36.4300893
    ]
  }
},
{
  "type": "Feature",
  "id": "node/1863150860",
  "properties": {
    "amenity": "hospital",
    "id": "node/1863150860"
  },
  "geometry": {
    "type": "Point",
    "coordinates": [
      10.781335,
      36.4699846
    ]
  }
},
{
  "type": "Feature",
  "id": "node/1865620937",
  "properties": {
    "amenity": "hospital",
    "id": "node/1865620937"
  },
  "geometry": {
    "type": "Point",
    "coordinates": [
      10.8081503,
      36.4661516
    ]
  }
},
{
  "type": "Feature",
  "id": "node/4559010284",
  "properties": {
    "amenity": "hospital",
    "name": "Dispensaire",
    "id": "node/4559010284"
  },
  "geometry": {
    "type": "Point",
    "coordinates": [
      10.7286061,
      36.4471672
    ]
  }
},
{
  "type": "Feature",
  "id": "node/4559018694",
  "properties": {
    "addr:city": "Nabeul",
    "addr:housenumber": "24",
    "addr:postcode": "8000",
    "addr:street": "Rue Habib Karma",
    "amenity": "hospital",
    "name": "Pharmacie Laouiti",
    "operator": "Mme Naïma Chaarani Laouiti",
    "id": "node/4559018694"
  },
  "geometry": {
    "type": "Point",
    "coordinates": [
      10.7400136,
      36.4545129
    ]
  }
},
{
  "type": "Feature",
  "id": "node/4813346021",
  "properties": {
    "amenity": "hospital",
    "internet_access": "wlan",
    "name": "مستشفى عين كميشة",
    "id": "node/4813346021"
  },
  "geometry": {
    "type": "Point",
    "coordinates": [
      10.6776624,
      36.5040214
    ]
  }
}
]
}
