{
  "version": 0.6,
  "generator": "Overpass API",
  "osm3s": {
    "timestamp_osm_base": "2017-04-25T16:48:30Z",
    "copyright": "The data included in this document is from www.openstreetmap.org. The data is made available under ODbL."
  },
  "elements": [

{
  "type": "node",
  "id": 1859399455,
  "lat": 36.4491858,
  "lon": 10.7441620,
  "tags": {
    "amenity": "hospital"
  }
},
{
  "type": "node",
  "id": 1859403682,
  "lat": 36.4300893,
  "lon": 10.6834366,
  "tags": {
    "amenity": "hospital"
  }
},
{
  "type": "node",
  "id": 1863150860,
  "lat": 36.4699846,
  "lon": 10.7813350,
  "tags": {
    "amenity": "hospital"
  }
},
{
  "type": "node",
  "id": 1865620937,
  "lat": 36.4661516,
  "lon": 10.8081503,
  "tags": {
    "amenity": "hospital"
  }
},
{
  "type": "node",
  "id": 4559010284,
  "lat": 36.4471672,
  "lon": 10.7286061,
  "tags": {
    "amenity": "hospital",
    "name": "Dispensaire"
  }
},
{
  "type": "node",
  "id": 4559018694,
  "lat": 36.4545129,
  "lon": 10.7400136,
  "tags": {
    "addr:city": "Nabeul",
    "addr:housenumber": "24",
    "addr:postcode": "8000",
    "addr:street": "Rue Habib Karma",
    "amenity": "hospital",
    "name": "Pharmacie Laouiti",
    "operator": "Mme Naïma Chaarani Laouiti"
  }
},
{
  "type": "node",
  "id": 4813346021,
  "lat": 36.5040214,
  "lon": 10.6776624,
  "tags": {
    "amenity": "hospital",
    "internet_access": "wlan",
    "name": "مستشفى عين كميشة"
  }
},
{
  "type": "way",
  "id": 176163176,
  "center": {
    "lat": 36.4375334,
    "lon": 10.6742717
  },
  "nodes": [
    1867181810,
    1867181790,
    1867181769,
    1867181776,
    1867181782,
    1867181817,
    1867181763,
    1867181793,
    1867181778,
    1867181810
  ],
  "tags": {
    "amenity": "hospital",
    "emergency": "yes",
    "name": "Hôpital Universitaire Mohamed Taher Maamouri Nabeul",
    "name:ar": "المستشفى الجامعي محمد الطاهر المعموري بنابل"
  }
},
{
  "type": "way",
  "id": 244662752,
  "center": {
    "lat": 36.4536399,
    "lon": 10.7317946
  },
  "nodes": [
    2519570145,
    2519570157,
    2519570151,
    2519570156,
    2519570153,
    2519570155,
    2519570103,
    2519570097,
    2519569975,
    2519569979,
    2519570145
  ],
  "tags": {
    "amenity": "hospital",
    "barrier": "wall"
  }
},
{
  "type": "way",
  "id": 477096434,
  "center": {
    "lat": 36.5699172,
    "lon": 10.8537347
  },
  "nodes": [
    4705010788,
    4705010889,
    4705010890,
    4705010891,
    4705010788
  ],
  "tags": {
    "amenity": "hospital",
    "name": "Hôpital de Korba"
  }
},
{
  "type": "way",
  "id": 176163176,
  "nodes": [
    1867181810,
    1867181790,
    1867181769,
    1867181776,
    1867181782,
    1867181817,
    1867181763,
    1867181793,
    1867181778,
    1867181810
  ],
  "tags": {
    "amenity": "hospital",
    "emergency": "yes",
    "name": "Hôpital Universitaire Mohamed Taher Maamouri Nabeul",
    "name:ar": "المستشفى الجامعي محمد الطاهر المعموري بنابل"
  }
},
{
  "type": "way",
  "id": 244662752,
  "nodes": [
    2519570145,
    2519570157,
    2519570151,
    2519570156,
    2519570153,
    2519570155,
    2519570103,
    2519570097,
    2519569975,
    2519569979,
    2519570145
  ],
  "tags": {
    "amenity": "hospital",
    "barrier": "wall"
  }
},
{
  "type": "way",
  "id": 477096434,
  "nodes": [
    4705010788,
    4705010889,
    4705010890,
    4705010891,
    4705010788
  ],
  "tags": {
    "amenity": "hospital",
    "name": "Hôpital de Korba"
  }
}

  ]
}
