{
"type": "FeatureCollection",
"features": [
{
  "type": "Feature",
  "id": "way/49526109",
  "properties": {
    "amenity": "marketplace",
    "name": "Grand Marché de BOBO",
    "id": "way/49526109"
  },
  "geometry": {
    "type": "Point",
    "coordinates": [
      -4.3002335,
      11.1772485
    ]
  }
},
{
  "type": "Feature",
  "id": "way/286355902",
  "properties": {
    "amenity": "marketplace",
    "name": "Marché de Colsama",
    "operator": "Public",
    "source": "MapBox",
    "id": "way/286355902"
  },
  "geometry": {
    "type": "Point",
    "coordinates": [
      -4.3227613,
      11.1859056
    ]
  }
},
{
  "type": "Feature",
  "id": "way/337661521",
  "properties": {
    "amenity": "marketplace",
    "id": "way/337661521"
  },
  "geometry": {
    "type": "Point",
    "coordinates": [
      -4.3075119,
      11.2036522
    ]
  }
},
{
  "type": "Feature",
  "id": "way/338830676",
  "properties": {
    "amenity": "marketplace",
    "source": "survey",
    "id": "way/338830676"
  },
  "geometry": {
    "type": "Point",
    "coordinates": [
      -4.3105565,
      11.1881541
    ]
  }
},
{
  "type": "Feature",
  "id": "way/339538999",
  "properties": {
    "amenity": "marketplace",
    "barrier": "wall",
    "name": "Marche de Fruits",
    "id": "way/339538999"
  },
  "geometry": {
    "type": "Point",
    "coordinates": [
      -4.315199,
      11.1760681
    ]
  }
},
{
  "type": "Feature",
  "id": "way/343200255",
  "properties": {
    "amenity": "marketplace",
    "area": "yes",
    "landuse": "retail",
    "id": "way/343200255"
  },
  "geometry": {
    "type": "Point",
    "coordinates": [
      -4.2904367,
      11.1984497
    ]
  }
},
{
  "type": "Feature",
  "id": "way/343200266",
  "properties": {
    "amenity": "marketplace",
    "area": "yes",
    "landuse": "retail",
    "id": "way/343200266"
  },
  "geometry": {
    "type": "Point",
    "coordinates": [
      -4.2881742,
      11.1901188
    ]
  }
},
{
  "type": "Feature",
  "id": "way/343211378",
  "properties": {
    "amenity": "marketplace",
    "area": "yes",
    "landuse": "retail",
    "id": "way/343211378"
  },
  "geometry": {
    "type": "Point",
    "coordinates": [
      -4.2736901,
      11.1872684
    ]
  }
},
{
  "type": "Feature",
  "id": "way/352617031",
  "properties": {
    "amenity": "marketplace",
    "source": "bing;survey",
    "id": "way/352617031"
  },
  "geometry": {
    "type": "Point",
    "coordinates": [
      -4.3441737,
      11.1793117
    ]
  }
},
{
  "type": "Feature",
  "id": "node/2899717816",
  "properties": {
    "amenity": "marketplace",
    "name": "Marche de St Etienne",
    "opening_hours": "24/7",
    "operator": "Bobo-Dioulasso",
    "id": "node/2899717816"
  },
  "geometry": {
    "type": "Point",
    "coordinates": [
      -4.2784265,
      11.1787568
    ]
  }
},
{
  "type": "Feature",
  "id": "node/3631472950",
  "properties": {
    "amenity": "marketplace",
    "name": "Marche des Bissas",
    "source": "bing,knowledge",
    "id": "node/3631472950"
  },
  "geometry": {
    "type": "Point",
    "coordinates": [
      -4.2779044,
      11.1555874
    ]
  }
}
]
}
