{
"type": "FeatureCollection",
"features": [
{
  "type": "Feature",
  "id": "way/23465935",
  "properties": {
    "amenity": "university",
    "name": "Université protestante du Congo",
    "id": "way/23465935"
  },
  "geometry": {
    "type": "Point",
    "coordinates": [
      15.2974644,
      -4.3334599
    ]
  }
},
{
  "type": "Feature",
  "id": "way/48526375",
  "properties": {
    "amenity": "university",
    "building": "yes",
    "name": "Ecole de santé publique",
    "operator": "Université de Kinshasa",
    "id": "way/48526375"
  },
  "geometry": {
    "type": "Point",
    "coordinates": [
      15.3039172,
      -4.4123828
    ]
  }
},
{
  "type": "Feature",
  "id": "way/48526376",
  "properties": {
    "amenity": "university",
    "building": "yes",
    "name": "Ecole de santé publique",
    "operator": "Université de Kinshasa",
    "id": "way/48526376"
  },
  "geometry": {
    "type": "Point",
    "coordinates": [
      15.3039847,
      -4.4119645
    ]
  }
},
{
  "type": "Feature",
  "id": "way/48527190",
  "properties": {
    "amenity": "university",
    "id": "way/48527190"
  },
  "geometry": {
    "type": "Point",
    "coordinates": [
      15.2582826,
      -4.4042777
    ]
  }
},
{
  "type": "Feature",
  "id": "way/48535139",
  "properties": {
    "amenity": "university",
    "id": "way/48535139"
  },
  "geometry": {
    "type": "Point",
    "coordinates": [
      15.2900564,
      -4.3157515
    ]
  }
},
{
  "type": "Feature",
  "id": "way/48535347",
  "properties": {
    "amenity": "university",
    "id": "way/48535347"
  },
  "geometry": {
    "type": "Point",
    "coordinates": [
      15.2923474,
      -4.32488
    ]
  }
},
{
  "type": "Feature",
  "id": "way/105847838",
  "properties": {
    "amenity": "university",
    "building": "yes",
    "name": "Salle de sculpture (beaux-arts )",
    "id": "way/105847838"
  },
  "geometry": {
    "type": "Point",
    "coordinates": [
      15.293497,
      -4.3211066
    ]
  }
},
{
  "type": "Feature",
  "id": "way/105847843",
  "properties": {
    "amenity": "university",
    "building": "yes",
    "name": "SALLE DE REUNION ET PEINTURE",
    "id": "way/105847843"
  },
  "geometry": {
    "type": "Point",
    "coordinates": [
      15.2935398,
      -4.3212824
    ]
  }
},
{
  "type": "Feature",
  "id": "way/105847845",
  "properties": {
    "amenity": "university",
    "building": "yes",
    "name": "decoration interieure(beaux-arts)",
    "id": "way/105847845"
  },
  "geometry": {
    "type": "Point",
    "coordinates": [
      15.2935133,
      -4.3220128
    ]
  }
},
{
  "type": "Feature",
  "id": "way/105847859",
  "properties": {
    "amenity": "university",
    "building": "yes",
    "name": "home universitaire",
    "id": "way/105847859"
  },
  "geometry": {
    "type": "Point",
    "coordinates": [
      15.2922064,
      -4.3203911
    ]
  }
},
{
  "type": "Feature",
  "id": "way/109431897",
  "properties": {
    "amenity": "university",
    "name": "Académie des Beaux-Arts",
    "id": "way/109431897"
  },
  "geometry": {
    "type": "Point",
    "coordinates": [
      15.2931938,
      -4.3207476
    ]
  }
},
{
  "type": "Feature",
  "id": "way/228338729",
  "properties": {
    "amenity": "university",
    "building": "yes",
    "name": "IBTP (ARCHITECTURE)",
    "id": "way/228338729"
  },
  "geometry": {
    "type": "Point",
    "coordinates": [
      15.2932589,
      -4.3198587
    ]
  }
},
{
  "type": "Feature",
  "id": "way/228338730",
  "properties": {
    "amenity": "university",
    "building": "yes",
    "name": "Home des filles(université)",
    "id": "way/228338730"
  },
  "geometry": {
    "type": "Point",
    "coordinates": [
      15.2929142,
      -4.321773
    ]
  }
},
{
  "type": "Feature",
  "id": "way/331313850",
  "properties": {
    "amenity": "university",
    "name": "Université catholique du Congo",
    "id": "way/331313850"
  },
  "geometry": {
    "type": "Point",
    "coordinates": [
      15.3265763,
      -4.3417569
    ]
  }
},
{
  "type": "Feature",
  "id": "way/354099810",
  "properties": {
    "addr:city": "Limete",
    "addr:housenumber": "36",
    "addr:street": "15ème Rue",
    "amenity": "university",
    "name": "Université Libre de Kinshasa",
    "phone": "099 821 06 30",
    "website": "http://ulk-rdc.org",
    "id": "way/354099810"
  },
  "geometry": {
    "type": "Point",
    "coordinates": [
      15.3477933,
      -4.3667687
    ]
  }
},
{
  "type": "Feature",
  "id": "way/368806390",
  "properties": {
    "amenity": "university",
    "name": "Université Marien Ngouabi",
    "id": "way/368806390"
  },
  "geometry": {
    "type": "Point",
    "coordinates": [
      15.2481739,
      -4.2770661
    ]
  }
},
{
  "type": "Feature",
  "id": "node/440174230",
  "properties": {
    "alt_name": "UPN",
    "amenity": "university",
    "name": "Université pédagogique nationale",
    "id": "node/440174230"
  },
  "geometry": {
    "type": "Point",
    "coordinates": [
      15.2570492,
      -4.4043601
    ]
  }
},
{
  "type": "Feature",
  "id": "way/476917120",
  "properties": {
    "amenity": "university",
    "building": "yes",
    "name": "Université de Kinshasa, faculté des sciences agronomiques option des eaux et forêts",
    "id": "way/476917120"
  },
  "geometry": {
    "type": "Point",
    "coordinates": [
      15.3069084,
      -4.4106021
    ]
  }
},
{
  "type": "Feature",
  "id": "way/476917121",
  "properties": {
    "alt_name": "ERAIFT",
    "amenity": "university",
    "building": "yes",
    "name": "Ecole régionale d’aménagement intégré des forêts et territoires tropicaux",
    "operator": "Université de Kinshasa, Unesco mab, CARPE, CTB, etc.",
    "id": "way/476917121"
  },
  "geometry": {
    "type": "Point",
    "coordinates": [
      15.3065898,
      -4.4102689
    ]
  }
},
{
  "type": "Feature",
  "id": "node/3291519914",
  "properties": {
    "amenity": "university",
    "name": "Faculté des Lettres et des Sciences humaines",
    "operator": "Université Marien Ngouabi (Bayardelle)",
    "id": "node/3291519914"
  },
  "geometry": {
    "type": "Point",
    "coordinates": [
      15.2737966,
      -4.2664857
    ]
  }
},
{
  "type": "Feature",
  "id": "node/3736702619",
  "properties": {
    "amenity": "university",
    "name": "Institut Supérieur de Gestion (I.S.G. - UMN)",
    "ref": "ISG",
    "id": "node/3736702619"
  },
  "geometry": {
    "type": "Point",
    "coordinates": [
      15.2761368,
      -4.2733829
    ]
  }
},
{
  "type": "Feature",
  "id": "node/4394594735",
  "properties": {
    "addr:city": "kinshasa",
    "addr:street": "sergent Moke",
    "amenity": "university",
    "name": "ISIPA",
    "id": "node/4394594735"
  },
  "geometry": {
    "type": "Point",
    "coordinates": [
      15.2888578,
      -4.3262876
    ]
  }
},
{
  "type": "Feature",
  "id": "node/4483791474",
  "properties": {
    "amenity": "university",
    "name": "technologie mordene",
    "id": "node/4483791474"
  },
  "geometry": {
    "type": "Point",
    "coordinates": [
      15.2946385,
      -4.3523165
    ]
  }
},
{
  "type": "Feature",
  "id": "node/4650134577",
  "properties": {
    "amenity": "university",
    "name": "Université CEPROMAD",
    "id": "node/4650134577"
  },
  "geometry": {
    "type": "Point",
    "coordinates": [
      15.371562,
      -4.3760787
    ]
  }
}
]
}
