{
"type": "FeatureCollection",
"features": [
{
  "type": "Feature",
  "id": "way/299537305",
  "properties": {
    "alt_name": "Mairie Douala IV",
    "amenity": "townhall",
    "building": "public",
    "name": "Hôtel de ville Douala IV",
    "source": "Plan polyvalent Douala",
    "id": "way/299537305"
  },
  "geometry": {
    "type": "Point",
    "coordinates": [
      9.6844972,
      4.0701733
    ]
  }
},
{
  "type": "Feature",
  "id": "way/299539679",
  "properties": {
    "amenity": "townhall",
    "building": "public",
    "name": "Hôtel de Ville",
    "source": "Plan polyvalent Douala",
    "id": "way/299539679"
  },
  "geometry": {
    "type": "Point",
    "coordinates": [
      9.6858233,
      4.0416932
    ]
  }
},
{
  "type": "Feature",
  "id": "way/300313662",
  "properties": {
    "amenity": "townhall",
    "building": "yes",
    "name": "Mairie Douala lll",
    "source": "Plan polyvalent Douala",
    "id": "way/300313662"
  },
  "geometry": {
    "type": "Point",
    "coordinates": [
      9.7564351,
      4.0371399
    ]
  }
},
{
  "type": "Feature",
  "id": "way/362984924",
  "properties": {
    "amenity": "townhall",
    "building": "public",
    "name": "Mairie de Dibombari",
    "id": "way/362984924"
  },
  "geometry": {
    "type": "Point",
    "coordinates": [
      9.6570604,
      4.1770466
    ]
  }
},
{
  "type": "Feature",
  "id": "way/368954153",
  "properties": {
    "amenity": "townhall",
    "building": "public",
    "name": "Hôtel de Ville de Dibombari en Chantier",
    "id": "way/368954153"
  },
  "geometry": {
    "type": "Point",
    "coordinates": [
      9.6570844,
      4.1777413
    ]
  }
},
{
  "type": "Feature",
  "id": "way/456116146",
  "properties": {
    "amenity": "townhall",
    "building": "yes",
    "name": "Mairie de Douala 5",
    "id": "way/456116146"
  },
  "geometry": {
    "type": "Point",
    "coordinates": [
      9.7407448,
      4.0894513
    ]
  }
}
]
}
