{
"type": "FeatureCollection",
"features": [
{
  "type": "Feature",
  "id": "way/349869565",
  "properties": {
    "amenity": "university",
    "name": "Université de Douala campus principal",
    "name:en": "University of Douala main campus",
    "website": "http://www.univ-douala.com",
    "id": "way/349869565"
  },
  "geometry": {
    "type": "Point",
    "coordinates": [
      9.7344224,
      4.0557375
    ]
  }
},
{
  "type": "Feature",
  "id": "way/349873426",
  "properties": {
    "amenity": "university",
    "name": "Université de Douala campus Ndog-Bong",
    "name:en": "University of Douala Ndog-Bong campus",
    "website": "http://www.univ-douala.com",
    "id": "way/349873426"
  },
  "geometry": {
    "type": "Point",
    "coordinates": [
      9.7435512,
      4.0563575
    ]
  }
},
{
  "type": "Feature",
  "id": "way/374542439",
  "properties": {
    "amenity": "university",
    "name": "ESG ISTA",
    "id": "way/374542439"
  },
  "geometry": {
    "type": "Point",
    "coordinates": [
      9.7540229,
      4.0418164
    ]
  }
},
{
  "type": "Feature",
  "id": "way/455163944",
  "properties": {
    "amenity": "university",
    "name": "Université de Douala Campus de Logbessou",
    "id": "way/455163944"
  },
  "geometry": {
    "type": "Point",
    "coordinates": [
      9.8036517,
      4.0918428
    ]
  }
},
{
  "type": "Feature",
  "id": "way/456015283",
  "properties": {
    "amenity": "university",
    "building": "yes",
    "name": "Institut Universitaire de la Côte",
    "short_name": "IUC",
    "id": "way/456015283"
  },
  "geometry": {
    "type": "Point",
    "coordinates": [
      9.7026759,
      4.0591797
    ]
  }
},
{
  "type": "Feature",
  "id": "node/4516055380",
  "properties": {
    "amenity": "university",
    "name": "Faculté de Médecine et des Sciences Pharmaceutiques",
    "short_name": "FMSP",
    "id": "node/4516055380"
  },
  "geometry": {
    "type": "Point",
    "coordinates": [
      9.8019431,
      4.0902857
    ]
  }
},
{
  "type": "Feature",
  "id": "node/4516055381",
  "properties": {
    "amenity": "university",
    "name": "Faculté de Génie Industriel",
    "short_name": "FGI",
    "id": "node/4516055381"
  },
  "geometry": {
    "type": "Point",
    "coordinates": [
      9.8040057,
      4.0907298
    ]
  }
}
]
}
