{
"type": "FeatureCollection",
"features": [
{
  "type": "Feature",
  "id": "way/114705444",
  "properties": {
    "amenity": "marketplace",
    "name": "Tsena Talata",
    "id": "way/114705444"
  },
  "geometry": {
    "type": "Point",
    "coordinates": [
      47.0895788,
      -21.4446761
    ]
  }
},
{
  "type": "Feature",
  "id": "way/115157979",
  "properties": {
    "amenity": "marketplace",
    "id": "way/115157979"
  },
  "geometry": {
    "type": "Point",
    "coordinates": [
      47.0760931,
      -21.458638
    ]
  }
},
{
  "type": "Feature",
  "id": "way/363366886",
  "properties": {
    "amenity": "marketplace",
    "name": "Tsenan'Anjoma",
    "name:fr": "Marché d'Anjoma",
    "source": "Bing",
    "id": "way/363366886"
  },
  "geometry": {
    "type": "Point",
    "coordinates": [
      47.0878193,
      -21.455058
    ]
  }
},
{
  "type": "Feature",
  "id": "way/363698232",
  "properties": {
    "amenity": "marketplace",
    "name": "Tsena Asabotsy",
    "source": "Bing",
    "id": "way/363698232"
  },
  "geometry": {
    "type": "Point",
    "coordinates": [
      47.2036878,
      -21.4191974
    ]
  }
},
{
  "type": "Feature",
  "id": "way/366314641",
  "properties": {
    "amenity": "marketplace",
    "name": "Tsenan'i Tambohobe",
    "name:fr": "Marché de Tambohobe",
    "id": "way/366314641"
  },
  "geometry": {
    "type": "Point",
    "coordinates": [
      47.088127,
      -21.4428934
    ]
  }
},
{
  "type": "Feature",
  "id": "way/394814869",
  "properties": {
    "amenity": "marketplace",
    "source": "Bing",
    "id": "way/394814869"
  },
  "geometry": {
    "type": "Point",
    "coordinates": [
      47.0383034,
      -21.5603872
    ]
  }
},
{
  "type": "Feature",
  "id": "way/397254332",
  "properties": {
    "amenity": "marketplace",
    "name": "Tsenan'Ankidona",
    "name:en": "Ankidona Market",
    "name:fr": "Marché d'Ankidona",
    "source": "Bing",
    "id": "way/397254332"
  },
  "geometry": {
    "type": "Point",
    "coordinates": [
      47.0673628,
      -21.4674173
    ]
  }
}
]
}
