{
"type": "FeatureCollection",
"features": [
{
  "type": "Feature",
  "id": "way/363367340",
  "properties": {
    "amenity": "university",
    "building": "yes",
    "name": "Sekoly Ambony Loterana momba ny Teolojia",
    "name:fr": "Faculté de théologie luthérienne",
    "source": "Bing",
    "id": "way/363367340"
  },
  "geometry": {
    "type": "Point",
    "coordinates": [
      47.0935838,
      -21.4468427
    ]
  }
},
{
  "type": "Feature",
  "id": "way/391709293",
  "properties": {
    "amenity": "university",
    "name": "École Nationale d'Informatique",
    "source": "Bing",
    "id": "way/391709293"
  },
  "geometry": {
    "type": "Point",
    "coordinates": [
      47.093386,
      -21.4549398
    ]
  }
},
{
  "type": "Feature",
  "id": "node/1298725783",
  "properties": {
    "amenity": "university",
    "name": "Institut des Sciences et Techniques de l'Environnement",
    "operator": "Université de Fianarantsoa",
    "id": "node/1298725783"
  },
  "geometry": {
    "type": "Point",
    "coordinates": [
      47.0843611,
      -21.4529059
    ]
  }
},
{
  "type": "Feature",
  "id": "node/1298750578",
  "properties": {
    "amenity": "university",
    "name": "Université Privée de Madagascar",
    "id": "node/1298750578"
  },
  "geometry": {
    "type": "Point",
    "coordinates": [
      47.0889143,
      -21.4505835
    ]
  }
},
{
  "type": "Feature",
  "id": "node/1298774632",
  "properties": {
    "amenity": "university",
    "name": "Institut de Formation Technique",
    "id": "node/1298774632"
  },
  "geometry": {
    "type": "Point",
    "coordinates": [
      47.0836282,
      -21.4524341
    ]
  }
},
{
  "type": "Feature",
  "id": "node/1821258509",
  "properties": {
    "addr:housename": "ENI",
    "addr:postcode": "BP 1487",
    "addr:street": "Fianarantsoa",
    "amenity": "university",
    "designation": "Etablissement public d'enseignement supérieur",
    "name": "École Nationale d'Informatique",
    "operator": "Université de Fianarantsoa",
    "source": "http://www.univ-fianar.mg",
    "id": "node/1821258509"
  },
  "geometry": {
    "type": "Point",
    "coordinates": [
      47.0933461,
      -21.4550958
    ]
  }
},
{
  "type": "Feature",
  "id": "node/3696424754",
  "properties": {
    "amenity": "university",
    "name": "Institut de Formation Technique",
    "id": "node/3696424754"
  },
  "geometry": {
    "type": "Point",
    "coordinates": [
      47.0847111,
      -21.4519831
    ]
  }
},
{
  "type": "Feature",
  "id": "node/3700732626",
  "properties": {
    "amenity": "university",
    "name": "CRTE-CNTEMAD",
    "id": "node/3700732626"
  },
  "geometry": {
    "type": "Point",
    "coordinates": [
      47.0860007,
      -21.4564654
    ]
  }
},
{
  "type": "Feature",
  "id": "node/3709114326",
  "properties": {
    "amenity": "university",
    "name": "Campus Universitaire Andrainjato",
    "operator": "Université de Fianarantsoa",
    "website": "http://www.univ-fianar.mg/",
    "wikipedia": "fr:Université de Fianarantsoa",
    "id": "node/3709114326"
  },
  "geometry": {
    "type": "Point",
    "coordinates": [
      47.1096568,
      -21.464777
    ]
  }
},
{
  "type": "Feature",
  "id": "node/3712496519",
  "properties": {
    "amenity": "university",
    "name": "INSPNMAD",
    "id": "node/3712496519"
  },
  "geometry": {
    "type": "Point",
    "coordinates": [
      47.0886243,
      -21.4586791
    ]
  }
}
]
}
