{
"type": "FeatureCollection",
"features": [
{
  "type": "Feature",
  "id": "relation/7115627",
  "properties": {
    "amenity": "hospital",
    "name": "CHU Tambohobe",
    "note": "CHU",
    "type": "multipolygon",
    "id": "relation/7115627"
  },
  "geometry": {
    "type": "Point",
    "coordinates": [
      47.0860273,
      -21.4446371
    ]
  }
},
{
  "type": "Feature",
  "id": "node/3689722151",
  "properties": {
    "amenity": "hospital",
    "name": "CDS",
    "operator": "EKAR",
    "id": "node/3689722151"
  },
  "geometry": {
    "type": "Point",
    "coordinates": [
      47.0847588,
      -21.4496069
    ]
  }
},
{
  "type": "Feature",
  "id": "node/3689722153",
  "properties": {
    "amenity": "hospital",
    "name": "SALFA",
    "operator": "FLM",
    "source": "Bing",
    "id": "node/3689722153"
  },
  "geometry": {
    "type": "Point",
    "coordinates": [
      47.0932267,
      -21.4514126
    ]
  }
},
{
  "type": "Feature",
  "id": "node/3713925175",
  "properties": {
    "amenity": "hospital",
    "name": "HÃ´pital Universitaire Andrainjato",
    "source": "Bing",
    "id": "node/3713925175"
  },
  "geometry": {
    "type": "Point",
    "coordinates": [
      47.1099383,
      -21.4618694
    ]
  }
},
{
  "type": "Feature",
  "id": "node/3997287446",
  "properties": {
    "amenity": "hospital",
    "name": "CDS Ambalakilonga",
    "operator": "EKAR",
    "source": "Bing",
    "id": "node/3997287446"
  },
  "geometry": {
    "type": "Point",
    "coordinates": [
      47.1240654,
      -21.4190855
    ]
  }
}
]
}
