{
"type": "FeatureCollection",
"features": [
{
  "type": "Feature",
  "id": "way/156534713",
  "properties": {
    "amenity": "marketplace",
    "name:en": "Fruit & Vegetable market",
    "id": "way/156534713"
  },
  "geometry": {
    "type": "Point",
    "coordinates": [
      -4.9853467,
      34.0617959
    ]
  }
},
{
  "type": "Feature",
  "id": "way/486914786",
  "properties": {
    "amenity": "marketplace",
    "building": "yes",
    "name": "Marché Central",
    "id": "way/486914786"
  },
  "geometry": {
    "type": "Point",
    "coordinates": [
      -4.998342,
      34.0393998
    ]
  }
},
{
  "type": "Feature",
  "id": "node/1360122234",
  "properties": {
    "amenity": "marketplace",
    "name": "Kessaria",
    "id": "node/1360122234"
  },
  "geometry": {
    "type": "Point",
    "coordinates": [
      -4.9743144,
      34.0650207
    ]
  }
},
{
  "type": "Feature",
  "id": "node/2001342005",
  "properties": {
    "amenity": "marketplace",
    "id": "node/2001342005"
  },
  "geometry": {
    "type": "Point",
    "coordinates": [
      -4.9951313,
      34.0292175
    ]
  }
},
{
  "type": "Feature",
  "id": "node/2312523152",
  "properties": {
    "amenity": "marketplace",
    "name": "Quaat Smen Fondouk",
    "id": "node/2312523152"
  },
  "geometry": {
    "type": "Point",
    "coordinates": [
      -4.9807334,
      34.0648188
    ]
  }
},
{
  "type": "Feature",
  "id": "node/2312523170",
  "properties": {
    "amenity": "marketplace",
    "name": "Fondouk Tazi",
    "id": "node/2312523170"
  },
  "geometry": {
    "type": "Point",
    "coordinates": [
      -4.9800146,
      34.06409
    ]
  }
},
{
  "type": "Feature",
  "id": "node/2312523280",
  "properties": {
    "amenity": "marketplace",
    "name": "Souk el Henna",
    "id": "node/2312523280"
  },
  "geometry": {
    "type": "Point",
    "coordinates": [
      -4.9750793,
      34.0654854
    ]
  }
},
{
  "type": "Feature",
  "id": "node/2312523588",
  "properties": {
    "amenity": "marketplace",
    "name": "Tannerie Ain Azliten",
    "id": "node/2312523588"
  },
  "geometry": {
    "type": "Point",
    "coordinates": [
      -4.9804437,
      34.0656009
    ]
  }
},
{
  "type": "Feature",
  "id": "node/4552318205",
  "properties": {
    "amenity": "marketplace",
    "name": "Marché de légumes سوق خضراوات",
    "name:ar": "سوق خضراوات",
    "name:en": "Vegetable Market",
    "name:fr": "Marché de légumes",
    "id": "node/4552318205"
  },
  "geometry": {
    "type": "Point",
    "coordinates": [
      -5.0083665,
      34.0060034
    ]
  }
},
{
  "type": "Feature",
  "id": "node/4793164721",
  "properties": {
    "addr:street": "Avenue Abdallah Chefchaouni",
    "amenity": "marketplace",
    "name": "Bazar",
    "id": "node/4793164721"
  },
  "geometry": {
    "type": "Point",
    "coordinates": [
      -4.9977876,
      34.0383253
    ]
  }
}
]
}
