{
"type": "FeatureCollection",
"features": [
{
  "type": "Feature",
  "id": "way/150786744",
  "properties": {
    "amenity": "hospital",
    "emergency": "yes",
    "name": "University hospital Hassan II",
    "note": "Fix french and arabic name",
    "id": "way/150786744"
  },
  "geometry": {
    "type": "Point",
    "coordinates": [
      -4.9622857,
      34.0043481
    ]
  }
},
{
  "type": "Feature",
  "id": "node/2133975409",
  "properties": {
    "amenity": "hospital",
    "name": "Hopital Ibn Alkhatib",
    "id": "node/2133975409"
  },
  "geometry": {
    "type": "Point",
    "coordinates": [
      -4.9904739,
      34.0635348
    ]
  }
},
{
  "type": "Feature",
  "id": "node/2157394170",
  "properties": {
    "amenity": "hospital",
    "id": "node/2157394170"
  },
  "geometry": {
    "type": "Point",
    "coordinates": [
      -4.9849267,
      34.0449702
    ]
  }
},
{
  "type": "Feature",
  "id": "node/2952714570",
  "properties": {
    "amenity": "hospital",
    "emergency": "no",
    "name": "Hopital Bab Lahdid",
    "id": "node/2952714570"
  },
  "geometry": {
    "type": "Point",
    "coordinates": [
      -4.9820346,
      34.0578021
    ]
  }
},
{
  "type": "Feature",
  "id": "node/3899915428",
  "properties": {
    "amenity": "hospital",
    "name": "Centre hospitalier universitaire Hassan II",
    "id": "node/3899915428"
  },
  "geometry": {
    "type": "Point",
    "coordinates": [
      -4.9637961,
      34.0036766
    ]
  }
},
{
  "type": "Feature",
  "id": "node/4499322590",
  "properties": {
    "amenity": "hospital",
    "name": "الكوثر",
    "id": "node/4499322590"
  },
  "geometry": {
    "type": "Point",
    "coordinates": [
      -4.9997233,
      34.0143151
    ]
  }
},
{
  "type": "Feature",
  "id": "node/4711503889",
  "properties": {
    "amenity": "hospital",
    "name": "Centre de santé adarissa المركز الصحي الادارسة",
    "name:ar": "المركز الصحي الادارسة",
    "name:fr": "Centre de santé adarissa",
    "id": "node/4711503889"
  },
  "geometry": {
    "type": "Point",
    "coordinates": [
      -5.0135807,
      34.017432
    ]
  }
},
{
  "type": "Feature",
  "id": "node/4725737195",
  "properties": {
    "addr:city": "Fes",
    "addr:housenumber": "16",
    "addr:street": "Avenue Allal Ben Abdallah",
    "amenity": "hospital",
    "name": "Clinique RAIS",
    "id": "node/4725737195"
  },
  "geometry": {
    "type": "Point",
    "coordinates": [
      -5.0060922,
      34.033527
    ]
  }
}
]
}
