{
"type": "FeatureCollection",
"features": [
{
  "type": "Feature",
  "id": "way/226728666",
  "properties": {
    "amenity": "marketplace",
    "landuse": "retail",
    "name": "Marché de Poisson et du bétail",
    "source": "MEADEN",
    "id": "way/226728666"
  },
  "geometry": {
    "type": "Point",
    "coordinates": [
      13.4033954,
      9.2977916
    ]
  }
},
{
  "type": "Feature",
  "id": "way/226752544",
  "properties": {
    "amenity": "marketplace",
    "landuse": "retail",
    "name": "Grand-Marché",
    "id": "way/226752544"
  },
  "geometry": {
    "type": "Point",
    "coordinates": [
      13.3979826,
      9.3096556
    ]
  }
},
{
  "type": "Feature",
  "id": "way/227130458",
  "properties": {
    "amenity": "marketplace",
    "landuse": "retail",
    "name": "Petit-Marché",
    "id": "way/227130458"
  },
  "geometry": {
    "type": "Point",
    "coordinates": [
      13.3895305,
      9.2982785
    ]
  }
},
{
  "type": "Feature",
  "id": "way/307484462",
  "properties": {
    "amenity": "marketplace",
    "name": "Marche deTakasko",
    "id": "way/307484462"
  },
  "geometry": {
    "type": "Point",
    "coordinates": [
      13.4173512,
      9.3533659
    ]
  }
}
]
}
