{
  "version": 0.6,
  "generator": "Overpass API",
  "osm3s": {
    "timestamp_osm_base": "2017-04-25T16:46:30Z",
    "copyright": "The data included in this document is from www.openstreetmap.org. The data is made available under ODbL."
  },
  "elements": [

{
  "type": "node",
  "id": 1774686847,
  "lat": -6.2141752,
  "lon": 106.8269348,
  "tags": {
    "amenity": "marketplace",
    "name": "Alfamart"
  }
},
{
  "type": "node",
  "id": 1848639594,
  "lat": -6.2915177,
  "lon": 106.9444471,
  "tags": {
    "amenity": "marketplace"
  }
},
{
  "type": "node",
  "id": 2216026792,
  "lat": -6.1965723,
  "lon": 106.8827406,
  "tags": {
    "amenity": "marketplace",
    "name": "Pasar Sunan Giri"
  }
},
{
  "type": "node",
  "id": 2285199213,
  "lat": -6.2591674,
  "lon": 106.9637676,
  "tags": {
    "amenity": "marketplace",
    "name": "Jamblang"
  }
},
{
  "type": "node",
  "id": 2372285201,
  "lat": -6.2605426,
  "lon": 106.7093938,
  "tags": {
    "amenity": "marketplace",
    "name": "Pasar Tradisional Arinda"
  }
},
{
  "type": "node",
  "id": 2479751952,
  "lat": -6.1095687,
  "lon": 106.7733011,
  "tags": {
    "addr:city": "North Jakarta",
    "addr:full": "Jl.Dermaga Muara Angke",
    "addr:housenumber": "RT.11/RW.11",
    "addr:postcode": "14450",
    "addr:street": "Jl. Muara Angke",
    "amenity": "marketplace",
    "building:condition": "good",
    "building:levels": "2",
    "name": "Pasar Muara Angke"
  }
},
{
  "type": "node",
  "id": 2479752921,
  "lat": -6.1173756,
  "lon": 106.7834262,
  "tags": {
    "access:roof": "yes",
    "addr:full": "Jl. Muara Karang Raya",
    "amenity": "marketplace",
    "building:condition": "good",
    "building:levels": "2",
    "name": "Superindo Swalayan"
  }
},
{
  "type": "node",
  "id": 2479753542,
  "lat": -6.1154573,
  "lon": 106.7925496,
  "tags": {
    "addr:full": "Jln Pluit Permai",
    "amenity": "marketplace",
    "building": "yes",
    "building:condition": "good",
    "building:levels": "1",
    "building:use": "Tempat Evakuasi",
    "name": "Seven Eleven"
  }
},
{
  "type": "node",
  "id": 2479762065,
  "lat": -6.1212387,
  "lon": 106.7889894,
  "tags": {
    "addr:full": "pluit kencana dalam",
    "amenity": "marketplace",
    "building": "yes",
    "building:condition": "good",
    "building:levels": "1",
    "building:use": "Tempat Evakuasi",
    "name": "pasar pluit"
  }
},
{
  "type": "node",
  "id": 2479767393,
  "lat": -6.1157999,
  "lon": 106.7786871,
  "tags": {
    "addr:full": "Jl Pluit Karang Niaga",
    "amenity": "marketplace",
    "building:condition": "good",
    "building:levels": "4-7",
    "name": "Pasar Muarakarang"
  }
},
{
  "type": "node",
  "id": 2490616165,
  "lat": -6.1299929,
  "lon": 106.7943127,
  "tags": {
    "addr:full": "Jl.Tanah Merah",
    "amenity": "marketplace",
    "building:condition": "good",
    "name": "Pasar Tanah Merah"
  }
},
{
  "type": "node",
  "id": 2490616272,
  "lat": -6.1235295,
  "lon": 106.8039458,
  "tags": {
    "addr:full": "jl.muarabaru",
    "amenity": "marketplace",
    "building:condition": "good",
    "name": "pasar muara baru"
  }
},
{
  "type": "node",
  "id": 2490616909,
  "lat": -6.1100928,
  "lon": 106.8023667,
  "tags": {
    "amenity": "marketplace",
    "name": "pelelangan ikan"
  }
},
{
  "type": "node",
  "id": 2490617754,
  "lat": -6.1298338,
  "lon": 106.8010304,
  "tags": {
    "addr:full": "Jalan Tanah Pasir",
    "amenity": "marketplace",
    "building:condition": "poor",
    "building:levels": "1",
    "name": "Pasar Tanah Pasir"
  }
},
{
  "type": "node",
  "id": 2511101537,
  "lat": -6.1027122,
  "lon": 106.8016981,
  "tags": {
    "addr:full": "Jalan Cumi Raya",
    "amenity": "marketplace",
    "name": "Pasar (Alat Kapal)"
  }
},
{
  "type": "node",
  "id": 2511101538,
  "lat": -6.1005790,
  "lon": 106.8016341,
  "tags": {
    "amenity": "marketplace",
    "building": "yes",
    "building:condition": "good",
    "building:levels": "1",
    "building:use": "Tempat Evakuasi, Dapur Umum, Posko Logistik, Posko Kesehatan",
    "name": "Pelelangan Ikan"
  }
},
{
  "type": "node",
  "id": 2511101539,
  "lat": -6.1093681,
  "lon": 106.8013396,
  "tags": {
    "amenity": "marketplace",
    "building": "yes",
    "building:condition": "good",
    "building:levels": "1",
    "building:use": "Tempat Evakuasi, Dapur Umum, Posko Logistik, Posko Kesehatan",
    "name": "Pelelangan Ikan"
  }
},
{
  "type": "node",
  "id": 2640383640,
  "lat": -6.3060945,
  "lon": 106.9345044,
  "tags": {
    "amenity": "marketplace",
    "name": "Pasar Kecapi"
  }
},
{
  "type": "node",
  "id": 3692631819,
  "lat": -6.1287071,
  "lon": 106.8566682,
  "tags": {
    "amenity": "marketplace",
    "name": "Pasar Bambu Kuning"
  }
},
{
  "type": "node",
  "id": 3692631820,
  "lat": -6.1284680,
  "lon": 106.8543756,
  "tags": {
    "amenity": "marketplace",
    "name": "Pasar Belek"
  }
},
{
  "type": "node",
  "id": 3692631824,
  "lat": -6.1292942,
  "lon": 106.8542299,
  "tags": {
    "amenity": "marketplace",
    "name": "Pasar Waro Kali"
  }
},
{
  "type": "node",
  "id": 3801705131,
  "lat": -6.0952775,
  "lon": 106.9637902,
  "tags": {
    "addr:full": "Jalan Marunda Rusun",
    "amenity": "marketplace",
    "name": "Pasar Rusun Marunda"
  }
},
{
  "type": "node",
  "id": 4132781137,
  "lat": -6.1616309,
  "lon": 106.8502929,
  "tags": {
    "amenity": "marketplace",
    "name": "Indomaret"
  }
},
{
  "type": "node",
  "id": 4146438303,
  "lat": -6.1777040,
  "lon": 106.7837889,
  "tags": {
    "addr:city": "Jakarta Barat",
    "addr:postcode": "11470",
    "addr:street": "Tanjung Duren Barat 3",
    "amenity": "marketplace",
    "name": "Pasar Tomang Barat (Pasar Kopro)"
  }
},
{
  "type": "node",
  "id": 4146456982,
  "lat": -6.2413280,
  "lon": 106.7910128,
  "tags": {
    "addr:city": "jakarta selatan",
    "addr:postcode": "12130",
    "addr:street": "Jalan Tebah 2",
    "amenity": "marketplace",
    "name": "Pasar Mayestik"
  }
},
{
  "type": "node",
  "id": 4146468727,
  "lat": -6.2077667,
  "lon": 106.7961301,
  "tags": {
    "addr:city": "Jakarta barat",
    "addr:postcode": "11480",
    "addr:street": "Palmerah Utara",
    "amenity": "marketplace",
    "name": "Pasar Palmerah"
  }
},
{
  "type": "node",
  "id": 4146483311,
  "lat": -6.2396827,
  "lon": 106.8118191,
  "tags": {
    "addr:city": "jakarta selatan",
    "addr:postcode": "12180",
    "addr:street": "Cipaku 1",
    "amenity": "marketplace",
    "name": "Pasar Santa"
  }
},
{
  "type": "node",
  "id": 4146503326,
  "lat": -6.1768998,
  "lon": 106.8419740,
  "tags": {
    "addr:city": "Jakarta Pusat",
    "addr:housenumber": "No. 169",
    "addr:postcode": "10710",
    "addr:street": "Bungur besar",
    "amenity": "marketplace",
    "name": "Pasar Senen"
  }
},
{
  "type": "node",
  "id": 4146533407,
  "lat": -6.1902239,
  "lon": 106.7957009,
  "tags": {
    "addr:city": "jakarta barat",
    "addr:postcode": "11480",
    "addr:street": "Jalan Anggrek Garuda",
    "amenity": "marketplace",
    "name": "Pasar Slipi"
  }
},
{
  "type": "node",
  "id": 4148448704,
  "lat": -6.1880206,
  "lon": 106.8145206,
  "tags": {
    "addr:city": "Tanah Abang, Central Jakarta",
    "addr:housenumber": "No. 78, 80, 82",
    "addr:postcode": "10220",
    "addr:street": "Jl. H. Fachrudin",
    "amenity": "marketplace",
    "name": "Blok B Tanah Abang"
  }
},
{
  "type": "node",
  "id": 4150434858,
  "lat": -6.1656442,
  "lon": 106.8347756,
  "tags": {
    "addr:city": "Central Jakarta",
    "addr:postcode": "10710",
    "addr:street": "Jalan Pasar Baru",
    "amenity": "marketplace",
    "name": "Pasar Baru",
    "name:en": "Pintu Pasar Baru"
  }
},
{
  "type": "node",
  "id": 4150471600,
  "lat": -6.2062082,
  "lon": 106.7778386,
  "tags": {
    "addr:city": "West Jakarta",
    "addr:housenumber": "No. 1",
    "addr:postcode": "11540",
    "addr:street": "Jalan Sulaiman",
    "amenity": "marketplace",
    "name": "Pasar Bunga Rawa Belong"
  }
},
{
  "type": "node",
  "id": 4150557619,
  "lat": -6.1900604,
  "lon": 106.7956461,
  "tags": {
    "addr:city": "West Jakarta",
    "addr:postcode": "11410",
    "addr:street": "Jl. Kemanggisan Utama",
    "amenity": "marketplace",
    "name": "Pasar Slipi"
  }
},
{
  "type": "node",
  "id": 4150570546,
  "lat": -6.1881778,
  "lon": 106.8145376,
  "tags": {
    "addr:city": "Central Jakarta",
    "addr:housenumber": "Blok F.2",
    "addr:postcode": "10250",
    "addr:street": "Jl. Kh. Mas Mansyur",
    "amenity": "marketplace",
    "name": "Pasar Tanah Abang Blok A - F"
  }
},
{
  "type": "node",
  "id": 4198510242,
  "lat": -6.1799499,
  "lon": 106.8247042,
  "tags": {
    "amenity": "marketplace",
    "name": "Night market"
  }
},
{
  "type": "node",
  "id": 4243951030,
  "lat": -6.2153127,
  "lon": 106.8153156,
  "tags": {
    "addr:city": "Tanah Abang, Central Jakarta",
    "addr:housenumber": "1",
    "addr:postcode": "10210",
    "addr:street": "Jalan Bendungan Hilir Blok A",
    "amenity": "marketplace",
    "name": "Pasar Bendungan Hilir"
  }
},
{
  "type": "node",
  "id": 4243955092,
  "lat": -6.2787240,
  "lon": 106.8079724,
  "tags": {
    "addr:city": "Cilandak, South Jakarta",
    "addr:postcode": "12410",
    "addr:street": "Jalan Pangeran Antasari",
    "amenity": "marketplace",
    "name": "Pasar Cipete Selatan"
  }
},
{
  "type": "node",
  "id": 4243963464,
  "lat": -6.1623147,
  "lon": 106.7971420,
  "tags": {
    "addr:city": "Grogol Petamburan, West Jakarta",
    "addr:postcode": "11450",
    "addr:street": "Jl. DR. Mawardi Raya",
    "amenity": "marketplace",
    "name": "Pasar Grogol"
  }
},
{
  "type": "node",
  "id": 4243963887,
  "lat": -6.1405760,
  "lon": 106.8119471,
  "tags": {
    "addr:city": "Pinangsia, West Jakarta",
    "addr:postcode": "11110",
    "addr:street": "Jalan Asemka-Petongkangan",
    "amenity": "marketplace",
    "name": "Pasar Grosir Asemka"
  }
},
{
  "type": "node",
  "id": 4243966701,
  "lat": -6.2892907,
  "lon": 106.7715006,
  "tags": {
    "addr:city": "Cilandak, South Jakarta",
    "addr:housenumber": "1",
    "addr:postcode": "12440",
    "addr:street": "Jalan Pasar Jumat",
    "amenity": "marketplace",
    "name": "Pasar Jumat"
  }
},
{
  "type": "node",
  "id": 4243970206,
  "lat": -6.2401693,
  "lon": 106.7806307,
  "tags": {
    "addr:city": "Kebayoran Lama, South Jakarta",
    "addr:postcode": "12230",
    "addr:street": "Jalan Ciputat Raya",
    "amenity": "marketplace",
    "name": "Pasar Kebayoran Lama"
  }
},
{
  "type": "node",
  "id": 4243970642,
  "lat": -6.1933174,
  "lon": 106.8136575,
  "tags": {
    "addr:city": "Tanah Abang, Central Jakarta",
    "addr:housenumber": "11",
    "addr:postcode": "10230",
    "addr:street": "Jl. Sabeni",
    "amenity": "marketplace",
    "name": "Pasar Kambing Tanah Abang"
  }
},
{
  "type": "node",
  "id": 4243972080,
  "lat": -6.2681814,
  "lon": 106.8667229,
  "tags": {
    "addr:city": "Kramat Jati, East Jakarta",
    "addr:postcode": "13510",
    "addr:street": "Jalan Raya Bogor",
    "amenity": "marketplace",
    "name": "Pasar Kramat Jati"
  }
},
{
  "type": "node",
  "id": 4243975631,
  "lat": -6.1901440,
  "lon": 106.8834920,
  "tags": {
    "addr:city": "Pulo Gadung, East Jakarta",
    "addr:postcode": "13220",
    "addr:street": "Jl. Sunan Giri",
    "amenity": "marketplace",
    "name": "Pasar Sunan Giri"
  }
},
{
  "type": "node",
  "id": 4243975636,
  "lat": -6.1888300,
  "lon": 106.8120002,
  "tags": {
    "addr:city": "Tanah Abang, Central Jakarta",
    "addr:postcode": "10250",
    "addr:street": "Jalan Kebon Jati",
    "amenity": "marketplace",
    "name": "Pasar Tanah Abang"
  }
},
{
  "type": "node",
  "id": 4243979772,
  "lat": -6.1610300,
  "lon": 106.8324024,
  "tags": {
    "addr:city": "Sawah Besar, Central Jakarta",
    "addr:postcode": "10710",
    "addr:street": "Jalan KH Samanhudi",
    "amenity": "marketplace",
    "name": "Pasar Metro"
  }
},
{
  "type": "node",
  "id": 4243984103,
  "lat": -6.1991527,
  "lon": 106.7611797,
  "tags": {
    "addr:city": "Kembangan, West Jakarta",
    "addr:postcode": "11620",
    "addr:street": "Jalan Meruya Ilir",
    "amenity": "marketplace",
    "name": "Pasar Pengampuan"
  }
},
{
  "type": "node",
  "id": 4243984835,
  "lat": -6.1768067,
  "lon": 106.8419352,
  "tags": {
    "addr:city": "Senen, Central Jakarta",
    "addr:postcode": "10450",
    "addr:street": "Jl. Let. Jen. Suprapto-Kramat Bunder",
    "amenity": "marketplace",
    "name": "Pasar Proyek Senen"
  }
},
{
  "type": "node",
  "id": 4244006457,
  "lat": -6.1302273,
  "lon": 106.8946007,
  "tags": {
    "addr:city": "Koja, North Jakarta",
    "addr:postcode": "14230",
    "addr:street": "Jl. Raya Plumpang Rawa",
    "amenity": "marketplace",
    "name": "Pasar Ular"
  }
},
{
  "type": "node",
  "id": 4244009966,
  "lat": -6.2551713,
  "lon": 106.8248197,
  "tags": {
    "addr:city": "Pancoran, South Jakarta",
    "addr:housenumber": "9",
    "addr:postcode": "12760",
    "addr:street": "Jalan Kemang Utara",
    "amenity": "marketplace",
    "name": "Pasar Warung Buncit"
  }
},
{
  "type": "node",
  "id": 4244016676,
  "lat": -6.1611207,
  "lon": 106.8331087,
  "tags": {
    "addr:city": "Sawah Besar, Central Jakarta",
    "addr:postcode": "10210",
    "addr:street": "Jalan KH Samanhudi",
    "amenity": "marketplace",
    "name": "PD Pasar Jaya Pasar Baru Metro Atom"
  }
},
{
  "type": "node",
  "id": 4248078330,
  "lat": -6.3123393,
  "lon": 106.7935663,
  "tags": {
    "addr:city": "Pondok Labu, South Jakarta",
    "addr:postcode": "12450",
    "addr:street": "Jl. R.S. Fatmawati",
    "amenity": "marketplace",
    "name": "Pasar Pondok Labu"
  }
},
{
  "type": "node",
  "id": 4248081888,
  "lat": -6.2350187,
  "lon": 106.7845262,
  "tags": {
    "addr:city": "Kebayoran Lama, South Jakarta",
    "addr:postcode": "12220",
    "addr:street": "Jalan Teuku Nyak Arief",
    "amenity": "marketplace",
    "name": "Pasar Bata Putih"
  }
},
{
  "type": "node",
  "id": 4248114112,
  "lat": -6.2210400,
  "lon": 106.7831938,
  "tags": {
    "addr:city": "Permata Hijau, South Jakarta",
    "addr:postcode": "12210",
    "addr:street": "Jl. Letjen. Supeno",
    "amenity": "marketplace",
    "name": "Pasar Mobil Auto Mall senayan"
  }
},
{
  "type": "node",
  "id": 4248117055,
  "lat": -6.2868740,
  "lon": 106.7954385,
  "tags": {
    "addr:city": "Cilandak, South Jakarta",
    "addr:postcode": "12430",
    "addr:street": "Jalan RS Fatmawati",
    "amenity": "marketplace",
    "name": "Pasar Made"
  }
},
{
  "type": "node",
  "id": 4248127894,
  "lat": -6.2409387,
  "lon": 106.8254953,
  "tags": {
    "addr:city": "Mampang Prapatan, South Jakarta",
    "addr:housenumber": "58",
    "addr:postcode": "12790",
    "addr:street": "Jalan Mampang Prapatan",
    "amenity": "marketplace",
    "name": "Pasar Mampang"
  }
},
{
  "type": "node",
  "id": 4248130259,
  "lat": -6.1656145,
  "lon": 106.8346943,
  "tags": {
    "addr:city": "Central Jakarta",
    "addr:postcode": "10710",
    "addr:street": "Pasar Baru Selatan",
    "amenity": "marketplace",
    "name": "Pasar Baru Selatan"
  }
},
{
  "type": "node",
  "id": 4248137508,
  "lat": -6.1615576,
  "lon": 106.8375614,
  "tags": {
    "addr:city": "Central Jakarta",
    "addr:postcode": "10610",
    "addr:street": "Jalan Pasar Baru Timur",
    "amenity": "marketplace",
    "name": "Pasar Baru Timur"
  }
},
{
  "type": "node",
  "id": 4248138443,
  "lat": -6.2379421,
  "lon": 106.7655365,
  "tags": {
    "addr:city": "Kebayoran Lama, South Jakarta",
    "addr:postcode": "12230",
    "addr:street": "Jalan Ciledug Raya",
    "amenity": "marketplace",
    "name": "Pasar Cipulir"
  }
},
{
  "type": "node",
  "id": 4248142853,
  "lat": -6.1619510,
  "lon": 106.8362437,
  "tags": {
    "addr:city": "Central Jakarta",
    "addr:postcode": "10610",
    "addr:street": "Jalan Kelinci Raya",
    "amenity": "marketplace",
    "name": "Pasat Baru Timur Dalam"
  }
},
{
  "type": "node",
  "id": 4248147940,
  "lat": -6.1265920,
  "lon": 106.8990853,
  "tags": {
    "addr:city": "Koja, North Jakarta",
    "addr:postcode": "14230",
    "addr:street": "Jl. Alur Laut",
    "amenity": "marketplace",
    "name": "Pasar Walang Baru"
  }
},
{
  "type": "node",
  "id": 4248149532,
  "lat": -6.1856403,
  "lon": 106.8355734,
  "tags": {
    "addr:city": "Central Jakarta",
    "addr:postcode": "10340",
    "addr:street": "Jalan Menteng Raya",
    "amenity": "marketplace",
    "name": "Pasar Boplo Menteng"
  }
},
{
  "type": "node",
  "id": 4248150754,
  "lat": -6.1163023,
  "lon": 106.8785023,
  "tags": {
    "addr:city": "Tanjung Priok, North Jakarta",
    "addr:postcode": "14370",
    "addr:street": "Jl. Warakas 1",
    "amenity": "marketplace",
    "name": "Pasar Warakas"
  }
},
{
  "type": "node",
  "id": 4248155973,
  "lat": -6.1155307,
  "lon": 106.9167764,
  "tags": {
    "addr:city": "Koja, North Jakarta",
    "addr:postcode": "14260",
    "addr:street": "JL. Kramat Raya",
    "amenity": "marketplace",
    "name": "Pasar Tugu"
  }
},
{
  "type": "node",
  "id": 4248161335,
  "lat": -6.1391247,
  "lon": 106.8702215,
  "tags": {
    "addr:city": "Sunter, North Jakarta",
    "addr:postcode": "14350",
    "addr:street": "Jl. Sunter Karya Utara II",
    "amenity": "marketplace",
    "name": "Pasar Sunter DKI"
  }
},
{
  "type": "node",
  "id": 4248163887,
  "lat": -6.1257413,
  "lon": 106.8389892,
  "tags": {
    "addr:city": "Pademangan, North Jakarta",
    "addr:housenumber": "93",
    "addr:postcode": "14430",
    "addr:street": "Jl. Gerbang Ancol",
    "amenity": "marketplace",
    "name": "Pasar Seni Ancol"
  }
},
{
  "type": "node",
  "id": 4248172467,
  "lat": -6.1494750,
  "lon": 106.8455368,
  "tags": {
    "addr:city": "North Jakarta",
    "addr:postcode": "10620",
    "addr:street": "Rajawali Selatan Raya",
    "amenity": "marketplace",
    "name": "Pasar Jakarta Fair"
  }
},
{
  "type": "node",
  "id": 4248172785,
  "lat": -6.1581827,
  "lon": 106.8271256,
  "tags": {
    "addr:city": "Taman Sari, West Jakarta",
    "addr:housenumber": "5",
    "addr:postcode": "11150",
    "addr:street": "Jalan Taman Sari",
    "amenity": "marketplace",
    "name": "Pasar Graha Auto"
  }
},
{
  "type": "node",
  "id": 4248177063,
  "lat": -6.1096280,
  "lon": 106.8021952,
  "tags": {
    "addr:city": "Penjaringan, North Jakarta",
    "addr:housenumber": "73",
    "addr:postcode": "14440",
    "addr:street": "Jl. Muara Baru Ujung",
    "amenity": "marketplace",
    "name": "Pasar Ikan Muara Baru"
  }
},
{
  "type": "node",
  "id": 4248181832,
  "lat": -6.1578260,
  "lon": 106.8404812,
  "tags": {
    "addr:city": "Sawah Besar, Central Jakarta",
    "addr:housenumber": "9",
    "addr:postcode": "10720",
    "addr:street": "Jl. Gunung Sahari 7A",
    "amenity": "marketplace",
    "name": "Pasar Ikan Kartini Gunung Sahari"
  }
},
{
  "type": "node",
  "id": 4248182973,
  "lat": -6.1486801,
  "lon": 106.8256211,
  "tags": {
    "addr:city": "West Jakarta",
    "addr:postcode": "11170",
    "addr:street": "Jalan Mangga Besar Raya",
    "amenity": "marketplace",
    "name": "Pasar Jembatan Merah"
  }
},
{
  "type": "node",
  "id": 4248190179,
  "lat": -6.1320345,
  "lon": 106.8565739,
  "tags": {
    "addr:city": "Tanjung Priok, North Jakarta",
    "addr:postcode": "14350",
    "addr:street": "Jl. Ancol Selatan",
    "amenity": "marketplace",
    "name": "Pasar Bambu Kuning"
  }
},
{
  "type": "node",
  "id": 4248193645,
  "lat": -6.1677497,
  "lon": 106.8494057,
  "tags": {
    "addr:city": "Central Jakarta",
    "addr:postcode": "10630",
    "addr:street": "Jalan Kali Baru Timur",
    "amenity": "marketplace",
    "name": "Pasar Kalibaru"
  }
},
{
  "type": "node",
  "id": 4248196827,
  "lat": -6.1928049,
  "lon": 106.8484327,
  "tags": {
    "addr:city": "Senen, Central Jakarta",
    "addr:postcode": "10440",
    "addr:street": "Jalan Salemba Raya",
    "amenity": "marketplace",
    "name": "Pasar Kenari Mas"
  }
},
{
  "type": "node",
  "id": 4248198928,
  "lat": -6.1217187,
  "lon": 106.9165657,
  "tags": {
    "addr:city": "North Jakarta",
    "addr:postcode": "14260",
    "addr:street": "Jalan Bhayangkara",
    "amenity": "marketplace",
    "name": "Pasar Koja Baru"
  }
},
{
  "type": "node",
  "id": 4248199191,
  "lat": -6.1416743,
  "lon": 106.8094655,
  "tags": {
    "addr:city": "Tambora, West Jakarta",
    "addr:postcode": "11220",
    "addr:street": "Jl. Toko Tiga/Perniagaan",
    "amenity": "marketplace",
    "name": "Pasar Perniagaan Tambora"
  }
},
{
  "type": "node",
  "id": 4248202044,
  "lat": -6.1823913,
  "lon": 106.7798583,
  "tags": {
    "addr:city": "Duri Kepa, West Jakarta",
    "addr:postcode": "11470",
    "addr:street": "Jalan Patra",
    "amenity": "marketplace",
    "name": "Pasar Patra"
  }
},
{
  "type": "node",
  "id": 4248206303,
  "lat": -6.1383521,
  "lon": 106.8093136,
  "tags": {
    "addr:city": "Tambora, West Jakarta",
    "addr:postcode": "11230",
    "addr:street": "Jl. Pintu Kecil",
    "amenity": "marketplace",
    "name": "Pasar Pagi Lama"
  }
},
{
  "type": "node",
  "id": 4248212168,
  "lat": -6.1522029,
  "lon": 106.8440096,
  "tags": {
    "addr:city": "central Jakarta",
    "addr:postcode": "10720",
    "addr:street": "Jalan Industri Raya",
    "amenity": "marketplace",
    "name": "Pasar Mobil Kemayoran"
  }
},
{
  "type": "node",
  "id": 4248215163,
  "lat": -6.1263047,
  "lon": 106.7219178,
  "tags": {
    "addr:city": "Kali Deres, West Jakarta",
    "addr:postcode": "11820",
    "addr:street": "Jl. Raya Menceng",
    "amenity": "marketplace",
    "name": "Pasar Menceng"
  }
},
{
  "type": "node",
  "id": 4248217783,
  "lat": -6.1528460,
  "lon": 106.7038298,
  "tags": {
    "addr:city": "Kalideres, West Jakarta",
    "addr:postcode": "11840",
    "addr:street": "Jl. Peta Selatan",
    "amenity": "marketplace",
    "name": "Pasar Kalideres"
  }
},
{
  "type": "node",
  "id": 4248220532,
  "lat": -6.1451507,
  "lon": 106.8067529,
  "tags": {
    "addr:city": "Tambora, West Jakarta",
    "addr:postcode": "11250",
    "addr:street": "Jalan KH Moh. Mansyur",
    "amenity": "marketplace",
    "name": "Pasar Jembatan Lima"
  }
},
{
  "type": "node",
  "id": 4248226212,
  "lat": -6.1605133,
  "lon": 106.7786504,
  "tags": {
    "addr:city": "Grogol Petamburan, West Jakarta",
    "addr:postcode": "11460",
    "addr:street": "Jl. Pasar Inpres",
    "amenity": "marketplace",
    "name": "Pasar Jelambar Polri"
  }
},
{
  "type": "node",
  "id": 4248239213,
  "lat": -6.1432114,
  "lon": 106.8145794,
  "tags": {
    "addr:city": "Taman Sari, West Jakarta",
    "addr:postcode": "11180",
    "addr:street": "Jalan Gajah Mada",
    "amenity": "marketplace",
    "name": "Pasar Glodok"
  }
},
{
  "type": "node",
  "id": 4248244437,
  "lat": -6.1365358,
  "lon": 106.7515030,
  "tags": {
    "addr:city": "Cengkareng, West Jakarta",
    "addr:postcode": "11720",
    "addr:street": "Jl. Kapuk Darurat",
    "amenity": "marketplace",
    "name": "Pasar Darurat"
  }
},
{
  "type": "node",
  "id": 4248249986,
  "lat": -6.1646828,
  "lon": 106.8640906,
  "tags": {
    "addr:city": "Kemayoran, Central Jakarta",
    "addr:postcode": "10640",
    "addr:street": "Jalan Serdang Raya",
    "amenity": "marketplace",
    "name": "Pasar Sumur Batu"
  }
},
{
  "type": "node",
  "id": 4248285163,
  "lat": -6.1827740,
  "lon": 106.9343672,
  "tags": {
    "addr:city": "east jakarta",
    "addr:postcode": "13910",
    "addr:street": "Bekasi Raya",
    "amenity": "marketplace",
    "name": "Pasar Cakung"
  }
},
{
  "type": "node",
  "id": 4248304319,
  "lat": -6.2361065,
  "lon": 106.8806763,
  "tags": {
    "addr:city": "east jakarta",
    "addr:postcode": "13410",
    "addr:street": "Jalan Raya Kalimalang",
    "amenity": "marketplace",
    "name": "Pasar Ciplak"
  }
},
{
  "type": "node",
  "id": 4253819272,
  "lat": -6.1031584,
  "lon": 106.7411425,
  "tags": {
    "addr:city": "North Jakarta",
    "addr:postcode": "14450",
    "addr:street": "Pantai Indah Kapuk Boulevard",
    "amenity": "marketplace",
    "name": "Fresh Market PIK"
  }
},
{
  "type": "node",
  "id": 4255917339,
  "lat": -6.1097378,
  "lon": 106.7377731,
  "tags": {
    "addr:city": "North Jakarta",
    "addr:postcode": "14440",
    "addr:street": "Pantai Indah Kapuk Boulevard",
    "amenity": "marketplace",
    "name": "Hype Market"
  }
},
{
  "type": "node",
  "id": 4347149038,
  "lat": -6.2289631,
  "lon": 106.8670762,
  "tags": {
    "amenity": "marketplace",
    "name": "Indomaret Bidara Cina"
  }
},
{
  "type": "node",
  "id": 4800253260,
  "lat": -6.2452331,
  "lon": 106.8146181,
  "tags": {
    "addr:full": "Jalan Gang amal III",
    "amenity": "marketplace",
    "name": "pasar tradisional",
    "source": "survey"
  }
},
{
  "type": "node",
  "id": 4800526390,
  "lat": -6.2104411,
  "lon": 106.8666860,
  "tags": {
    "addr:full": "Jalan Pasangan Baru Tengah Raya",
    "amenity": "marketplace",
    "name": "Pasar Jangkrik",
    "source": "Hot_InaWARESurvey_2017"
  }
},
{
  "type": "node",
  "id": 4806851768,
  "lat": -6.2533666,
  "lon": 106.8226647,
  "tags": {
    "addr:full": "Jalan Bangka IX c",
    "amenity": "marketplace",
    "building": "marketplace",
    "building:condition": "good",
    "building:floor": "cement",
    "building:levels": "1",
    "building:roof": "asbestos",
    "building:structure": "confined_masonry",
    "building:walls": "brick",
    "capacity:persons": "50-100",
    "name": "Pasar Bangka",
    "source": "survey"
  }
},
{
  "type": "way",
  "id": 160290310,
  "center": {
    "lat": -6.3044527,
    "lon": 106.6847984
  },
  "nodes": [
    1723440517,
    1723440516,
    1723440515,
    1723440514,
    1723440517
  ],
  "tags": {
    "amenity": "marketplace",
    "building": "yes",
    "name": "Pasar Modern"
  }
},
{
  "type": "way",
  "id": 129912079,
  "center": {
    "lat": -6.3159595,
    "lon": 106.7145988
  },
  "nodes": [
    1432492844,
    1432492843,
    1432492926,
    1432492845,
    1432492862,
    2364060183,
    1432492844
  ],
  "tags": {
    "amenity": "marketplace"
  }
},
{
  "type": "way",
  "id": 155812919,
  "center": {
    "lat": -6.3124402,
    "lon": 106.7936964
  },
  "nodes": [
    1681697318,
    1681697319,
    1681697342,
    1681697340,
    1681697346,
    1681697345,
    1681697323,
    1681697318
  ],
  "tags": {
    "amenity": "marketplace",
    "name": "Pasar Pondok Labu"
  }
},
{
  "type": "way",
  "id": 314070581,
  "center": {
    "lat": -6.3123011,
    "lon": 106.7937600
  },
  "nodes": [
    3201111436,
    3201111437,
    3201111439,
    3201111438,
    3201111436
  ],
  "tags": {
    "amenity": "marketplace",
    "building": "yes",
    "flood_prone": "no",
    "name": "PD Pasar Jaya Pondok Labu"
  }
},
{
  "type": "way",
  "id": 314070582,
  "center": {
    "lat": -6.3127056,
    "lon": 106.7935532
  },
  "nodes": [
    3201111440,
    3201111441,
    3201111443,
    3201111442,
    3201111440
  ],
  "tags": {
    "amenity": "marketplace",
    "building": "yes",
    "flood_prone": "no",
    "name": "Pasar Koperasi"
  }
},
{
  "type": "way",
  "id": 314070583,
  "center": {
    "lat": -6.3133433,
    "lon": 106.7940192
  },
  "nodes": [
    3201111444,
    3201111446,
    3201111447,
    3201111448,
    3201111449,
    3201111451,
    3201111456,
    3201111455,
    3201111457,
    3201111458,
    3201111459,
    3201111460,
    3201111463,
    3201111464,
    3201111445,
    3201111444
  ],
  "tags": {
    "amenity": "marketplace",
    "flood_prone": "no",
    "name": "Pasar Swadaya"
  }
},
{
  "type": "way",
  "id": 314070584,
  "center": {
    "lat": -6.3137276,
    "lon": 106.7942003
  },
  "nodes": [
    3201111462,
    3201111461,
    3201111470,
    3201111469,
    3201111462
  ],
  "tags": {
    "amenity": "marketplace",
    "flood_prone": "no",
    "name": "Pasar Taman"
  }
},
{
  "type": "way",
  "id": 158820399,
  "center": {
    "lat": -6.2781057,
    "lon": 106.7521830
  },
  "nodes": [
    1709522667,
    1709522664,
    1709522671,
    1709522684,
    1709522667
  ],
  "tags": {
    "amenity": "marketplace",
    "building": "yes",
    "name": "Pasar Bintaro Sektor 2"
  }
},
{
  "type": "way",
  "id": 157365895,
  "center": {
    "lat": -6.2844394,
    "lon": 106.8433189
  },
  "nodes": [
    1695847349,
    1695847360,
    1695847362,
    1695847351,
    1695847347,
    1695847349
  ],
  "tags": {
    "access:roof": "yes",
    "addr:full": "jl raya ragunan",
    "amenity": "marketplace",
    "building": "yes",
    "building:levels": "4",
    "building:roof": "concrete",
    "building:structure": "reinforced_masonry",
    "building:walls": "brick",
    "capacity:persons": ">5000",
    "industrial": "factory",
    "name": "PD Pasar Jaya"
  }
},
{
  "type": "way",
  "id": 144562026,
  "center": {
    "lat": -6.2951766,
    "lon": 106.8689821
  },
  "nodes": [
    1581084971,
    1581084787,
    1581084792,
    1581085001,
    1581084909,
    1581084849,
    1581084868,
    1581084870,
    1581084971
  ],
  "tags": {
    "access:roof": "yes",
    "amenity": "marketplace",
    "backup_generator": "yes",
    "building": "marketplace",
    "building:condition": "good",
    "building:floor": "ceramics",
    "building:levels": "3",
    "building:roof": "concrete",
    "building:structure": "confined_masonry",
    "building:walls": "concrete",
    "capacity:persons": ">500",
    "name": "Pasar Kramatjati",
    "name:id": "Pasar Induk Kramat Jati",
    "source": "survey"
  }
},
{
  "type": "way",
  "id": 464500828,
  "center": {
    "lat": -6.2759269,
    "lon": 106.8743143
  },
  "nodes": [
    4595998418,
    4595998419,
    4595998420,
    4595998421,
    4595998418
  ],
  "tags": {
    "amenity": "marketplace",
    "building": "yes",
    "name": "Pasar",
    "operator": "PD. Pasar Jaya"
  }
},
{
  "type": "way",
  "id": 244053498,
  "center": {
    "lat": -6.3042749,
    "lon": 106.9325122
  },
  "nodes": [
    2514083119,
    2514083121,
    2514083126,
    2514083125,
    2514083119
  ],
  "tags": {
    "amenity": "marketplace",
    "name": "Alfamart",
    "opening_hours": "Mo-Fr 08:30-22:00"
  }
},
{
  "type": "way",
  "id": 244053511,
  "center": {
    "lat": -6.3051653,
    "lon": 106.9336709
  },
  "nodes": [
    2514083147,
    2514083153,
    2514083151,
    2514083150,
    2514083149,
    2514083152,
    2514083154,
    2514083164,
    2514083166,
    2514083168,
    2514083143,
    2514083139,
    2514083148,
    2514083145,
    2514083136,
    2514083135,
    2514083141,
    2514083138,
    2514083142,
    2514083147
  ],
  "tags": {
    "amenity": "marketplace",
    "opening_hours": "Mo-Sat 05:30-18:00",
    "operator": "Kecapi Market"
  }
},
{
  "type": "way",
  "id": 158663671,
  "center": {
    "lat": -6.2837443,
    "lon": 106.9132876
  },
  "nodes": [
    1708188377,
    1708188373,
    1708188399,
    1708188397,
    1708188460,
    1708188465,
    1708188473,
    1708188476,
    1708188478,
    1708188484,
    1708188377
  ],
  "tags": {
    "amenity": "marketplace",
    "building": "yes",
    "name": "Pasar Pondok Gede"
  }
},
{
  "type": "way",
  "id": 258857437,
  "center": {
    "lat": -6.2910028,
    "lon": 106.9667557
  },
  "nodes": [
    2641718341,
    2641718342,
    2641718343,
    2641718344,
    2641718341
  ],
  "tags": {
    "amenity": "marketplace",
    "building": "yes",
    "name": "Pasar Jatiasih"
  }
},
{
  "type": "way",
  "id": 228532668,
  "center": {
    "lat": -6.2605508,
    "lon": 106.7093860
  },
  "nodes": [
    2372055462,
    2372055460,
    2372055463,
    2372055465,
    2372055479,
    2372055484,
    2372055462
  ],
  "tags": {
    "amenity": "marketplace",
    "name": "Pasar Arinda"
  }
},
{
  "type": "way",
  "id": 318923431,
  "center": {
    "lat": -6.2480550,
    "lon": 106.6932369
  },
  "nodes": [
    3253253845,
    3253253846,
    1709447336,
    3253253848,
    3253253845
  ],
  "tags": {
    "amenity": "marketplace",
    "building": "yes",
    "name": "Pasar Maharta",
    "opening_hours": "06.00 - 11.00"
  }
},
{
  "type": "way",
  "id": 319372907,
  "center": {
    "lat": -6.1792485,
    "lon": 106.7172863
  },
  "nodes": [
    3257857216,
    3257857218,
    3257857221,
    3257857219,
    3257857216
  ],
  "tags": {
    "amenity": "marketplace",
    "evacuation_center": "no",
    "flood_prone": "yes",
    "name": "Pasar Darurat"
  }
},
{
  "type": "way",
  "id": 319374647,
  "center": {
    "lat": -6.1790383,
    "lon": 106.7221939
  },
  "nodes": [
    3257869228,
    3257869234,
    3257869236,
    3257869240,
    3257869243,
    3257869245,
    3257869246,
    3257869244,
    3257869242,
    3257869241,
    3257869238,
    3257869235,
    3257869230,
    3257869228
  ],
  "tags": {
    "amenity": "marketplace",
    "evacuation_center": "no",
    "flood_prone": "no",
    "name": "Pasar Tradisional"
  }
},
{
  "type": "way",
  "id": 156919505,
  "center": {
    "lat": -6.1574339,
    "lon": 106.7063036
  },
  "nodes": [
    1691618086,
    1691618088,
    1691618087,
    1691618085,
    1691618086
  ],
  "tags": {
    "amenity": "marketplace",
    "name": "PASAR HIPLI SEMANAN"
  }
},
{
  "type": "way",
  "id": 315867396,
  "center": {
    "lat": -6.1633414,
    "lon": 106.7255887
  },
  "nodes": [
    3219981640,
    3219981638,
    3219981639,
    3219981641,
    3219981640
  ],
  "tags": {
    "Id": "0",
    "amenity": "marketplace",
    "evacuation_center": "yes",
    "flood_prone": "yes",
    "kitchen:facilities": "yes",
    "name": "Pasar Air Mancur",
    "shelter_type": "tent",
    "toilet:facilities": "no"
  }
},
{
  "type": "way",
  "id": 156917371,
  "center": {
    "lat": -6.1616037,
    "lon": 106.7413107
  },
  "nodes": [
    1691597760,
    1691597756,
    1691597767,
    1691597769,
    1691597760
  ],
  "tags": {
    "amenity": "marketplace",
    "building": "yes",
    "evacuation_center": "no",
    "flood_prone": "no",
    "name": "Pasar Bojong Indah"
  }
},
{
  "type": "way",
  "id": 314679084,
  "center": {
    "lat": -6.1494530,
    "lon": 106.7214814
  },
  "nodes": [
    3207265468,
    3207265466,
    3207265467,
    3207265471,
    3207265472,
    3207265476,
    3207265477,
    3207265475,
    3207265470,
    3207265469,
    3207265468
  ],
  "tags": {
    "amenity": "marketplace",
    "evacuation_center": "no",
    "flood_prone": "no",
    "name": "Pasar Ganepo"
  }
},
{
  "type": "way",
  "id": 316766678,
  "center": {
    "lat": -6.1467178,
    "lon": 106.7430163
  },
  "nodes": [
    3229452448,
    3229452449,
    3229452447,
    3229452446,
    3229452448
  ],
  "tags": {
    "amenity": "marketplace",
    "name": "Pasar"
  }
},
{
  "type": "way",
  "id": 157038257,
  "center": {
    "lat": -6.1376359,
    "lon": 106.7134914
  },
  "nodes": [
    1692722888,
    1692722886,
    1692722885,
    1692722887,
    1692722888
  ],
  "tags": {
    "amenity": "marketplace",
    "name": "Pasar Guna Karya Bambu Larangan"
  }
},
{
  "type": "way",
  "id": 316748056,
  "center": {
    "lat": -6.1263512,
    "lon": 106.7189155
  },
  "nodes": [
    3229092084,
    3229092083,
    3229092095,
    3229092098,
    3229092099,
    3229092096,
    3229092084
  ],
  "tags": {
    "Id": "0",
    "amenity": "marketplace",
    "flood_prone": "yes",
    "name": "Pasar Menvo"
  }
},
{
  "type": "way",
  "id": 316748045,
  "center": {
    "lat": -6.1210351,
    "lon": 106.7105784
  },
  "nodes": [
    3229091939,
    3229091937,
    3229091944,
    3229091946,
    3229091939
  ],
  "tags": {
    "Id": "0",
    "amenity": "marketplace",
    "evacuation_center": "no",
    "flood_prone": "no",
    "name": "Pasar 55"
  }
},
{
  "type": "way",
  "id": 316748049,
  "center": {
    "lat": -6.1199077,
    "lon": 106.7179120
  },
  "nodes": [
    3229091924,
    3229091920,
    3229091923,
    3229091925,
    3229091924
  ],
  "tags": {
    "Id": "0",
    "amenity": "marketplace",
    "evacuation_center": "no",
    "flood_prone": "yes",
    "name": "Pasar Darurat"
  }
},
{
  "type": "way",
  "id": 314669764,
  "center": {
    "lat": -6.1306967,
    "lon": 106.7252665
  },
  "nodes": [
    3207178816,
    3207178821,
    3207178823,
    3207178819,
    3207178816
  ],
  "tags": {
    "amenity": "marketplace",
    "evacuation_center": "no",
    "flood_prone": "yes",
    "name": "Pasar Kenanga"
  }
},
{
  "type": "way",
  "id": 314528950,
  "center": {
    "lat": -6.1361801,
    "lon": 106.7252079
  },
  "nodes": [
    3205771197,
    3205771202,
    3205771205,
    3205771201,
    3205771197
  ],
  "tags": {
    "amenity": "marketplace",
    "building": "yes",
    "flood_prone": "yes",
    "name": "Pasar"
  }
},
{
  "type": "way",
  "id": 314669763,
  "center": {
    "lat": -6.1324499,
    "lon": 106.7245655
  },
  "nodes": [
    3207178846,
    3207178847,
    3207178853,
    3207178851,
    3207178846
  ],
  "tags": {
    "amenity": "marketplace",
    "evacuation_center": "no",
    "flood_prone": "yes",
    "name": "Pasar Deprok"
  }
},
{
  "type": "way",
  "id": 343482021,
  "center": {
    "lat": -6.1376112,
    "lon": 106.7392947
  },
  "nodes": [
    3503119776,
    3503119777,
    3503119778,
    3503119779,
    3503119780,
    3503119776
  ],
  "tags": {
    "amenity": "marketplace",
    "building": "yes"
  }
},
{
  "type": "way",
  "id": 343482022,
  "center": {
    "lat": -6.1378303,
    "lon": 106.7395561
  },
  "nodes": [
    3503119781,
    3503119782,
    3503119783,
    3503119784,
    3503119781
  ],
  "tags": {
    "amenity": "marketplace",
    "building": "yes"
  }
},
{
  "type": "way",
  "id": 343482023,
  "center": {
    "lat": -6.1379850,
    "lon": 106.7397405
  },
  "nodes": [
    3503119785,
    3503119786,
    3503119787,
    3503119788,
    3503119785
  ],
  "tags": {
    "amenity": "marketplace",
    "building": "yes"
  }
},
{
  "type": "way",
  "id": 343482092,
  "center": {
    "lat": -6.1381330,
    "lon": 106.7396547
  },
  "nodes": [
    3503120475,
    3503120476,
    3503120477,
    3503120478,
    3503120475
  ],
  "tags": {
    "amenity": "marketplace",
    "building": "yes"
  }
},
{
  "type": "way",
  "id": 343482100,
  "center": {
    "lat": -6.1383169,
    "lon": 106.7395064
  },
  "nodes": [
    3503120562,
    3503120563,
    3503120564,
    3503120565,
    3503120562
  ],
  "tags": {
    "amenity": "marketplace",
    "building": "yes"
  }
},
{
  "type": "way",
  "id": 343482452,
  "center": {
    "lat": -6.1384203,
    "lon": 106.7393858
  },
  "nodes": [
    3503124044,
    3503124045,
    3503124046,
    3503124047,
    3503124044
  ],
  "tags": {
    "amenity": "marketplace",
    "building": "yes"
  }
},
{
  "type": "way",
  "id": 343482473,
  "center": {
    "lat": -6.1382623,
    "lon": 106.7391994
  },
  "nodes": [
    3503124315,
    3503124316,
    3503124317,
    3503124318,
    3503124315
  ],
  "tags": {
    "amenity": "marketplace",
    "building": "yes"
  }
},
{
  "type": "way",
  "id": 343482798,
  "center": {
    "lat": -6.1380383,
    "lon": 106.7389385
  },
  "nodes": [
    3503126934,
    3503126935,
    3503126936,
    3503126937,
    3503126934
  ],
  "tags": {
    "amenity": "marketplace",
    "building": "yes"
  }
},
{
  "type": "way",
  "id": 343482799,
  "center": {
    "lat": -6.1378850,
    "lon": 106.7387475
  },
  "nodes": [
    3503126938,
    3503126939,
    3503126940,
    3503126941,
    3503126938
  ],
  "tags": {
    "amenity": "marketplace",
    "building": "yes"
  }
},
{
  "type": "way",
  "id": 343482800,
  "center": {
    "lat": -6.1375629,
    "lon": 106.7389774
  },
  "nodes": [
    3503126942,
    3503126943,
    3503126944,
    3503126945,
    3503126942
  ],
  "tags": {
    "amenity": "marketplace",
    "building": "yes"
  }
},
{
  "type": "way",
  "id": 343483112,
  "center": {
    "lat": -6.1375649,
    "lon": 106.7389761
  },
  "nodes": [
    3503128521,
    3503128522,
    3503128523,
    3503128524,
    3503128521
  ],
  "tags": {
    "amenity": "marketplace",
    "building": "yes"
  }
},
{
  "type": "way",
  "id": 343483114,
  "center": {
    "lat": -6.1377382,
    "lon": 106.7388285
  },
  "nodes": [
    3503128525,
    3503128526,
    3503128527,
    3503128528,
    3503128525
  ],
  "tags": {
    "amenity": "marketplace",
    "building": "yes"
  }
},
{
  "type": "way",
  "id": 343483117,
  "center": {
    "lat": -6.1380396,
    "lon": 106.7389392
  },
  "nodes": [
    3503128529,
    3503128530,
    3503128531,
    3503128532,
    3503128529
  ],
  "tags": {
    "amenity": "marketplace",
    "building": "yes"
  }
},
{
  "type": "way",
  "id": 343483119,
  "center": {
    "lat": -6.1378796,
    "lon": 106.7387474
  },
  "nodes": [
    3503128533,
    3503128534,
    3503128535,
    3503128536,
    3503128533
  ],
  "tags": {
    "amenity": "marketplace",
    "building": "yes"
  }
},
{
  "type": "way",
  "id": 343482020,
  "center": {
    "lat": -6.1374553,
    "lon": 106.7391094
  },
  "nodes": [
    3503119770,
    3503119771,
    3503119774,
    3503119775,
    3503119772,
    3503119773,
    3503119770
  ],
  "tags": {
    "amenity": "marketplace",
    "building": "yes"
  }
},
{
  "type": "way",
  "id": 316757667,
  "center": {
    "lat": -6.1355276,
    "lon": 106.7447588
  },
  "nodes": [
    3229357210,
    3229357211,
    3229357214,
    3229357213,
    3229357212,
    3229357210
  ],
  "tags": {
    "amenity": "marketplace",
    "flood_prone": "no",
    "name": "Pasar Oglek"
  }
},
{
  "type": "way",
  "id": 355163792,
  "center": {
    "lat": -6.1351882,
    "lon": 106.7408527
  },
  "nodes": [
    3607709440,
    3607709441,
    3607709442,
    3607709443,
    3607709445,
    3607709444,
    3607709440
  ],
  "tags": {
    "amenity": "marketplace",
    "building": "terrace",
    "name": "Pasar Sore BCI"
  }
},
{
  "type": "way",
  "id": 316748051,
  "center": {
    "lat": -6.1261943,
    "lon": 106.7218445
  },
  "nodes": [
    3229092092,
    3229092081,
    3229092085,
    3229092097,
    3229092092
  ],
  "tags": {
    "Id": "0",
    "amenity": "marketplace",
    "evacuation_center": "no",
    "flood_prone": "no",
    "name": "Pasar Menceng"
  }
},
{
  "type": "way",
  "id": 316748058,
  "center": {
    "lat": -6.1209550,
    "lon": 106.7292422
  },
  "nodes": [
    3229091938,
    3229091936,
    3229091940,
    3229091942,
    3229091938
  ],
  "tags": {
    "Id": "0",
    "amenity": "marketplace",
    "evacuation_center": "no",
    "flood_prone": "no",
    "name": "Pasar Nangka"
  }
},
{
  "type": "way",
  "id": 316748047,
  "center": {
    "lat": -6.1152065,
    "lon": 106.7128961
  },
  "nodes": [
    3229091840,
    3229091836,
    3229091844,
    3229091852,
    3229091840
  ],
  "tags": {
    "Id": "0",
    "amenity": "marketplace",
    "evacuation_center": "no",
    "flood_prone": "yes",
    "name": "Pasar Binaan"
  }
},
{
  "type": "way",
  "id": 314067041,
  "center": {
    "lat": -6.0916545,
    "lon": 106.7254956
  },
  "nodes": [
    3201064161,
    3201064163,
    3201064164,
    3201064162,
    3201064161
  ],
  "tags": {
    "amenity": "marketplace",
    "evacuation_center": "no",
    "flood_prone": "yes",
    "name": "TPI Kamal Muara"
  }
},
{
  "type": "way",
  "id": 314067027,
  "center": {
    "lat": -6.0919138,
    "lon": 106.7248781
  },
  "nodes": [
    3201064170,
    3201064166,
    3201064169,
    3201064173,
    3201064170
  ],
  "tags": {
    "amenity": "marketplace",
    "evacuation_center": "no",
    "flood_prone": "yes",
    "name": "Pasar RT 08/02/07"
  }
},
{
  "type": "way",
  "id": 314067028,
  "center": {
    "lat": -6.0919302,
    "lon": 106.7251882
  },
  "nodes": [
    3201064172,
    3201064174,
    3201064168,
    3201064165,
    3201064172
  ],
  "tags": {
    "amenity": "marketplace",
    "evacuation_center": "no",
    "flood_prone": "yes",
    "name": "Pelelangan"
  }
},
{
  "type": "way",
  "id": 408779091,
  "center": {
    "lat": -6.2595712,
    "lon": 106.7474992
  },
  "nodes": [
    4106920764,
    4106920765,
    4106920766,
    4106920767,
    4106920764
  ],
  "tags": {
    "amenity": "marketplace",
    "building": "yes",
    "name": "Mitra10"
  }
},
{
  "type": "way",
  "id": 312175015,
  "center": {
    "lat": -6.2585540,
    "lon": 106.7912759
  },
  "nodes": [
    3180205281,
    3180205282,
    3180205283,
    3180205284,
    3180205285,
    3180205281
  ],
  "tags": {
    "amenity": "marketplace",
    "building": "yes",
    "name": "Pasar Radio Dalam",
    "operator": "PD Pasar Jaya"
  }
},
{
  "type": "way",
  "id": 311563513,
  "center": {
    "lat": -6.2557895,
    "lon": 106.7969034
  },
  "nodes": [
    3172459721,
    3172459722,
    3172459723,
    3172459724,
    3172459721
  ],
  "tags": {
    "amenity": "marketplace",
    "building": "yes",
    "name": "Pasar Blok-A"
  }
},
{
  "type": "way",
  "id": 157351125,
  "center": {
    "lat": -6.2268698,
    "lon": 106.7547771
  },
  "nodes": [
    1695688692,
    1695688699,
    1695688701,
    1695688698,
    1695688696,
    1695688694,
    1695688692
  ],
  "tags": {
    "amenity": "marketplace",
    "name": "Pasar Taman Alfa"
  }
},
{
  "type": "way",
  "id": 157347071,
  "center": {
    "lat": -6.2398988,
    "lon": 106.8120936
  },
  "nodes": [
    1695672953,
    1695672981,
    1695673020,
    1695673023,
    1695673000,
    1695672992,
    1695672945,
    1695672953
  ],
  "tags": {
    "amenity": "marketplace",
    "evacuation_center": "no",
    "flood_prone": "no",
    "name": "Pasar Santa",
    "opening_hours": "Su-Sa 07:00-17:00",
    "shop": "department_store"
  }
},
{
  "type": "way",
  "id": 482198094,
  "center": {
    "lat": -6.2367694,
    "lon": 106.8185568
  },
  "nodes": [
    4750466909,
    4750466906,
    4750466907,
    4750466908,
    4750466909
  ],
  "tags": {
    "access:roof": "no",
    "addr:full": "Jalan Rengas I",
    "amenity": "marketplace",
    "backup_generator": "no",
    "building": "marketplace",
    "building:condition": "poor",
    "building:floor": "ground",
    "building:levels": "1",
    "building:roof": "tin",
    "building:structure": "wood_frame",
    "building:walls": "wood",
    "capacity:persons": "100-250",
    "name": "Pasar Rengas",
    "source": "HOT_InAWARESurvey_2017"
  }
},
{
  "type": "way",
  "id": 157362676,
  "center": {
    "lat": -6.2394066,
    "lon": 106.8483064
  },
  "nodes": [
    1695817883,
    1695817814,
    1695818125,
    4773915513,
    1695818030,
    1695817806,
    1695818172,
    1695817883
  ],
  "tags": {
    "access:roof": "no",
    "addr:full": "Jalan Tebet Barat IX",
    "amenity": "marketplace",
    "backup_generator": "no",
    "building": "marketplace",
    "building:condition": "poor",
    "building:floor": "ceramics",
    "building:levels": "3",
    "building:roof": "tin",
    "building:structure": "confined_masonry",
    "building:walls": "concrete",
    "capacity:persons": "250-500",
    "name": "Pasar Raya Tebet Barat",
    "shop": "department_store",
    "source": "HOT_InAWARESurvey_2017"
  }
},
{
  "type": "way",
  "id": 119919348,
  "center": {
    "lat": -6.2082553,
    "lon": 106.7958937
  },
  "nodes": [
    1345845573,
    1345845588,
    1345845603,
    1345845616,
    1345845573
  ],
  "tags": {
    "amenity": "marketplace",
    "building": "yes",
    "building:roof": "concrete",
    "building:structure": "reinforced_masonry",
    "building:use": "commercial",
    "building:walls": "brick",
    "name": "Pasar dan Ramayana Palmerah"
  }
},
{
  "type": "way",
  "id": 120909872,
  "center": {
    "lat": -6.1943881,
    "lon": 106.7967982
  },
  "nodes": [
    1354527057,
    1354527066,
    1354527055,
    1354527071,
    1354527057
  ],
  "tags": {
    "amenity": "marketplace",
    "building": "yes",
    "building:roof": "concrete",
    "building:structure": "unreinforced_masonry",
    "building:use": "shop",
    "building:walls": "brick",
    "name": "TOTAL buah"
  }
},
{
  "type": "way",
  "id": 120910680,
  "center": {
    "lat": -6.1902824,
    "lon": 106.7958929
  },
  "nodes": [
    1354538480,
    1354538534,
    1354538469,
    1354538568,
    1354538480
  ],
  "tags": {
    "amenity": "marketplace",
    "building": "yes",
    "building:levels": "4",
    "building:roof": "tile",
    "building:structure": "reinforced_masonry",
    "building:use": "commercial",
    "building:walls": "brick",
    "name": "Pasar Slipi"
  }
},
{
  "type": "way",
  "id": 156924647,
  "center": {
    "lat": -6.1778438,
    "lon": 106.7843206
  },
  "nodes": [
    1691655180,
    1691655179,
    1691655161,
    1691655163,
    1691655180
  ],
  "tags": {
    "amenity": "marketplace",
    "building": "yes",
    "name": "Pasar Tomang Barat (Pasar Kopro)"
  }
},
{
  "type": "way",
  "id": 157347180,
  "center": {
    "lat": -6.2210253,
    "lon": 106.8199566
  },
  "nodes": [
    1695673266,
    1695673423,
    1695673104,
    1695673545,
    1695673276,
    1695673266
  ],
  "tags": {
    "access:roof": "no",
    "addr:full": "Jalan Karet Sawah",
    "amenity": "marketplace",
    "backup_generator": "no",
    "building": "marketplace",
    "building:condition": "poor",
    "building:floor": "ground",
    "building:levels": "1",
    "building:roof": "asbentos",
    "building:structure": "wood_frame",
    "building:walls": "wood",
    "capacity:persons": "50-100",
    "name": "Pasar Karet Pedurenan",
    "opening_hours": "Su-Mo 07:00-16:00",
    "shop": "convenience",
    "source": "Hot_inAWARESurvey_2017"
  }
},
{
  "type": "way",
  "id": 155115828,
  "center": {
    "lat": -6.2156994,
    "lon": 106.8152214
  },
  "nodes": [
    2373578441,
    2373578442,
    1675498399,
    2373578443,
    2373578440,
    1675498417,
    1675498428,
    4776229870,
    2373578441
  ],
  "tags": {
    "amenity": "marketplace",
    "name": "Pasar Benhil",
    "opening_hours": "Mo-Fr 08:30-20:00"
  }
},
{
  "type": "way",
  "id": 315562271,
  "center": {
    "lat": -6.1979006,
    "lon": 106.8094137
  },
  "nodes": [
    3216885829,
    3216885832,
    3216885842,
    3216885855,
    3216885858,
    3216885852,
    3216885854,
    3216885847,
    3216885835,
    3216885829
  ],
  "tags": {
    "amenity": "marketplace",
    "evacuation_center": "no",
    "flood_prone": "no",
    "name": "Pasar Pintu Air"
  }
},
{
  "type": "way",
  "id": 303431059,
  "center": {
    "lat": -6.2018883,
    "lon": 106.8238024
  },
  "nodes": [
    3077896054,
    3077896053,
    3077896051,
    3077896052,
    3077896054
  ],
  "tags": {
    "amenity": "marketplace",
    "name": "Pasar Blora"
  }
},
{
  "type": "way",
  "id": 487637922,
  "center": {
    "lat": -6.2137193,
    "lon": 106.8260642
  },
  "nodes": [
    4800838857,
    4800838856,
    4800838855,
    4800838854,
    4800838853,
    4800838852,
    4800838851,
    4800838850,
    4800838849,
    4800838848,
    4800838847,
    4800838857
  ],
  "tags": {
    "access:roof": "no",
    "addr:full": "Jalan Karbela Barat",
    "addr:postcode": "12920",
    "amenity": "marketplace",
    "backup_generator": "no",
    "building": "marketplace",
    "building:condition": "good",
    "building:floor": "ground",
    "building:levels": "1",
    "building:roof": "asbestos",
    "building:structure": "wood_frame",
    "building:walls": "wood",
    "capacity:persons": "50-100",
    "name": "Pasar Mencos",
    "source": "Hot_InAWARESurvey_2017"
  }
},
{
  "type": "way",
  "id": 157357320,
  "center": {
    "lat": -6.2204606,
    "lon": 106.8384913
  },
  "nodes": [
    1695765571,
    1695765612,
    1695765610,
    1695765567,
    1695765569,
    1695765571
  ],
  "tags": {
    "amenity": "marketplace",
    "name": "Pasar Pocong",
    "operator": "UKM"
  }
},
{
  "type": "way",
  "id": 157357317,
  "center": {
    "lat": -6.2211444,
    "lon": 106.8390397
  },
  "nodes": [
    1695765673,
    1695765651,
    1695765647,
    1695765731,
    1695765747,
    1695765710,
    1695765673
  ],
  "tags": {
    "addr:full": "Jalan muria dalam",
    "amenity": "marketplace",
    "name": "Pasar Lokbin",
    "source": "Hot_inAWARESurvey_2017"
  }
},
{
  "type": "way",
  "id": 157357315,
  "center": {
    "lat": -6.2212102,
    "lon": 106.8452508
  },
  "nodes": [
    1695765702,
    1695765654,
    1695765688,
    1695765728,
    1695765719,
    1695765702
  ],
  "tags": {
    "addr:full": "jalan menteng pulo 1",
    "amenity": "marketplace",
    "building": "marketplace",
    "building:condition": "good",
    "building:floor": "ceramics",
    "building:levels": "2",
    "building:roof": "tile",
    "building:structure": "confined_masonry",
    "building:walls": "brick",
    "capacity:persons": "100-250",
    "name": "Pasar Menteng Pulo",
    "source": "Hot_inAWARESurvey_2017"
  }
},
{
  "type": "way",
  "id": 157360113,
  "center": {
    "lat": -6.2095483,
    "lon": 106.8469981
  },
  "nodes": [
    1695788465,
    4212538527,
    2370070692,
    4212538522,
    2370070682,
    2370070674,
    1695788466,
    4212538521,
    4212538520,
    4212538519,
    4212538518,
    1695788468,
    1695788467,
    4212538523,
    4212538524,
    4212538525,
    4212538526,
    1695788465
  ],
  "tags": {
    "addr:city": "Jakarta Selatan",
    "addr:full": "Jalan Sultan Agung",
    "addr:housenumber": "1",
    "addr:postcode": "12850",
    "addr:street": "Jalan Sultan Agung",
    "amenity": "marketplace",
    "building": "marketplace",
    "building:condition": "good",
    "building:floor": "ceramics",
    "building:levels": "5",
    "building:roof": "concrete",
    "building:structure": "confined_masonry",
    "building:walls": "brick",
    "capacity:persons": "250-500",
    "fixme": "Opening hours missing, tenant nodes are urgently needed! (jam buka kosong, node tenant diperlukan!)",
    "name": "Pasar Raya Manggarai",
    "shop": "mall",
    "source": "Hot_inAWARESurvey_2017"
  }
},
{
  "type": "way",
  "id": 488371648,
  "center": {
    "lat": -6.2078678,
    "lon": 106.8395244
  },
  "nodes": [
    4806828421,
    4806828321,
    4806828127,
    4806827988,
    4806828080,
    4806827687,
    4806827987,
    4806828079,
    4806827686,
    4806793886,
    4806828078,
    4806828421
  ],
  "tags": {
    "addr:full": "Jalan Pasar Rumput",
    "amenity": "marketplace",
    "building": "marketplace",
    "building:condition": "good",
    "name": "Pasar Rumput",
    "source": "Hot_inAWARESurvey_2017"
  }
},
{
  "type": "way",
  "id": 488371664,
  "center": {
    "lat": -6.2087396,
    "lon": 106.8405551
  },
  "nodes": [
    4806828232,
    4806827694,
    4806828522,
    4806827693,
    4806828634,
    4806828231,
    4806827692,
    4806824411,
    4806828230,
    4806827691,
    4806828422,
    4806828229,
    4806827690,
    4806824409,
    4806828228,
    4806827689,
    4806824408,
    4806828227,
    4806827688,
    4806824407,
    4806828521,
    4806828128,
    4806827211,
    4806828232
  ],
  "tags": {
    "addr:full": "Jalan Pasar Rumput",
    "amenity": "marketplace",
    "building": "marketplace",
    "building:condition": "good",
    "name": "Pasar Rumput",
    "source": "Hot_inAWARESurvey_2017"
  }
},
{
  "type": "way",
  "id": 488371672,
  "center": {
    "lat": -6.2082129,
    "lon": 106.8418391
  },
  "nodes": [
    4806828676,
    4806828527,
    4806828797,
    4806828675,
    4806828526,
    4806827710,
    4806828674,
    4806828525,
    4806827705,
    4806828673,
    4806828323,
    4806827704,
    4806828453,
    4806828322,
    4806827703,
    4806828858,
    4806827702,
    4806828669,
    4806828857,
    4806827701,
    4806828655,
    4806828524,
    4806827700,
    4806828424,
    4806828236,
    4806827699,
    4806828423,
    4806828676
  ],
  "tags": {
    "addr:full": "Jalan Pasar Rumput",
    "amenity": "marketplace",
    "building": "marketplace",
    "building:condition": "good",
    "name": "Pasar Rumput",
    "source": "Hot_inAWARESurvey_2017"
  }
},
{
  "type": "way",
  "id": 482145169,
  "center": {
    "lat": -6.2084089,
    "lon": 106.8375861
  },
  "nodes": [
    4750089420,
    4750089419,
    4750089418,
    4750089417,
    4750089420
  ],
  "tags": {
    "access:roof": "yes",
    "addr:city": "Setiabudi, South Jakarta",
    "addr:full": "Jalan Unggaran Ujung",
    "addr:postcode": "12970",
    "addr:street": "Jalan Unggaran",
    "amenity": "marketplace",
    "building": "marketplace",
    "building:condition": "good",
    "building:floor": "ceramics",
    "building:levels": "2",
    "building:roof": "concrete",
    "building:structure": "confined_masonry",
    "building:walls": "brick",
    "capacity:persons": "100-250",
    "name": "Pasar Jaya Manggis",
    "source": "Hot_inAWARESurvey_2017"
  }
},
{
  "type": "way",
  "id": 484850437,
  "center": {
    "lat": -6.1975290,
    "lon": 106.8393226
  },
  "nodes": [
    4775996438,
    4775996437,
    4775996436,
    4775996202,
    4775996201,
    4775996200,
    4775996438
  ],
  "tags": {
    "access:roof": "no",
    "addr:full": "Jalan Surabaya no.2",
    "amenity": "marketplace",
    "backup_generator": "no",
    "building": "marketplace",
    "building:condition": "good",
    "building:floor": "ceramics",
    "building:levels": "1",
    "building:roof": "tile",
    "building:structure": "confined_masonry",
    "building:walls": "brick",
    "capacity:persons": "250-500",
    "name": "Pasar Antik dan Koper Jakarta",
    "source": "HOT_InAWARESurvey_2017"
  }
},
{
  "type": "way",
  "id": 155110267,
  "center": {
    "lat": -6.1889823,
    "lon": 106.8119223
  },
  "nodes": [
    1675446766,
    1675454017,
    1676907100,
    1675446844,
    1676907133,
    1675446762,
    1675446765,
    1675446766
  ],
  "tags": {
    "amenity": "marketplace",
    "building": "yes",
    "name": "Blok G Tanah Abang"
  }
},
{
  "type": "way",
  "id": 485254692,
  "center": {
    "lat": -6.1865095,
    "lon": 106.8321390
  },
  "nodes": [
    4780329207,
    4780329205,
    4780329204,
    4780329203,
    4780329201,
    4780329200,
    4780329199,
    4780329197,
    4780329196,
    4780329207
  ],
  "tags": {
    "access:roof": "no",
    "addr:full": "Jalan Srikaya 1",
    "amenity": "marketplace",
    "backup_generator": "no",
    "building": "marketplace",
    "building:condition": "good",
    "building:floor": "ceramics",
    "building:levels": "2",
    "building:roof": "concrete",
    "building:structure": "confined_masonry",
    "building:walls": "brick",
    "capacity:persons": ">500",
    "name": "Pasar Jaya Gondangdia",
    "source": "HOT_InAWARESurvey_2017"
  }
},
{
  "type": "way",
  "id": 120555916,
  "center": {
    "lat": -6.1769880,
    "lon": 106.8423762
  },
  "nodes": [
    1351492876,
    1351492918,
    1351492872,
    3118401277,
    1351492888,
    1351492848,
    1351492859,
    1351492912,
    1351492926,
    1351492882,
    1351492895,
    1351492876
  ],
  "tags": {
    "amenity": "marketplace",
    "building": "yes",
    "building:levels": "4",
    "building:roof": "concrete",
    "building:structure": "confined_masonry",
    "building:use": "commercial",
    "building:walls": "brick",
    "name": "Pasar Senen Jaya"
  }
},
{
  "type": "way",
  "id": 314677975,
  "center": {
    "lat": -6.2504830,
    "lon": 106.8566678
  },
  "nodes": [
    3207253658,
    3207253659,
    3207255666,
    3207255664,
    3207253658
  ],
  "tags": {
    "amenity": "marketplace",
    "evacuation_center": "no",
    "flood_prone": "no",
    "name": "Pasar Kaget Pengadegan"
  }
},
{
  "type": "way",
  "id": 155935904,
  "center": {
    "lat": -6.2567161,
    "lon": 106.8654197
  },
  "nodes": [
    1682763133,
    1682763139,
    1682763151,
    1682763134,
    1682763133
  ],
  "tags": {
    "access:roof": "no",
    "addr:full": "Jalan Pasar Jambul Cawang - Jakarta Timur",
    "amenity": "marketplace",
    "backup_generator": "no",
    "building": "marketplace",
    "building:condition": "good",
    "building:levels": "1",
    "building:roof": "asbentos",
    "building:structure": "confined_masonry",
    "building:walls": "brick",
    "buildings:floor": "ceramics",
    "capacity": "50-100",
    "evacuation_center": "no",
    "flood_prone": "no",
    "name": "Pasar Jaya Pasar Jambul Baru",
    "source": "HOT_InAWARESurvey_2017"
  }
},
{
  "type": "way",
  "id": 315411487,
  "center": {
    "lat": -6.2601796,
    "lon": 106.8710016
  },
  "nodes": [
    3215271069,
    3215271070,
    3215271072,
    3215271071,
    3215271069
  ],
  "tags": {
    "amenity": "marketplace",
    "building": "yes",
    "evacuation_center": "no",
    "flood_prone": "yes",
    "name": "Pasar Batak"
  }
},
{
  "type": "way",
  "id": 157362094,
  "center": {
    "lat": -6.2347544,
    "lon": 106.8565966
  },
  "nodes": [
    1695812154,
    1695812151,
    1695812176,
    1695812173,
    1695812154
  ],
  "tags": {
    "access:roof": "no",
    "addr:full": "Jalan Tebet Timur Dalam",
    "amenity": "marketplace",
    "backup_generator": "no",
    "building": "marketplace",
    "building:condition": "good",
    "building:levels": "3",
    "building:roof": "tile",
    "building:structure": "confined_masonry",
    "building:walls": "brick",
    "buildings:floor": "ceramics",
    "capacity": "250-500",
    "name": "Pasar Tebet Timur",
    "source": "HOT_InAWARESurvey_2017"
  }
},
{
  "type": "way",
  "id": 315589068,
  "center": {
    "lat": -6.2310378,
    "lon": 106.8654539
  },
  "nodes": [
    3217166472,
    3217166471,
    3217166474,
    3217166475,
    3217166472
  ],
  "tags": {
    "amenity": "marketplace",
    "flood_prone": "yes",
    "name": "Pasar Krenso"
  }
},
{
  "type": "way",
  "id": 314681711,
  "center": {
    "lat": -6.2250249,
    "lon": 106.8650991
  },
  "nodes": [
    3207287131,
    3207287129,
    3207287128,
    3207287130,
    3207287131
  ],
  "tags": {
    "amenity": "marketplace",
    "evacuation_center": "no",
    "flood_prone": "yes",
    "name": "Pasar Kampung Melayu"
  }
},
{
  "type": "way",
  "id": 334989574,
  "center": {
    "lat": -6.2526077,
    "lon": 106.9164698
  },
  "nodes": [
    3421213550,
    3421213552,
    3421213555,
    3421213551,
    3421213550
  ],
  "tags": {
    "amenity": "marketplace",
    "evacuation_center": "no",
    "flood_prone": "no",
    "name": "Pasar Kodam"
  }
},
{
  "type": "way",
  "id": 258738739,
  "center": {
    "lat": -6.2720940,
    "lon": 106.9519630
  },
  "nodes": [
    2640718725,
    2640718726,
    2640718727,
    2640718728,
    2640718729,
    2640718730,
    2640718725
  ],
  "tags": {
    "amenity": "marketplace",
    "building": "yes",
    "name": "Fresh Market"
  }
},
{
  "type": "way",
  "id": 157360660,
  "center": {
    "lat": -6.2181762,
    "lon": 106.8539326
  },
  "nodes": [
    1695794552,
    1695794557,
    1695794560,
    1695794561,
    1695794566,
    1695794563,
    1695794562,
    1695794552
  ],
  "tags": {
    "amenity": "marketplace",
    "building": "yes",
    "evacuation_center": "no",
    "flood_prone": "no",
    "name": "PD PASAR JAYA BUKITDURI\\"
  }
},
{
  "type": "way",
  "id": 264726189,
  "center": {
    "lat": -6.2205812,
    "lon": 106.8602094
  },
  "nodes": [
    2703789685,
    2703789686,
    2703789687,
    2703789688,
    2703789685
  ],
  "tags": {
    "amenity": "marketplace",
    "building": "yes",
    "name": "Pasar traditional market"
  }
},
{
  "type": "way",
  "id": 485256695,
  "center": {
    "lat": -6.2161305,
    "lon": 106.8648294
  },
  "nodes": [
    4780353477,
    4780353483,
    4780353475,
    4780353481,
    4780353482,
    4780353476,
    4780353484,
    4780353478,
    4780353486,
    4780353480,
    4780353487,
    4780353490,
    4780353489,
    4780353488,
    4780353479,
    4780353485,
    4780353477
  ],
  "tags": {
    "access:roof": "yes",
    "addr:full": "Jalan Matraman Raya",
    "amenity": "marketplace",
    "backup_generator": "yes",
    "building": "marketplace",
    "building:condition": "good",
    "building:floor": "ceramics",
    "building:levels": "4",
    "building:roof": "concrete",
    "building:structure": "confined_masonry",
    "building:walls": "concrete",
    "capacity:persons": ">500",
    "name": "Jatinegara Trade Center",
    "source": "HOT_InAWARESurvey_2017"
  }
},
{
  "type": "way",
  "id": 155933439,
  "center": {
    "lat": -6.2161019,
    "lon": 106.8697443
  },
  "nodes": [
    1682749592,
    1682749589,
    1682749590,
    1682749601,
    1682749608,
    1682749592
  ],
  "tags": {
    "access:roof": "yes",
    "addr:full": "Jalan Bekasi Barat I",
    "amenity": "marketplace",
    "backup_generator": "yes",
    "building": "marketplace",
    "building:condition": "good",
    "building:floor": "ceramics",
    "building:levels": "3",
    "building:roof": "concrete",
    "building:structure": "confined_masonry",
    "building:walls": "concrete",
    "capacity:persons": ">500",
    "name": "Pasar Gems Center",
    "source": "HOT_InAWARESurvey_2017"
  }
},
{
  "type": "way",
  "id": 155953475,
  "center": {
    "lat": -6.2118180,
    "lon": 106.8755828
  },
  "nodes": [
    1682874112,
    1682874104,
    1682874103,
    1682874111,
    1682874112
  ],
  "tags": {
    "amenity": "marketplace",
    "name": "Pasar Enjo"
  }
},
{
  "type": "way",
  "id": 242192476,
  "center": {
    "lat": -6.2065544,
    "lon": 106.8558399
  },
  "nodes": [
    2497087346,
    2497087347,
    2497087348,
    2497087349,
    2497087346
  ],
  "tags": {
    "amenity": "marketplace",
    "building": "yes",
    "name": "Mini Mall Disbintal AD"
  }
},
{
  "type": "way",
  "id": 155941468,
  "center": {
    "lat": -6.2091115,
    "lon": 106.8626742
  },
  "nodes": [
    1682786428,
    1682786427,
    1682786423,
    1682786424,
    1682786428
  ],
  "tags": {
    "amenity": "marketplace",
    "name": "ceriamart"
  }
},
{
  "type": "way",
  "id": 155941466,
  "center": {
    "lat": -6.2051240,
    "lon": 106.8615252
  },
  "nodes": [
    1682786350,
    1682786354,
    1682786352,
    1682786348,
    1682786350
  ],
  "tags": {
    "amenity": "marketplace",
    "name": "ceriamart"
  }
},
{
  "type": "way",
  "id": 482411675,
  "center": {
    "lat": -6.2053777,
    "lon": 106.8606803
  },
  "nodes": [
    4752312530,
    4752312529,
    4752312528,
    4752312527,
    4752312531,
    4752312533,
    4752312534,
    4752312535,
    4752312538,
    4752312544,
    4752312526,
    4752312525,
    4752312530
  ],
  "tags": {
    "access:roof": "no",
    "addr:full": "Jalan Palmeriam",
    "amenity": "marketplace",
    "backup_generator": "no",
    "building": "marketplace",
    "building:condition": "good",
    "building:floor": "ceramics",
    "building:levels": "3",
    "building:roof": "concrete",
    "building:structure": "confined_masonry",
    "building:walls": "concrete",
    "capacity:persons": ">500",
    "name": "Pasar Jaya Palmeriam",
    "source": "HOT_InAWARESurvey_2017"
  }
},
{
  "type": "way",
  "id": 155945147,
  "center": {
    "lat": -6.1982565,
    "lon": 106.8571274
  },
  "nodes": [
    1682822602,
    1682822616,
    1682822617,
    1682822613,
    1682822602
  ],
  "tags": {
    "access:roof": "no",
    "addr:full": "Jalan Penggalang",
    "amenity": "marketplace",
    "backup_generator": "no",
    "building": "marketplace",
    "building:condition": "good",
    "building:floor": "tekhel",
    "building:levels": "1",
    "building:roof": "asbentos",
    "building:structure": "steel_frame",
    "building:walls": "brick",
    "capacity:persons": ">500",
    "name": "Pasar Matraman Kebon Kosong",
    "source": "HOT_InAWARESurvey_2017"
  }
},
{
  "type": "way",
  "id": 155953473,
  "center": {
    "lat": -6.2126369,
    "lon": 106.8816476
  },
  "nodes": [
    1682874116,
    1682874117,
    1682874105,
    1682874107,
    1682874106,
    1682874121,
    1682874123,
    1682874125,
    1682874129,
    1682874130,
    1682874135,
    1682874136,
    1682874116
  ],
  "tags": {
    "amenity": "marketplace",
    "name": "Pasar Beras Induk Cipinang"
  }
},
{
  "type": "way",
  "id": 482340843,
  "center": {
    "lat": -6.1854353,
    "lon": 106.8555488
  },
  "nodes": [
    4751878798,
    4751878797,
    4751878796,
    4751878795,
    4751878794,
    4751878793,
    4751878798
  ],
  "tags": {
    "access:roof": "yes",
    "addr:full": "Jalan Percetakan Negara II",
    "amenity": "marketplace",
    "backup_generator": "yes",
    "building": "marketplace",
    "building:condition": "good",
    "building:levels": "2",
    "building:roof": "concrete",
    "building:structure": "confined_masonry",
    "building:walls": "glass",
    "buildings:floor": "ceramics",
    "capacity": "250-500",
    "name": "Pasar Johar Baru",
    "source": "HOT_InAWARESurvey_2017"
  }
},
{
  "type": "way",
  "id": 485868913,
  "center": {
    "lat": -6.1833885,
    "lon": 106.8636013
  },
  "nodes": [
    4786305362,
    4786305359,
    4786305360,
    4786305361,
    4786305362
  ],
  "tags": {
    "access:roof": "no",
    "addr:full": "Jalan Jati Rawasari",
    "amenity": "marketplace",
    "backup_generator": "no",
    "building": "yes",
    "building:condition": "good",
    "building:floor": "ceramics",
    "building:levels": "1",
    "building:roof": "tin",
    "building:structure": "confined_masonry",
    "building:walls": "brick",
    "capacity:persons": "50-100",
    "name": "Pasar Jati Rawasari"
  }
},
{
  "type": "way",
  "id": 485886225,
  "center": {
    "lat": -6.1798428,
    "lon": 106.8601948
  },
  "nodes": [
    4786474457,
    4786474456,
    4786474455,
    4786474454,
    4786474457
  ],
  "tags": {
    "addr:city": "Cempaka Putih, Central Jakarta",
    "addr:postcode": "10520",
    "addr:street": "Jl. Pangkalan Asem",
    "amenity": "marketplace",
    "building": "yes",
    "name": "Pasar Gembrong Cempaka Putih"
  }
},
{
  "type": "way",
  "id": 485868974,
  "center": {
    "lat": -6.1728191,
    "lon": 106.8632296
  },
  "nodes": [
    4786317589,
    4786317586,
    4786317587,
    4786317588,
    4786317589
  ],
  "tags": {
    "access:roof": "no",
    "addr:full": "Jalan Cempaka Putih Barat",
    "amenity": "marketplace",
    "backup_generator": "no",
    "building": "marketplace",
    "building:condition": "good",
    "building:floor": "cement",
    "building:levels": "1",
    "building:roof": "tin",
    "building:structure": "confined_masonry",
    "building:walls": "wood",
    "capacity:persons": "250-500",
    "name": "Pasar cempaka putih barat"
  }
},
{
  "type": "way",
  "id": 155957755,
  "center": {
    "lat": -6.1861826,
    "lon": 106.8843685
  },
  "nodes": [
    1682910227,
    1682910229,
    1682910226,
    1682910224,
    1682910227
  ],
  "tags": {
    "amenity": "marketplace",
    "name": "Pasar Ampera"
  }
},
{
  "type": "way",
  "id": 123433379,
  "center": {
    "lat": -6.2206094,
    "lon": 106.9131516
  },
  "nodes": [
    1376500941,
    1376500936,
    1376500969,
    1376500971,
    1376500932,
    1376500948,
    1376500941
  ],
  "tags": {
    "amenity": "marketplace",
    "name": "Pasar Motor"
  }
},
{
  "type": "way",
  "id": 155957120,
  "center": {
    "lat": -6.1864731,
    "lon": 106.9054377
  },
  "nodes": [
    1682840995,
    1682904214,
    1682904217,
    1682904202,
    1682840995
  ],
  "tags": {
    "amenity": "marketplace",
    "name": "Pulo Gadung"
  }
},
{
  "type": "way",
  "id": 155961371,
  "center": {
    "lat": -6.1829891,
    "lon": 106.9344693
  },
  "nodes": [
    1682942233,
    1682942230,
    1682942262,
    1692723322,
    1692723321,
    1682942259,
    1682942233
  ],
  "tags": {
    "amenity": "marketplace",
    "name": "PASAR CAKUNG"
  }
},
{
  "type": "way",
  "id": 315413734,
  "center": {
    "lat": -6.1637643,
    "lon": 106.7647995
  },
  "nodes": [
    3215294419,
    3215294420,
    3215294417,
    3215294418,
    3215294416,
    3215294415,
    3215294419
  ],
  "tags": {
    "amenity": "marketplace",
    "evacuation_center": "no",
    "flood_prone": "no",
    "name": "Pasar Kedoya"
  }
},
{
  "type": "way",
  "id": 315413735,
  "center": {
    "lat": -6.1601866,
    "lon": 106.7672205
  },
  "nodes": [
    3215294347,
    3215294353,
    3215294346,
    3215294351,
    3215294356,
    3215294359,
    3215294366,
    3215294372,
    3215294376,
    3215294370,
    3215294371,
    3215294369,
    3215294367,
    3215294360,
    3215294347
  ],
  "tags": {
    "amenity": "marketplace",
    "evacuation_center": "no",
    "flood_prone": "yes",
    "name": "Pasar Pesing Koneng"
  }
},
{
  "type": "way",
  "id": 314689832,
  "center": {
    "lat": -6.1477693,
    "lon": 106.7488003
  },
  "nodes": [
    3207366974,
    3207366975,
    3207366983,
    3207366982,
    3207366974
  ],
  "tags": {
    "Id": "0",
    "amenity": "marketplace",
    "flood_prone": "no",
    "name": "Pasar PTB"
  }
},
{
  "type": "way",
  "id": 153318861,
  "center": {
    "lat": -6.1504484,
    "lon": 106.7972354
  },
  "nodes": [
    1660285135,
    1660285146,
    1660285145,
    1660285137,
    1660285139,
    1660285134,
    1660285135
  ],
  "tags": {
    "amenity": "marketplace",
    "name": "Pasar Jembatan Besi"
  }
},
{
  "type": "way",
  "id": 316757666,
  "center": {
    "lat": -6.1334947,
    "lon": 106.7457090
  },
  "nodes": [
    3229357192,
    3229357193,
    3229357191,
    3229357190,
    3229357192
  ],
  "tags": {
    "amenity": "marketplace",
    "flood_prone": "no",
    "name": "Pasar Alam"
  }
},
{
  "type": "way",
  "id": 314521147,
  "center": {
    "lat": -6.1328193,
    "lon": 106.7696959
  },
  "nodes": [
    3205707448,
    3205707454,
    3205707455,
    3205707449,
    3205707448
  ],
  "tags": {
    "amenity": "marketplace",
    "evacuation_center": "yes",
    "flood_prone": "no",
    "name": "Pasar"
  }
},
{
  "type": "way",
  "id": 314523737,
  "center": {
    "lat": -6.1291187,
    "lon": 106.7538921
  },
  "nodes": [
    3205727445,
    3205727446,
    3205727449,
    3205727448,
    3205727445
  ],
  "tags": {
    "amenity": "marketplace",
    "evacuation_center": "no",
    "flood_prone": "no",
    "name": "Pasar Indah Kapuk"
  }
},
{
  "type": "way",
  "id": 315870158,
  "center": {
    "lat": -6.1389893,
    "lon": 106.7850194
  },
  "nodes": [
    3220005058,
    3220006962,
    3220006961,
    3220005053,
    3220005058
  ],
  "tags": {
    "amenity": "marketplace",
    "evacuation_center": "no",
    "flood_prone": "no",
    "name": "Pasar Pusaka Abadi"
  }
},
{
  "type": "way",
  "id": 156926197,
  "center": {
    "lat": -6.1432018,
    "lon": 106.7924079
  },
  "nodes": [
    1691669114,
    1691669123,
    4768370199,
    1691669117,
    1691669112,
    1691669114
  ],
  "tags": {
    "amenity": "marketplace",
    "name": "Pasar Jembatan Dua"
  }
},
{
  "type": "way",
  "id": 156270958,
  "center": {
    "lat": -6.1262158,
    "lon": 106.7910420
  },
  "nodes": [
    1685304202,
    4592281876,
    1685304199,
    1685304200,
    1685304205,
    1685304204,
    1685304203,
    1685304202
  ],
  "tags": {
    "amenity": "marketplace",
    "evacuation_center": "yes",
    "flood_prone": "no",
    "kitchen:facilities": "no",
    "name": "Pluit Junction",
    "shelter_type": "tent",
    "shop": "mall",
    "toilet:facilities": "yes",
    "water_source": "water_works"
  }
},
{
  "type": "way",
  "id": 156270949,
  "center": {
    "lat": -6.1212042,
    "lon": 106.7889946
  },
  "nodes": [
    1685304046,
    1685304048,
    1685304068,
    1685304069,
    1685304046
  ],
  "tags": {
    "amenity": "marketplace",
    "evacuation_center": "yes",
    "flood_prone": "no",
    "kitchen:facilities": "yes",
    "name": "Pasar PD Jaya Pluit",
    "shelter_type": "building",
    "shop": "department_store",
    "toilet:facilities": "yes",
    "toilets:number": "2",
    "water_source": "water_works"
  }
},
{
  "type": "way",
  "id": 156924279,
  "center": {
    "lat": -6.1617043,
    "lon": 106.8045494
  },
  "nodes": [
    1691652644,
    1691652647,
    1691652646,
    1691652645,
    1691652644
  ],
  "tags": {
    "amenity": "marketplace",
    "name": "PD. Pasar Jaya",
    "opening_hours": "24/7"
  }
},
{
  "type": "way",
  "id": 352856285,
  "center": {
    "lat": -6.1626045,
    "lon": 106.8121581
  },
  "nodes": [
    3586341551,
    3586341552,
    3586341553,
    3586341554,
    3586341551
  ],
  "tags": {
    "amenity": "marketplace",
    "building": "yes",
    "name": "Pasar Petojo"
  }
},
{
  "type": "way",
  "id": 352856286,
  "center": {
    "lat": -6.1630689,
    "lon": 106.8121642
  },
  "nodes": [
    3586341555,
    3586341556,
    3586341557,
    3586341558,
    3586341555
  ],
  "tags": {
    "amenity": "marketplace",
    "building": "yes",
    "name": "Pasar Petojo"
  }
},
{
  "type": "way",
  "id": 156919807,
  "center": {
    "lat": -6.1502865,
    "lon": 106.8174248
  },
  "nodes": [
    1691620412,
    1691620413,
    1691620409,
    1691620406,
    1691620412
  ],
  "tags": {
    "amenity": "marketplace"
  }
},
{
  "type": "way",
  "id": 155110695,
  "center": {
    "lat": -6.1616472,
    "lon": 106.8333253
  },
  "nodes": [
    1675460296,
    1675460264,
    1675460275,
    1675460284,
    1675460243,
    1675460256,
    1675460273,
    1675460296
  ],
  "tags": {
    "amenity": "marketplace",
    "building": "yes",
    "name": "PD Pasar Jaya"
  }
},
{
  "type": "way",
  "id": 155110157,
  "center": {
    "lat": -6.1649600,
    "lon": 106.8472329
  },
  "nodes": [
    1675452956,
    1675452949,
    1675452959,
    1675452957,
    1675452960,
    1675452962,
    1675452963,
    1675452965,
    1675452967,
    1675452969,
    1675452956
  ],
  "tags": {
    "amenity": "marketplace",
    "building": "yes",
    "name": "Gardu Asem"
  }
},
{
  "type": "way",
  "id": 155097769,
  "center": {
    "lat": -6.1674108,
    "lon": 106.8497532
  },
  "nodes": [
    1675313931,
    1675313924,
    1675313926,
    1675313933,
    1675313931
  ],
  "tags": {
    "amenity": "marketplace",
    "name": "PASAR NANGKA"
  }
},
{
  "type": "way",
  "id": 154078986,
  "center": {
    "lat": -6.1612770,
    "lon": 106.8409474
  },
  "nodes": [
    1666759416,
    1666759419,
    1666759427,
    1666759424,
    1666759416
  ],
  "tags": {
    "amenity": "marketplace",
    "name": "Kombongan Market"
  }
},
{
  "type": "way",
  "id": 156920992,
  "center": {
    "lat": -6.1427204,
    "lon": 106.8142183
  },
  "nodes": [
    1691629710,
    1691629725,
    1691629728,
    1691629730,
    1691629723,
    1691629712,
    1691629710
  ],
  "tags": {
    "amenity": "marketplace",
    "name": "PD. Pasar Jaya",
    "opening_hours": "06.00-17.00"
  }
},
{
  "type": "way",
  "id": 156920993,
  "center": {
    "lat": -6.1417450,
    "lon": 106.8123657
  },
  "nodes": [
    1691629701,
    1691629707,
    1691629711,
    1691629703,
    1691629700,
    1691629699,
    1691629701
  ],
  "tags": {
    "amenity": "marketplace",
    "name": "Pertokoan Candra",
    "opening_hours": "06.00-17.00"
  }
},
{
  "type": "way",
  "id": 121986315,
  "center": {
    "lat": -6.1359417,
    "lon": 106.8224443
  },
  "nodes": [
    1364120460,
    1364120403,
    1364120568,
    1364120467,
    1364120532,
    2125700348,
    2125700344,
    1364120427,
    1364120398,
    1364120541,
    2125700350,
    1364120607,
    2125700377,
    1364120508,
    1364120399,
    1364120543,
    2125700417,
    2125700420,
    2125700461,
    2125700446,
    1364120609,
    1364120509,
    1364120481,
    1364120460
  ],
  "tags": {
    "amenity": "marketplace",
    "building": "yes",
    "building:levels": "4",
    "building:roof": "concrete",
    "building:structure": "confined_masonry",
    "building:use": "commercial",
    "building:walls": "brick",
    "name": "Pasar Mangga Dua"
  }
},
{
  "type": "way",
  "id": 210917133,
  "center": {
    "lat": -6.1258107,
    "lon": 106.8087539
  },
  "nodes": [
    2209475920,
    2209475915,
    2209475921,
    2209475918,
    2209475911,
    2209475913,
    2209475936,
    2209475942,
    2209475951,
    2209475990,
    3289259128,
    2209476005,
    3289259130,
    2209476010,
    2209476024,
    2209476013,
    2209475998,
    2209475987,
    2209475959,
    3289259125,
    2209475947,
    2209475920
  ],
  "tags": {
    "amenity": "marketplace",
    "building": "yes",
    "evacuation_center": "no",
    "flood_prone": "yes",
    "name": "Pasar Ikan"
  }
},
{
  "type": "way",
  "id": 154831700,
  "center": {
    "lat": -6.1353004,
    "lon": 106.8433366
  },
  "nodes": [
    1673016160,
    1673016162,
    2956778153,
    2956778150,
    1673016160
  ],
  "tags": {
    "amenity": "marketplace",
    "building": "yes",
    "evacuation_center": "no",
    "flood_prone": "yes",
    "name": "PD PASAR JAYA Pademangan",
    "opening_hours": "04.00-22.00",
    "operator": "PEMERINTAH"
  }
},
{
  "type": "way",
  "id": 156270948,
  "center": {
    "lat": -6.1158068,
    "lon": 106.7787137
  },
  "nodes": [
    1685303848,
    1685303876,
    1685303879,
    1685303854,
    1685303848
  ],
  "tags": {
    "amenity": "marketplace",
    "evacuation_center": "no",
    "flood_prone": "no",
    "name": "Pasar Muara Karang",
    "shop": "convenience"
  }
},
{
  "type": "way",
  "id": 295768433,
  "center": {
    "lat": -6.1093289,
    "lon": 106.7729089
  },
  "nodes": [
    2995298045,
    2995298060,
    2995298070,
    2995298061,
    2995298045
  ],
  "tags": {
    "amenity": "marketplace",
    "building": "yes",
    "evacuation_center": "no",
    "flood_prone": "no",
    "name": "PD PasarJaya Muara Angke"
  }
},
{
  "type": "way",
  "id": 211399409,
  "center": {
    "lat": -6.1094191,
    "lon": 106.8014224
  },
  "nodes": [
    2214026654,
    2214026771,
    2214026733,
    2214026628,
    2214026654
  ],
  "tags": {
    "amenity": "marketplace",
    "building": "yes",
    "evacuation_center": "no",
    "flood_prone": "yes",
    "name": "Pasar Ikan Muara Baru"
  }
},
{
  "type": "way",
  "id": 211357635,
  "center": {
    "lat": -6.1027085,
    "lon": 106.8017354
  },
  "nodes": [
    2213682032,
    2213682055,
    2213682050,
    2213682090,
    2213682094,
    2213682110,
    2213682135,
    2213682124,
    2213682120,
    2213682104,
    2213682106,
    2213682088,
    2213682032
  ],
  "tags": {
    "amenity": "marketplace",
    "building": "industrial"
  }
},
{
  "type": "way",
  "id": 155097156,
  "center": {
    "lat": -6.1611043,
    "lon": 106.8552842
  },
  "nodes": [
    1675291707,
    1675291715,
    1675291716,
    1675291718,
    1675291720,
    1675291719,
    1675291717,
    1675291713,
    1675291710,
    1675291714,
    1675291707
  ],
  "tags": {
    "amenity": "marketplace",
    "name": "PASAR KEMAYORAN"
  }
},
{
  "type": "way",
  "id": 155110899,
  "center": {
    "lat": -6.1644711,
    "lon": 106.8644006
  },
  "nodes": [
    1675462623,
    1675462621,
    1675462622,
    1675462619,
    1675462618,
    1675462614,
    1675462615,
    1675462613,
    1675462616,
    1675722217,
    1675722225,
    1675722233,
    1675462631,
    1675462623
  ],
  "tags": {
    "amenity": "marketplace",
    "name": "Pasar Sumur Baru",
    "opening_hours": "24/7"
  }
},
{
  "type": "way",
  "id": 153303436,
  "center": {
    "lat": -6.1264440,
    "lon": 106.8988551
  },
  "nodes": [
    1660083398,
    1660083409,
    1660083419,
    1660083424,
    1660083436,
    1660083418,
    1660083411,
    1660083405,
    1748254797,
    1660083398
  ],
  "tags": {
    "amenity": "marketplace",
    "name": "pasar walang jaya",
    "opening_hours": "Mo-Fr 08:30-20:00"
  }
},
{
  "type": "way",
  "id": 316325057,
  "center": {
    "lat": -6.1696302,
    "lon": 106.9134277
  },
  "nodes": [
    3224362333,
    3224362334,
    3224362335,
    3224362336,
    3224362333
  ],
  "tags": {
    "amenity": "marketplace",
    "building": "yes",
    "evacuation_center": "no",
    "flood_prone": "yes",
    "name": "Pasar Jongkoh"
  }
},
{
  "type": "way",
  "id": 334982114,
  "center": {
    "lat": -6.1449371,
    "lon": 106.9242205
  },
  "nodes": [
    3421123038,
    3421123040,
    3421123041,
    3421123037,
    3421123038
  ],
  "tags": {
    "amenity": "marketplace",
    "building": "yes",
    "evacuation_center": "no",
    "flood_prone": "no",
    "name": "Pasar KBN"
  }
},
{
  "type": "way",
  "id": 97192738,
  "center": {
    "lat": -6.1518262,
    "lon": 106.9517835
  },
  "nodes": [
    1125903475,
    1125903473,
    1125903474,
    1125903472,
    1125903475
  ],
  "tags": {
    "amenity": "marketplace",
    "area": "yes",
    "name": "Traditional Market",
    "name:id": "Basar Kaget"
  }
},
{
  "type": "way",
  "id": 334984028,
  "center": {
    "lat": -6.1409405,
    "lon": 106.9224731
  },
  "nodes": [
    3421161219,
    3421161217,
    3421161218,
    3421161220,
    3421161219
  ],
  "tags": {
    "amenity": "marketplace",
    "building": "yes",
    "evacuation_center": "no",
    "flood_prone": "yes",
    "name": "Pasar Sukapura"
  }
},
{
  "type": "way",
  "id": 154856505,
  "center": {
    "lat": -6.1351250,
    "lon": 106.9283816
  },
  "nodes": [
    1673219834,
    1673219837,
    1673219836,
    1673467581,
    1673219833,
    1673219834
  ],
  "tags": {
    "amenity": "marketplace",
    "flood_prone": "yes",
    "name": "Pasar Embrio",
    "opening_hours": "24/7",
    "operator": "Pemerintah"
  }
},
{
  "type": "way",
  "id": 154839202,
  "center": {
    "lat": -6.1191772,
    "lon": 106.9105043
  },
  "nodes": [
    330759972,
    330759940,
    330765904,
    330765892,
    330765895,
    330765897,
    330761833,
    330766377,
    330759972
  ],
  "tags": {
    "amenity": "marketplace",
    "name": "Pasar Lontar",
    "opening_hours": "24/7",
    "operator": "Government"
  }
},
{
  "type": "way",
  "id": 154839203,
  "center": {
    "lat": -6.1271307,
    "lon": 106.9173181
  },
  "nodes": [
    1673095710,
    1673095708,
    1673095714,
    1673095716,
    1673095710
  ],
  "tags": {
    "amenity": "marketplace",
    "name": "Pasar Semper",
    "opening_hours": "24/7",
    "operator": "PEMERINTAH"
  }
},
{
  "type": "way",
  "id": 315566058,
  "center": {
    "lat": -6.1335426,
    "lon": 106.9355228
  },
  "nodes": [
    3216932999,
    3216932986,
    3216932995,
    3216932994,
    3216933011,
    3216933013,
    3216933004,
    3216933009,
    3216933006,
    3216933012,
    3216933002,
    3216933003,
    3216932999
  ],
  "tags": {
    "amenity": "marketplace",
    "evacuation_center": "no",
    "flood_prone": "no",
    "name": "Pasar Anyar"
  }
},
{
  "type": "way",
  "id": 154828482,
  "center": {
    "lat": -6.1147705,
    "lon": 106.8791195
  },
  "nodes": [
    1672991471,
    1676683133,
    1672991470,
    1672991472,
    1672991471
  ],
  "tags": {
    "amenity": "marketplace",
    "name": "Pasar Anyar Bahari"
  }
},
{
  "type": "way",
  "id": 154838035,
  "center": {
    "lat": -6.1125340,
    "lon": 106.9079723
  },
  "nodes": [
    1673084559,
    1673084561,
    1673084590,
    1673084587,
    1673084567,
    1673084568,
    1673084607,
    1673084605,
    1673084559
  ],
  "tags": {
    "amenity": "marketplace",
    "name": "Ruko",
    "opening_hours": "Tu-Su 08:00-15:00; Sa 08:00-12:00"
  }
},
{
  "type": "way",
  "id": 153941187,
  "center": {
    "lat": -6.1025195,
    "lon": 106.9278415
  },
  "nodes": [
    1665544799,
    1665544798,
    1665544791,
    1665544780,
    1674297474,
    1674297475,
    1665544787,
    1665544797,
    1665544793,
    1665544799
  ],
  "tags": {
    "amenity": "marketplace",
    "name": "Jalanbaru Market"
  }
},
{
  "type": "way",
  "id": 315568581,
  "center": {
    "lat": -6.1088472,
    "lon": 106.9340290
  },
  "nodes": [
    3216967207,
    3216967206,
    3216967211,
    3216967215,
    3216967213,
    3216967214,
    3216967212,
    3216967210,
    3216967209,
    3216967208,
    3216967207
  ],
  "tags": {
    "amenity": "marketplace",
    "evacuation_center": "no",
    "flood_prone": "no",
    "name": "Pasar Jongkok Berkah"
  }
},
{
  "type": "way",
  "id": 378946886,
  "center": {
    "lat": -6.0952767,
    "lon": 106.9637960
  },
  "nodes": [
    3823106161,
    3823106160,
    3823106158,
    3823106159,
    3823106161
  ],
  "tags": {
    "addr:full": "Jalan Marunda Rusun",
    "amenity": "marketplace",
    "name": "Pasar Rusun Marunda"
  }
},
{
  "type": "relation",
  "id": 7119957,
  "center": {
    "lat": -6.2211444,
    "lon": 106.8390397
  },
  "members": [
    {
      "type": "way",
      "ref": 157357317,
      "role": "outer"
    },
    {
      "type": "way",
      "ref": 483603849,
      "role": "inner"
    },
    {
      "type": "way",
      "ref": 483603850,
      "role": "inner"
    }
  ],
  "tags": {
    "amenity": "marketplace",
    "name": "Pasar LBUK",
    "operator": "LBUK",
    "type": "multipolygon"
  }
},
{
  "type": "relation",
  "id": 7165705,
  "center": {
    "lat": -6.1976232,
    "lon": 106.8576971
  },
  "members": [
    {
      "type": "way",
      "ref": 487621569,
      "role": "outer"
    },
    {
      "type": "way",
      "ref": 155255188,
      "role": "inner"
    },
    {
      "type": "way",
      "ref": 155945145,
      "role": "inner"
    },
    {
      "type": "way",
      "ref": 155945144,
      "role": "inner"
    }
  ],
  "tags": {
    "amenity": "marketplace",
    "name": "Pasar Pramuka",
    "source": "HOT_InAWARESurvey_2017",
    "type": "multipolygon"
  }
},
{
  "type": "relation",
  "id": 7173104,
  "center": {
    "lat": -6.2127164,
    "lon": 106.9018432
  },
  "members": [
    {
      "type": "way",
      "ref": 488456183,
      "role": "outer"
    },
    {
      "type": "way",
      "ref": 486277109,
      "role": "inner"
    },
    {
      "type": "way",
      "ref": 486277107,
      "role": "inner"
    },
    {
      "type": "way",
      "ref": 486277106,
      "role": "inner"
    },
    {
      "type": "way",
      "ref": 486277108,
      "role": "inner"
    },
    {
      "type": "way",
      "ref": 486277110,
      "role": "inner"
    }
  ],
  "tags": {
    "access:roof": "no",
    "addr:full": "Jalan Raya Bekasi Timur",
    "amenity": "marketplace",
    "backup_generator": "no",
    "building": "marketplace",
    "building:condition": "good",
    "building:floor": "ceramics",
    "building:levels": "2",
    "building:structure": "confined_masonry",
    "building:walls": "brick",
    "capacity:persons": "250-500",
    "name": "Pasar SS Klender",
    "type": "multipolygon"
  }
},
{
  "type": "relation",
  "id": 7132823,
  "center": {
    "lat": -6.1943962,
    "lon": 106.8601249
  },
  "members": [
    {
      "type": "way",
      "ref": 484689774,
      "role": "outer"
    },
    {
      "type": "way",
      "ref": 484689771,
      "role": "inner"
    },
    {
      "type": "way",
      "ref": 484689770,
      "role": "inner"
    },
    {
      "type": "way",
      "ref": 484689769,
      "role": "inner"
    },
    {
      "type": "way",
      "ref": 484689768,
      "role": "inner"
    },
    {
      "type": "way",
      "ref": 484689766,
      "role": "inner"
    },
    {
      "type": "way",
      "ref": 484689767,
      "role": "inner"
    },
    {
      "type": "way",
      "ref": 484689786,
      "role": "inner"
    },
    {
      "type": "way",
      "ref": 484689785,
      "role": "inner"
    },
    {
      "type": "way",
      "ref": 484689777,
      "role": "inner"
    },
    {
      "type": "way",
      "ref": 484689776,
      "role": "inner"
    },
    {
      "type": "way",
      "ref": 484689772,
      "role": "inner"
    },
    {
      "type": "way",
      "ref": 484689775,
      "role": "inner"
    },
    {
      "type": "way",
      "ref": 484689765,
      "role": "inner"
    },
    {
      "type": "way",
      "ref": 484689787,
      "role": "inner"
    },
    {
      "type": "way",
      "ref": 484689779,
      "role": "inner"
    },
    {
      "type": "way",
      "ref": 484689780,
      "role": "inner"
    },
    {
      "type": "way",
      "ref": 484689763,
      "role": "inner"
    },
    {
      "type": "way",
      "ref": 484689764,
      "role": "inner"
    },
    {
      "type": "way",
      "ref": 484689760,
      "role": "inner"
    },
    {
      "type": "way",
      "ref": 484689759,
      "role": "inner"
    },
    {
      "type": "way",
      "ref": 484689745,
      "role": "inner"
    },
    {
      "type": "way",
      "ref": 484689758,
      "role": "inner"
    },
    {
      "type": "way",
      "ref": 484689756,
      "role": "inner"
    },
    {
      "type": "way",
      "ref": 484689755,
      "role": "inner"
    },
    {
      "type": "way",
      "ref": 484689757,
      "role": "inner"
    },
    {
      "type": "way",
      "ref": 484689754,
      "role": "inner"
    },
    {
      "type": "way",
      "ref": 484689743,
      "role": "inner"
    },
    {
      "type": "way",
      "ref": 484689788,
      "role": "inner"
    },
    {
      "type": "way",
      "ref": 484689782,
      "role": "inner"
    },
    {
      "type": "way",
      "ref": 484689781,
      "role": "inner"
    },
    {
      "type": "way",
      "ref": 484689784,
      "role": "inner"
    },
    {
      "type": "way",
      "ref": 484689783,
      "role": "inner"
    },
    {
      "type": "way",
      "ref": 484689789,
      "role": "inner"
    },
    {
      "type": "way",
      "ref": 484689792,
      "role": "inner"
    },
    {
      "type": "way",
      "ref": 484689791,
      "role": "inner"
    },
    {
      "type": "way",
      "ref": 484689790,
      "role": "inner"
    },
    {
      "type": "way",
      "ref": 484689778,
      "role": "inner"
    },
    {
      "type": "way",
      "ref": 484689793,
      "role": "inner"
    },
    {
      "type": "way",
      "ref": 484689762,
      "role": "inner"
    },
    {
      "type": "way",
      "ref": 484689761,
      "role": "inner"
    },
    {
      "type": "way",
      "ref": 484689750,
      "role": "inner"
    },
    {
      "type": "way",
      "ref": 484689751,
      "role": "inner"
    },
    {
      "type": "way",
      "ref": 484689753,
      "role": "inner"
    },
    {
      "type": "way",
      "ref": 484689747,
      "role": "inner"
    },
    {
      "type": "way",
      "ref": 484689749,
      "role": "inner"
    }
  ],
  "tags": {
    "addr:full": "Jalan Percetakan Negara",
    "amenity": "marketplace",
    "name": "Pasar Genjing",
    "source": "HOT_InAWARESurvey_2017",
    "type": "multipolygon"
  }
},
{
  "type": "relation",
  "id": 7172088,
  "center": {
    "lat": -6.1854622,
    "lon": 106.8722949
  },
  "members": [
    {
      "type": "way",
      "ref": 488357424,
      "role": "outer"
    },
    {
      "type": "way",
      "ref": 484842333,
      "role": "inner"
    },
    {
      "type": "way",
      "ref": 484844347,
      "role": "inner"
    },
    {
      "type": "way",
      "ref": 484844346,
      "role": "inner"
    }
  ],
  "tags": {
    "addr:full": "Jalan Rawasari Selatan",
    "amenity": "marketplace",
    "name": "Pasar Rawasari",
    "type": "multipolygon"
  }
},
{
  "type": "relation",
  "id": 7138615,
  "center": {
    "lat": -6.1777863,
    "lon": 106.8548855
  },
  "members": [
    {
      "type": "way",
      "ref": 155114211,
      "role": "outer"
    },
    {
      "type": "way",
      "ref": 485085958,
      "role": "inner"
    },
    {
      "type": "way",
      "ref": 485085957,
      "role": "inner"
    },
    {
      "type": "way",
      "ref": 485085961,
      "role": "inner"
    },
    {
      "type": "way",
      "ref": 485085956,
      "role": "inner"
    },
    {
      "type": "way",
      "ref": 485085960,
      "role": "inner"
    },
    {
      "type": "way",
      "ref": 485085955,
      "role": "inner"
    },
    {
      "type": "way",
      "ref": 485085959,
      "role": "inner"
    },
    {
      "type": "way",
      "ref": 485085954,
      "role": "inner"
    },
    {
      "type": "way",
      "ref": 485085953,
      "role": "inner"
    },
    {
      "type": "way",
      "ref": 485085952,
      "role": "inner"
    },
    {
      "type": "way",
      "ref": 485085947,
      "role": "inner"
    },
    {
      "type": "way",
      "ref": 485085950,
      "role": "inner"
    },
    {
      "type": "way",
      "ref": 485085951,
      "role": "inner"
    },
    {
      "type": "way",
      "ref": 485085949,
      "role": "inner"
    },
    {
      "type": "way",
      "ref": 485085948,
      "role": "inner"
    },
    {
      "type": "way",
      "ref": 485085946,
      "role": "inner"
    },
    {
      "type": "way",
      "ref": 485085945,
      "role": "inner"
    },
    {
      "type": "way",
      "ref": 485085944,
      "role": "inner"
    },
    {
      "type": "way",
      "ref": 485085943,
      "role": "inner"
    },
    {
      "type": "way",
      "ref": 485085942,
      "role": "inner"
    }
  ],
  "tags": {
    "addr:full": "Jalan Galur Raya",
    "amenity": "marketplace",
    "name": "Pasar Gembrong Galur",
    "type": "multipolygon"
  }
},
{
  "type": "relation",
  "id": 7150394,
  "center": {
    "lat": -6.1806902,
    "lon": 106.8514237
  },
  "members": [
    {
      "type": "way",
      "ref": 485987557,
      "role": "outer"
    },
    {
      "type": "way",
      "ref": 482405731,
      "role": "inner"
    },
    {
      "type": "way",
      "ref": 485987559,
      "role": "inner"
    },
    {
      "type": "way",
      "ref": 482405682,
      "role": "inner"
    }
  ],
  "tags": {
    "addr:full": "Jalan Kramat Pulo Gundul",
    "amenity": "marketplace",
    "name": "Induk Usaha Kecil Pulo Gundul",
    "source": "HOT_InAWARESurvey_2017",
    "type": "multipolygon"
  }
},
{
  "type": "way",
  "id": 160290310,
  "nodes": [
    1723440517,
    1723440516,
    1723440515,
    1723440514,
    1723440517
  ],
  "tags": {
    "amenity": "marketplace",
    "building": "yes",
    "name": "Pasar Modern"
  }
},
{
  "type": "way",
  "id": 129912079,
  "nodes": [
    1432492844,
    1432492843,
    1432492926,
    1432492845,
    1432492862,
    2364060183,
    1432492844
  ],
  "tags": {
    "amenity": "marketplace"
  }
},
{
  "type": "way",
  "id": 155812919,
  "nodes": [
    1681697318,
    1681697319,
    1681697342,
    1681697340,
    1681697346,
    1681697345,
    1681697323,
    1681697318
  ],
  "tags": {
    "amenity": "marketplace",
    "name": "Pasar Pondok Labu"
  }
},
{
  "type": "way",
  "id": 314070581,
  "nodes": [
    3201111436,
    3201111437,
    3201111439,
    3201111438,
    3201111436
  ],
  "tags": {
    "amenity": "marketplace",
    "building": "yes",
    "flood_prone": "no",
    "name": "PD Pasar Jaya Pondok Labu"
  }
},
{
  "type": "way",
  "id": 314070582,
  "nodes": [
    3201111440,
    3201111441,
    3201111443,
    3201111442,
    3201111440
  ],
  "tags": {
    "amenity": "marketplace",
    "building": "yes",
    "flood_prone": "no",
    "name": "Pasar Koperasi"
  }
},
{
  "type": "way",
  "id": 314070583,
  "nodes": [
    3201111444,
    3201111446,
    3201111447,
    3201111448,
    3201111449,
    3201111451,
    3201111456,
    3201111455,
    3201111457,
    3201111458,
    3201111459,
    3201111460,
    3201111463,
    3201111464,
    3201111445,
    3201111444
  ],
  "tags": {
    "amenity": "marketplace",
    "flood_prone": "no",
    "name": "Pasar Swadaya"
  }
},
{
  "type": "way",
  "id": 314070584,
  "nodes": [
    3201111462,
    3201111461,
    3201111470,
    3201111469,
    3201111462
  ],
  "tags": {
    "amenity": "marketplace",
    "flood_prone": "no",
    "name": "Pasar Taman"
  }
},
{
  "type": "way",
  "id": 158820399,
  "nodes": [
    1709522667,
    1709522664,
    1709522671,
    1709522684,
    1709522667
  ],
  "tags": {
    "amenity": "marketplace",
    "building": "yes",
    "name": "Pasar Bintaro Sektor 2"
  }
},
{
  "type": "way",
  "id": 157365895,
  "nodes": [
    1695847349,
    1695847360,
    1695847362,
    1695847351,
    1695847347,
    1695847349
  ],
  "tags": {
    "access:roof": "yes",
    "addr:full": "jl raya ragunan",
    "amenity": "marketplace",
    "building": "yes",
    "building:levels": "4",
    "building:roof": "concrete",
    "building:structure": "reinforced_masonry",
    "building:walls": "brick",
    "capacity:persons": ">5000",
    "industrial": "factory",
    "name": "PD Pasar Jaya"
  }
},
{
  "type": "way",
  "id": 144562026,
  "nodes": [
    1581084971,
    1581084787,
    1581084792,
    1581085001,
    1581084909,
    1581084849,
    1581084868,
    1581084870,
    1581084971
  ],
  "tags": {
    "access:roof": "yes",
    "amenity": "marketplace",
    "backup_generator": "yes",
    "building": "marketplace",
    "building:condition": "good",
    "building:floor": "ceramics",
    "building:levels": "3",
    "building:roof": "concrete",
    "building:structure": "confined_masonry",
    "building:walls": "concrete",
    "capacity:persons": ">500",
    "name": "Pasar Kramatjati",
    "name:id": "Pasar Induk Kramat Jati",
    "source": "survey"
  }
},
{
  "type": "way",
  "id": 464500828,
  "nodes": [
    4595998418,
    4595998419,
    4595998420,
    4595998421,
    4595998418
  ],
  "tags": {
    "amenity": "marketplace",
    "building": "yes",
    "name": "Pasar",
    "operator": "PD. Pasar Jaya"
  }
},
{
  "type": "way",
  "id": 244053498,
  "nodes": [
    2514083119,
    2514083121,
    2514083126,
    2514083125,
    2514083119
  ],
  "tags": {
    "amenity": "marketplace",
    "name": "Alfamart",
    "opening_hours": "Mo-Fr 08:30-22:00"
  }
},
{
  "type": "way",
  "id": 244053511,
  "nodes": [
    2514083147,
    2514083153,
    2514083151,
    2514083150,
    2514083149,
    2514083152,
    2514083154,
    2514083164,
    2514083166,
    2514083168,
    2514083143,
    2514083139,
    2514083148,
    2514083145,
    2514083136,
    2514083135,
    2514083141,
    2514083138,
    2514083142,
    2514083147
  ],
  "tags": {
    "amenity": "marketplace",
    "opening_hours": "Mo-Sat 05:30-18:00",
    "operator": "Kecapi Market"
  }
},
{
  "type": "way",
  "id": 158663671,
  "nodes": [
    1708188377,
    1708188373,
    1708188399,
    1708188397,
    1708188460,
    1708188465,
    1708188473,
    1708188476,
    1708188478,
    1708188484,
    1708188377
  ],
  "tags": {
    "amenity": "marketplace",
    "building": "yes",
    "name": "Pasar Pondok Gede"
  }
},
{
  "type": "way",
  "id": 258857437,
  "nodes": [
    2641718341,
    2641718342,
    2641718343,
    2641718344,
    2641718341
  ],
  "tags": {
    "amenity": "marketplace",
    "building": "yes",
    "name": "Pasar Jatiasih"
  }
},
{
  "type": "way",
  "id": 228532668,
  "nodes": [
    2372055462,
    2372055460,
    2372055463,
    2372055465,
    2372055479,
    2372055484,
    2372055462
  ],
  "tags": {
    "amenity": "marketplace",
    "name": "Pasar Arinda"
  }
},
{
  "type": "way",
  "id": 318923431,
  "nodes": [
    3253253845,
    3253253846,
    1709447336,
    3253253848,
    3253253845
  ],
  "tags": {
    "amenity": "marketplace",
    "building": "yes",
    "name": "Pasar Maharta",
    "opening_hours": "06.00 - 11.00"
  }
},
{
  "type": "way",
  "id": 319372907,
  "nodes": [
    3257857216,
    3257857218,
    3257857221,
    3257857219,
    3257857216
  ],
  "tags": {
    "amenity": "marketplace",
    "evacuation_center": "no",
    "flood_prone": "yes",
    "name": "Pasar Darurat"
  }
},
{
  "type": "way",
  "id": 319374647,
  "nodes": [
    3257869228,
    3257869234,
    3257869236,
    3257869240,
    3257869243,
    3257869245,
    3257869246,
    3257869244,
    3257869242,
    3257869241,
    3257869238,
    3257869235,
    3257869230,
    3257869228
  ],
  "tags": {
    "amenity": "marketplace",
    "evacuation_center": "no",
    "flood_prone": "no",
    "name": "Pasar Tradisional"
  }
},
{
  "type": "way",
  "id": 156919505,
  "nodes": [
    1691618086,
    1691618088,
    1691618087,
    1691618085,
    1691618086
  ],
  "tags": {
    "amenity": "marketplace",
    "name": "PASAR HIPLI SEMANAN"
  }
},
{
  "type": "way",
  "id": 315867396,
  "nodes": [
    3219981640,
    3219981638,
    3219981639,
    3219981641,
    3219981640
  ],
  "tags": {
    "Id": "0",
    "amenity": "marketplace",
    "evacuation_center": "yes",
    "flood_prone": "yes",
    "kitchen:facilities": "yes",
    "name": "Pasar Air Mancur",
    "shelter_type": "tent",
    "toilet:facilities": "no"
  }
},
{
  "type": "way",
  "id": 156917371,
  "nodes": [
    1691597760,
    1691597756,
    1691597767,
    1691597769,
    1691597760
  ],
  "tags": {
    "amenity": "marketplace",
    "building": "yes",
    "evacuation_center": "no",
    "flood_prone": "no",
    "name": "Pasar Bojong Indah"
  }
},
{
  "type": "way",
  "id": 314679084,
  "nodes": [
    3207265468,
    3207265466,
    3207265467,
    3207265471,
    3207265472,
    3207265476,
    3207265477,
    3207265475,
    3207265470,
    3207265469,
    3207265468
  ],
  "tags": {
    "amenity": "marketplace",
    "evacuation_center": "no",
    "flood_prone": "no",
    "name": "Pasar Ganepo"
  }
},
{
  "type": "way",
  "id": 316766678,
  "nodes": [
    3229452448,
    3229452449,
    3229452447,
    3229452446,
    3229452448
  ],
  "tags": {
    "amenity": "marketplace",
    "name": "Pasar"
  }
},
{
  "type": "way",
  "id": 157038257,
  "nodes": [
    1692722888,
    1692722886,
    1692722885,
    1692722887,
    1692722888
  ],
  "tags": {
    "amenity": "marketplace",
    "name": "Pasar Guna Karya Bambu Larangan"
  }
},
{
  "type": "way",
  "id": 316748056,
  "nodes": [
    3229092084,
    3229092083,
    3229092095,
    3229092098,
    3229092099,
    3229092096,
    3229092084
  ],
  "tags": {
    "Id": "0",
    "amenity": "marketplace",
    "flood_prone": "yes",
    "name": "Pasar Menvo"
  }
},
{
  "type": "way",
  "id": 316748045,
  "nodes": [
    3229091939,
    3229091937,
    3229091944,
    3229091946,
    3229091939
  ],
  "tags": {
    "Id": "0",
    "amenity": "marketplace",
    "evacuation_center": "no",
    "flood_prone": "no",
    "name": "Pasar 55"
  }
},
{
  "type": "way",
  "id": 316748049,
  "nodes": [
    3229091924,
    3229091920,
    3229091923,
    3229091925,
    3229091924
  ],
  "tags": {
    "Id": "0",
    "amenity": "marketplace",
    "evacuation_center": "no",
    "flood_prone": "yes",
    "name": "Pasar Darurat"
  }
},
{
  "type": "way",
  "id": 314669764,
  "nodes": [
    3207178816,
    3207178821,
    3207178823,
    3207178819,
    3207178816
  ],
  "tags": {
    "amenity": "marketplace",
    "evacuation_center": "no",
    "flood_prone": "yes",
    "name": "Pasar Kenanga"
  }
},
{
  "type": "way",
  "id": 314528950,
  "nodes": [
    3205771197,
    3205771202,
    3205771205,
    3205771201,
    3205771197
  ],
  "tags": {
    "amenity": "marketplace",
    "building": "yes",
    "flood_prone": "yes",
    "name": "Pasar"
  }
},
{
  "type": "way",
  "id": 314669763,
  "nodes": [
    3207178846,
    3207178847,
    3207178853,
    3207178851,
    3207178846
  ],
  "tags": {
    "amenity": "marketplace",
    "evacuation_center": "no",
    "flood_prone": "yes",
    "name": "Pasar Deprok"
  }
},
{
  "type": "way",
  "id": 343482021,
  "nodes": [
    3503119776,
    3503119777,
    3503119778,
    3503119779,
    3503119780,
    3503119776
  ],
  "tags": {
    "amenity": "marketplace",
    "building": "yes"
  }
},
{
  "type": "way",
  "id": 343482022,
  "nodes": [
    3503119781,
    3503119782,
    3503119783,
    3503119784,
    3503119781
  ],
  "tags": {
    "amenity": "marketplace",
    "building": "yes"
  }
},
{
  "type": "way",
  "id": 343482023,
  "nodes": [
    3503119785,
    3503119786,
    3503119787,
    3503119788,
    3503119785
  ],
  "tags": {
    "amenity": "marketplace",
    "building": "yes"
  }
},
{
  "type": "way",
  "id": 343482092,
  "nodes": [
    3503120475,
    3503120476,
    3503120477,
    3503120478,
    3503120475
  ],
  "tags": {
    "amenity": "marketplace",
    "building": "yes"
  }
},
{
  "type": "way",
  "id": 343482100,
  "nodes": [
    3503120562,
    3503120563,
    3503120564,
    3503120565,
    3503120562
  ],
  "tags": {
    "amenity": "marketplace",
    "building": "yes"
  }
},
{
  "type": "way",
  "id": 343482452,
  "nodes": [
    3503124044,
    3503124045,
    3503124046,
    3503124047,
    3503124044
  ],
  "tags": {
    "amenity": "marketplace",
    "building": "yes"
  }
},
{
  "type": "way",
  "id": 343482473,
  "nodes": [
    3503124315,
    3503124316,
    3503124317,
    3503124318,
    3503124315
  ],
  "tags": {
    "amenity": "marketplace",
    "building": "yes"
  }
},
{
  "type": "way",
  "id": 343482798,
  "nodes": [
    3503126934,
    3503126935,
    3503126936,
    3503126937,
    3503126934
  ],
  "tags": {
    "amenity": "marketplace",
    "building": "yes"
  }
},
{
  "type": "way",
  "id": 343482799,
  "nodes": [
    3503126938,
    3503126939,
    3503126940,
    3503126941,
    3503126938
  ],
  "tags": {
    "amenity": "marketplace",
    "building": "yes"
  }
},
{
  "type": "way",
  "id": 343482800,
  "nodes": [
    3503126942,
    3503126943,
    3503126944,
    3503126945,
    3503126942
  ],
  "tags": {
    "amenity": "marketplace",
    "building": "yes"
  }
},
{
  "type": "way",
  "id": 343483112,
  "nodes": [
    3503128521,
    3503128522,
    3503128523,
    3503128524,
    3503128521
  ],
  "tags": {
    "amenity": "marketplace",
    "building": "yes"
  }
},
{
  "type": "way",
  "id": 343483114,
  "nodes": [
    3503128525,
    3503128526,
    3503128527,
    3503128528,
    3503128525
  ],
  "tags": {
    "amenity": "marketplace",
    "building": "yes"
  }
},
{
  "type": "way",
  "id": 343483117,
  "nodes": [
    3503128529,
    3503128530,
    3503128531,
    3503128532,
    3503128529
  ],
  "tags": {
    "amenity": "marketplace",
    "building": "yes"
  }
},
{
  "type": "way",
  "id": 343483119,
  "nodes": [
    3503128533,
    3503128534,
    3503128535,
    3503128536,
    3503128533
  ],
  "tags": {
    "amenity": "marketplace",
    "building": "yes"
  }
},
{
  "type": "way",
  "id": 343482020,
  "nodes": [
    3503119770,
    3503119771,
    3503119774,
    3503119775,
    3503119772,
    3503119773,
    3503119770
  ],
  "tags": {
    "amenity": "marketplace",
    "building": "yes"
  }
},
{
  "type": "way",
  "id": 316757667,
  "nodes": [
    3229357210,
    3229357211,
    3229357214,
    3229357213,
    3229357212,
    3229357210
  ],
  "tags": {
    "amenity": "marketplace",
    "flood_prone": "no",
    "name": "Pasar Oglek"
  }
},
{
  "type": "way",
  "id": 355163792,
  "nodes": [
    3607709440,
    3607709441,
    3607709442,
    3607709443,
    3607709445,
    3607709444,
    3607709440
  ],
  "tags": {
    "amenity": "marketplace",
    "building": "terrace",
    "name": "Pasar Sore BCI"
  }
},
{
  "type": "way",
  "id": 316748051,
  "nodes": [
    3229092092,
    3229092081,
    3229092085,
    3229092097,
    3229092092
  ],
  "tags": {
    "Id": "0",
    "amenity": "marketplace",
    "evacuation_center": "no",
    "flood_prone": "no",
    "name": "Pasar Menceng"
  }
},
{
  "type": "way",
  "id": 316748058,
  "nodes": [
    3229091938,
    3229091936,
    3229091940,
    3229091942,
    3229091938
  ],
  "tags": {
    "Id": "0",
    "amenity": "marketplace",
    "evacuation_center": "no",
    "flood_prone": "no",
    "name": "Pasar Nangka"
  }
},
{
  "type": "way",
  "id": 316748047,
  "nodes": [
    3229091840,
    3229091836,
    3229091844,
    3229091852,
    3229091840
  ],
  "tags": {
    "Id": "0",
    "amenity": "marketplace",
    "evacuation_center": "no",
    "flood_prone": "yes",
    "name": "Pasar Binaan"
  }
},
{
  "type": "way",
  "id": 314067041,
  "nodes": [
    3201064161,
    3201064163,
    3201064164,
    3201064162,
    3201064161
  ],
  "tags": {
    "amenity": "marketplace",
    "evacuation_center": "no",
    "flood_prone": "yes",
    "name": "TPI Kamal Muara"
  }
},
{
  "type": "way",
  "id": 314067027,
  "nodes": [
    3201064170,
    3201064166,
    3201064169,
    3201064173,
    3201064170
  ],
  "tags": {
    "amenity": "marketplace",
    "evacuation_center": "no",
    "flood_prone": "yes",
    "name": "Pasar RT 08/02/07"
  }
},
{
  "type": "way",
  "id": 314067028,
  "nodes": [
    3201064172,
    3201064174,
    3201064168,
    3201064165,
    3201064172
  ],
  "tags": {
    "amenity": "marketplace",
    "evacuation_center": "no",
    "flood_prone": "yes",
    "name": "Pelelangan"
  }
},
{
  "type": "way",
  "id": 408779091,
  "nodes": [
    4106920764,
    4106920765,
    4106920766,
    4106920767,
    4106920764
  ],
  "tags": {
    "amenity": "marketplace",
    "building": "yes",
    "name": "Mitra10"
  }
},
{
  "type": "way",
  "id": 312175015,
  "nodes": [
    3180205281,
    3180205282,
    3180205283,
    3180205284,
    3180205285,
    3180205281
  ],
  "tags": {
    "amenity": "marketplace",
    "building": "yes",
    "name": "Pasar Radio Dalam",
    "operator": "PD Pasar Jaya"
  }
},
{
  "type": "way",
  "id": 311563513,
  "nodes": [
    3172459721,
    3172459722,
    3172459723,
    3172459724,
    3172459721
  ],
  "tags": {
    "amenity": "marketplace",
    "building": "yes",
    "name": "Pasar Blok-A"
  }
},
{
  "type": "way",
  "id": 157351125,
  "nodes": [
    1695688692,
    1695688699,
    1695688701,
    1695688698,
    1695688696,
    1695688694,
    1695688692
  ],
  "tags": {
    "amenity": "marketplace",
    "name": "Pasar Taman Alfa"
  }
},
{
  "type": "way",
  "id": 157347071,
  "nodes": [
    1695672953,
    1695672981,
    1695673020,
    1695673023,
    1695673000,
    1695672992,
    1695672945,
    1695672953
  ],
  "tags": {
    "amenity": "marketplace",
    "evacuation_center": "no",
    "flood_prone": "no",
    "name": "Pasar Santa",
    "opening_hours": "Su-Sa 07:00-17:00",
    "shop": "department_store"
  }
},
{
  "type": "way",
  "id": 482198094,
  "nodes": [
    4750466909,
    4750466906,
    4750466907,
    4750466908,
    4750466909
  ],
  "tags": {
    "access:roof": "no",
    "addr:full": "Jalan Rengas I",
    "amenity": "marketplace",
    "backup_generator": "no",
    "building": "marketplace",
    "building:condition": "poor",
    "building:floor": "ground",
    "building:levels": "1",
    "building:roof": "tin",
    "building:structure": "wood_frame",
    "building:walls": "wood",
    "capacity:persons": "100-250",
    "name": "Pasar Rengas",
    "source": "HOT_InAWARESurvey_2017"
  }
},
{
  "type": "way",
  "id": 157362676,
  "nodes": [
    1695817883,
    1695817814,
    1695818125,
    4773915513,
    1695818030,
    1695817806,
    1695818172,
    1695817883
  ],
  "tags": {
    "access:roof": "no",
    "addr:full": "Jalan Tebet Barat IX",
    "amenity": "marketplace",
    "backup_generator": "no",
    "building": "marketplace",
    "building:condition": "poor",
    "building:floor": "ceramics",
    "building:levels": "3",
    "building:roof": "tin",
    "building:structure": "confined_masonry",
    "building:walls": "concrete",
    "capacity:persons": "250-500",
    "name": "Pasar Raya Tebet Barat",
    "shop": "department_store",
    "source": "HOT_InAWARESurvey_2017"
  }
},
{
  "type": "way",
  "id": 119919348,
  "nodes": [
    1345845573,
    1345845588,
    1345845603,
    1345845616,
    1345845573
  ],
  "tags": {
    "amenity": "marketplace",
    "building": "yes",
    "building:roof": "concrete",
    "building:structure": "reinforced_masonry",
    "building:use": "commercial",
    "building:walls": "brick",
    "name": "Pasar dan Ramayana Palmerah"
  }
},
{
  "type": "way",
  "id": 120909872,
  "nodes": [
    1354527057,
    1354527066,
    1354527055,
    1354527071,
    1354527057
  ],
  "tags": {
    "amenity": "marketplace",
    "building": "yes",
    "building:roof": "concrete",
    "building:structure": "unreinforced_masonry",
    "building:use": "shop",
    "building:walls": "brick",
    "name": "TOTAL buah"
  }
},
{
  "type": "way",
  "id": 120910680,
  "nodes": [
    1354538480,
    1354538534,
    1354538469,
    1354538568,
    1354538480
  ],
  "tags": {
    "amenity": "marketplace",
    "building": "yes",
    "building:levels": "4",
    "building:roof": "tile",
    "building:structure": "reinforced_masonry",
    "building:use": "commercial",
    "building:walls": "brick",
    "name": "Pasar Slipi"
  }
},
{
  "type": "way",
  "id": 156924647,
  "nodes": [
    1691655180,
    1691655179,
    1691655161,
    1691655163,
    1691655180
  ],
  "tags": {
    "amenity": "marketplace",
    "building": "yes",
    "name": "Pasar Tomang Barat (Pasar Kopro)"
  }
},
{
  "type": "way",
  "id": 157347180,
  "nodes": [
    1695673266,
    1695673423,
    1695673104,
    1695673545,
    1695673276,
    1695673266
  ],
  "tags": {
    "access:roof": "no",
    "addr:full": "Jalan Karet Sawah",
    "amenity": "marketplace",
    "backup_generator": "no",
    "building": "marketplace",
    "building:condition": "poor",
    "building:floor": "ground",
    "building:levels": "1",
    "building:roof": "asbentos",
    "building:structure": "wood_frame",
    "building:walls": "wood",
    "capacity:persons": "50-100",
    "name": "Pasar Karet Pedurenan",
    "opening_hours": "Su-Mo 07:00-16:00",
    "shop": "convenience",
    "source": "Hot_inAWARESurvey_2017"
  }
},
{
  "type": "way",
  "id": 155115828,
  "nodes": [
    2373578441,
    2373578442,
    1675498399,
    2373578443,
    2373578440,
    1675498417,
    1675498428,
    4776229870,
    2373578441
  ],
  "tags": {
    "amenity": "marketplace",
    "name": "Pasar Benhil",
    "opening_hours": "Mo-Fr 08:30-20:00"
  }
},
{
  "type": "way",
  "id": 315562271,
  "nodes": [
    3216885829,
    3216885832,
    3216885842,
    3216885855,
    3216885858,
    3216885852,
    3216885854,
    3216885847,
    3216885835,
    3216885829
  ],
  "tags": {
    "amenity": "marketplace",
    "evacuation_center": "no",
    "flood_prone": "no",
    "name": "Pasar Pintu Air"
  }
},
{
  "type": "way",
  "id": 303431059,
  "nodes": [
    3077896054,
    3077896053,
    3077896051,
    3077896052,
    3077896054
  ],
  "tags": {
    "amenity": "marketplace",
    "name": "Pasar Blora"
  }
},
{
  "type": "way",
  "id": 487637922,
  "nodes": [
    4800838857,
    4800838856,
    4800838855,
    4800838854,
    4800838853,
    4800838852,
    4800838851,
    4800838850,
    4800838849,
    4800838848,
    4800838847,
    4800838857
  ],
  "tags": {
    "access:roof": "no",
    "addr:full": "Jalan Karbela Barat",
    "addr:postcode": "12920",
    "amenity": "marketplace",
    "backup_generator": "no",
    "building": "marketplace",
    "building:condition": "good",
    "building:floor": "ground",
    "building:levels": "1",
    "building:roof": "asbestos",
    "building:structure": "wood_frame",
    "building:walls": "wood",
    "capacity:persons": "50-100",
    "name": "Pasar Mencos",
    "source": "Hot_InAWARESurvey_2017"
  }
},
{
  "type": "way",
  "id": 157357320,
  "nodes": [
    1695765571,
    1695765612,
    1695765610,
    1695765567,
    1695765569,
    1695765571
  ],
  "tags": {
    "amenity": "marketplace",
    "name": "Pasar Pocong",
    "operator": "UKM"
  }
},
{
  "type": "way",
  "id": 157357317,
  "nodes": [
    1695765673,
    1695765651,
    1695765647,
    1695765731,
    1695765747,
    1695765710,
    1695765673
  ],
  "tags": {
    "addr:full": "Jalan muria dalam",
    "amenity": "marketplace",
    "name": "Pasar Lokbin",
    "source": "Hot_inAWARESurvey_2017"
  }
},
{
  "type": "way",
  "id": 157357315,
  "nodes": [
    1695765702,
    1695765654,
    1695765688,
    1695765728,
    1695765719,
    1695765702
  ],
  "tags": {
    "addr:full": "jalan menteng pulo 1",
    "amenity": "marketplace",
    "building": "marketplace",
    "building:condition": "good",
    "building:floor": "ceramics",
    "building:levels": "2",
    "building:roof": "tile",
    "building:structure": "confined_masonry",
    "building:walls": "brick",
    "capacity:persons": "100-250",
    "name": "Pasar Menteng Pulo",
    "source": "Hot_inAWARESurvey_2017"
  }
},
{
  "type": "way",
  "id": 157360113,
  "nodes": [
    1695788465,
    4212538527,
    2370070692,
    4212538522,
    2370070682,
    2370070674,
    1695788466,
    4212538521,
    4212538520,
    4212538519,
    4212538518,
    1695788468,
    1695788467,
    4212538523,
    4212538524,
    4212538525,
    4212538526,
    1695788465
  ],
  "tags": {
    "addr:city": "Jakarta Selatan",
    "addr:full": "Jalan Sultan Agung",
    "addr:housenumber": "1",
    "addr:postcode": "12850",
    "addr:street": "Jalan Sultan Agung",
    "amenity": "marketplace",
    "building": "marketplace",
    "building:condition": "good",
    "building:floor": "ceramics",
    "building:levels": "5",
    "building:roof": "concrete",
    "building:structure": "confined_masonry",
    "building:walls": "brick",
    "capacity:persons": "250-500",
    "fixme": "Opening hours missing, tenant nodes are urgently needed! (jam buka kosong, node tenant diperlukan!)",
    "name": "Pasar Raya Manggarai",
    "shop": "mall",
    "source": "Hot_inAWARESurvey_2017"
  }
},
{
  "type": "way",
  "id": 488371648,
  "nodes": [
    4806828421,
    4806828321,
    4806828127,
    4806827988,
    4806828080,
    4806827687,
    4806827987,
    4806828079,
    4806827686,
    4806793886,
    4806828078,
    4806828421
  ],
  "tags": {
    "addr:full": "Jalan Pasar Rumput",
    "amenity": "marketplace",
    "building": "marketplace",
    "building:condition": "good",
    "name": "Pasar Rumput",
    "source": "Hot_inAWARESurvey_2017"
  }
},
{
  "type": "way",
  "id": 488371664,
  "nodes": [
    4806828232,
    4806827694,
    4806828522,
    4806827693,
    4806828634,
    4806828231,
    4806827692,
    4806824411,
    4806828230,
    4806827691,
    4806828422,
    4806828229,
    4806827690,
    4806824409,
    4806828228,
    4806827689,
    4806824408,
    4806828227,
    4806827688,
    4806824407,
    4806828521,
    4806828128,
    4806827211,
    4806828232
  ],
  "tags": {
    "addr:full": "Jalan Pasar Rumput",
    "amenity": "marketplace",
    "building": "marketplace",
    "building:condition": "good",
    "name": "Pasar Rumput",
    "source": "Hot_inAWARESurvey_2017"
  }
},
{
  "type": "way",
  "id": 488371672,
  "nodes": [
    4806828676,
    4806828527,
    4806828797,
    4806828675,
    4806828526,
    4806827710,
    4806828674,
    4806828525,
    4806827705,
    4806828673,
    4806828323,
    4806827704,
    4806828453,
    4806828322,
    4806827703,
    4806828858,
    4806827702,
    4806828669,
    4806828857,
    4806827701,
    4806828655,
    4806828524,
    4806827700,
    4806828424,
    4806828236,
    4806827699,
    4806828423,
    4806828676
  ],
  "tags": {
    "addr:full": "Jalan Pasar Rumput",
    "amenity": "marketplace",
    "building": "marketplace",
    "building:condition": "good",
    "name": "Pasar Rumput",
    "source": "Hot_inAWARESurvey_2017"
  }
},
{
  "type": "way",
  "id": 482145169,
  "nodes": [
    4750089420,
    4750089419,
    4750089418,
    4750089417,
    4750089420
  ],
  "tags": {
    "access:roof": "yes",
    "addr:city": "Setiabudi, South Jakarta",
    "addr:full": "Jalan Unggaran Ujung",
    "addr:postcode": "12970",
    "addr:street": "Jalan Unggaran",
    "amenity": "marketplace",
    "building": "marketplace",
    "building:condition": "good",
    "building:floor": "ceramics",
    "building:levels": "2",
    "building:roof": "concrete",
    "building:structure": "confined_masonry",
    "building:walls": "brick",
    "capacity:persons": "100-250",
    "name": "Pasar Jaya Manggis",
    "source": "Hot_inAWARESurvey_2017"
  }
},
{
  "type": "way",
  "id": 484850437,
  "nodes": [
    4775996438,
    4775996437,
    4775996436,
    4775996202,
    4775996201,
    4775996200,
    4775996438
  ],
  "tags": {
    "access:roof": "no",
    "addr:full": "Jalan Surabaya no.2",
    "amenity": "marketplace",
    "backup_generator": "no",
    "building": "marketplace",
    "building:condition": "good",
    "building:floor": "ceramics",
    "building:levels": "1",
    "building:roof": "tile",
    "building:structure": "confined_masonry",
    "building:walls": "brick",
    "capacity:persons": "250-500",
    "name": "Pasar Antik dan Koper Jakarta",
    "source": "HOT_InAWARESurvey_2017"
  }
},
{
  "type": "way",
  "id": 155110267,
  "nodes": [
    1675446766,
    1675454017,
    1676907100,
    1675446844,
    1676907133,
    1675446762,
    1675446765,
    1675446766
  ],
  "tags": {
    "amenity": "marketplace",
    "building": "yes",
    "name": "Blok G Tanah Abang"
  }
},
{
  "type": "way",
  "id": 485254692,
  "nodes": [
    4780329207,
    4780329205,
    4780329204,
    4780329203,
    4780329201,
    4780329200,
    4780329199,
    4780329197,
    4780329196,
    4780329207
  ],
  "tags": {
    "access:roof": "no",
    "addr:full": "Jalan Srikaya 1",
    "amenity": "marketplace",
    "backup_generator": "no",
    "building": "marketplace",
    "building:condition": "good",
    "building:floor": "ceramics",
    "building:levels": "2",
    "building:roof": "concrete",
    "building:structure": "confined_masonry",
    "building:walls": "brick",
    "capacity:persons": ">500",
    "name": "Pasar Jaya Gondangdia",
    "source": "HOT_InAWARESurvey_2017"
  }
},
{
  "type": "way",
  "id": 120555916,
  "nodes": [
    1351492876,
    1351492918,
    1351492872,
    3118401277,
    1351492888,
    1351492848,
    1351492859,
    1351492912,
    1351492926,
    1351492882,
    1351492895,
    1351492876
  ],
  "tags": {
    "amenity": "marketplace",
    "building": "yes",
    "building:levels": "4",
    "building:roof": "concrete",
    "building:structure": "confined_masonry",
    "building:use": "commercial",
    "building:walls": "brick",
    "name": "Pasar Senen Jaya"
  }
},
{
  "type": "way",
  "id": 314677975,
  "nodes": [
    3207253658,
    3207253659,
    3207255666,
    3207255664,
    3207253658
  ],
  "tags": {
    "amenity": "marketplace",
    "evacuation_center": "no",
    "flood_prone": "no",
    "name": "Pasar Kaget Pengadegan"
  }
},
{
  "type": "way",
  "id": 155935904,
  "nodes": [
    1682763133,
    1682763139,
    1682763151,
    1682763134,
    1682763133
  ],
  "tags": {
    "access:roof": "no",
    "addr:full": "Jalan Pasar Jambul Cawang - Jakarta Timur",
    "amenity": "marketplace",
    "backup_generator": "no",
    "building": "marketplace",
    "building:condition": "good",
    "building:levels": "1",
    "building:roof": "asbentos",
    "building:structure": "confined_masonry",
    "building:walls": "brick",
    "buildings:floor": "ceramics",
    "capacity": "50-100",
    "evacuation_center": "no",
    "flood_prone": "no",
    "name": "Pasar Jaya Pasar Jambul Baru",
    "source": "HOT_InAWARESurvey_2017"
  }
},
{
  "type": "way",
  "id": 315411487,
  "nodes": [
    3215271069,
    3215271070,
    3215271072,
    3215271071,
    3215271069
  ],
  "tags": {
    "amenity": "marketplace",
    "building": "yes",
    "evacuation_center": "no",
    "flood_prone": "yes",
    "name": "Pasar Batak"
  }
},
{
  "type": "way",
  "id": 157362094,
  "nodes": [
    1695812154,
    1695812151,
    1695812176,
    1695812173,
    1695812154
  ],
  "tags": {
    "access:roof": "no",
    "addr:full": "Jalan Tebet Timur Dalam",
    "amenity": "marketplace",
    "backup_generator": "no",
    "building": "marketplace",
    "building:condition": "good",
    "building:levels": "3",
    "building:roof": "tile",
    "building:structure": "confined_masonry",
    "building:walls": "brick",
    "buildings:floor": "ceramics",
    "capacity": "250-500",
    "name": "Pasar Tebet Timur",
    "source": "HOT_InAWARESurvey_2017"
  }
},
{
  "type": "way",
  "id": 315589068,
  "nodes": [
    3217166472,
    3217166471,
    3217166474,
    3217166475,
    3217166472
  ],
  "tags": {
    "amenity": "marketplace",
    "flood_prone": "yes",
    "name": "Pasar Krenso"
  }
},
{
  "type": "way",
  "id": 314681711,
  "nodes": [
    3207287131,
    3207287129,
    3207287128,
    3207287130,
    3207287131
  ],
  "tags": {
    "amenity": "marketplace",
    "evacuation_center": "no",
    "flood_prone": "yes",
    "name": "Pasar Kampung Melayu"
  }
},
{
  "type": "way",
  "id": 334989574,
  "nodes": [
    3421213550,
    3421213552,
    3421213555,
    3421213551,
    3421213550
  ],
  "tags": {
    "amenity": "marketplace",
    "evacuation_center": "no",
    "flood_prone": "no",
    "name": "Pasar Kodam"
  }
},
{
  "type": "way",
  "id": 258738739,
  "nodes": [
    2640718725,
    2640718726,
    2640718727,
    2640718728,
    2640718729,
    2640718730,
    2640718725
  ],
  "tags": {
    "amenity": "marketplace",
    "building": "yes",
    "name": "Fresh Market"
  }
},
{
  "type": "way",
  "id": 157360660,
  "nodes": [
    1695794552,
    1695794557,
    1695794560,
    1695794561,
    1695794566,
    1695794563,
    1695794562,
    1695794552
  ],
  "tags": {
    "amenity": "marketplace",
    "building": "yes",
    "evacuation_center": "no",
    "flood_prone": "no",
    "name": "PD PASAR JAYA BUKITDURI\\"
  }
},
{
  "type": "way",
  "id": 264726189,
  "nodes": [
    2703789685,
    2703789686,
    2703789687,
    2703789688,
    2703789685
  ],
  "tags": {
    "amenity": "marketplace",
    "building": "yes",
    "name": "Pasar traditional market"
  }
},
{
  "type": "way",
  "id": 485256695,
  "nodes": [
    4780353477,
    4780353483,
    4780353475,
    4780353481,
    4780353482,
    4780353476,
    4780353484,
    4780353478,
    4780353486,
    4780353480,
    4780353487,
    4780353490,
    4780353489,
    4780353488,
    4780353479,
    4780353485,
    4780353477
  ],
  "tags": {
    "access:roof": "yes",
    "addr:full": "Jalan Matraman Raya",
    "amenity": "marketplace",
    "backup_generator": "yes",
    "building": "marketplace",
    "building:condition": "good",
    "building:floor": "ceramics",
    "building:levels": "4",
    "building:roof": "concrete",
    "building:structure": "confined_masonry",
    "building:walls": "concrete",
    "capacity:persons": ">500",
    "name": "Jatinegara Trade Center",
    "source": "HOT_InAWARESurvey_2017"
  }
},
{
  "type": "way",
  "id": 155933439,
  "nodes": [
    1682749592,
    1682749589,
    1682749590,
    1682749601,
    1682749608,
    1682749592
  ],
  "tags": {
    "access:roof": "yes",
    "addr:full": "Jalan Bekasi Barat I",
    "amenity": "marketplace",
    "backup_generator": "yes",
    "building": "marketplace",
    "building:condition": "good",
    "building:floor": "ceramics",
    "building:levels": "3",
    "building:roof": "concrete",
    "building:structure": "confined_masonry",
    "building:walls": "concrete",
    "capacity:persons": ">500",
    "name": "Pasar Gems Center",
    "source": "HOT_InAWARESurvey_2017"
  }
},
{
  "type": "way",
  "id": 155953475,
  "nodes": [
    1682874112,
    1682874104,
    1682874103,
    1682874111,
    1682874112
  ],
  "tags": {
    "amenity": "marketplace",
    "name": "Pasar Enjo"
  }
},
{
  "type": "way",
  "id": 242192476,
  "nodes": [
    2497087346,
    2497087347,
    2497087348,
    2497087349,
    2497087346
  ],
  "tags": {
    "amenity": "marketplace",
    "building": "yes",
    "name": "Mini Mall Disbintal AD"
  }
},
{
  "type": "way",
  "id": 155941468,
  "nodes": [
    1682786428,
    1682786427,
    1682786423,
    1682786424,
    1682786428
  ],
  "tags": {
    "amenity": "marketplace",
    "name": "ceriamart"
  }
},
{
  "type": "way",
  "id": 155941466,
  "nodes": [
    1682786350,
    1682786354,
    1682786352,
    1682786348,
    1682786350
  ],
  "tags": {
    "amenity": "marketplace",
    "name": "ceriamart"
  }
},
{
  "type": "way",
  "id": 482411675,
  "nodes": [
    4752312530,
    4752312529,
    4752312528,
    4752312527,
    4752312531,
    4752312533,
    4752312534,
    4752312535,
    4752312538,
    4752312544,
    4752312526,
    4752312525,
    4752312530
  ],
  "tags": {
    "access:roof": "no",
    "addr:full": "Jalan Palmeriam",
    "amenity": "marketplace",
    "backup_generator": "no",
    "building": "marketplace",
    "building:condition": "good",
    "building:floor": "ceramics",
    "building:levels": "3",
    "building:roof": "concrete",
    "building:structure": "confined_masonry",
    "building:walls": "concrete",
    "capacity:persons": ">500",
    "name": "Pasar Jaya Palmeriam",
    "source": "HOT_InAWARESurvey_2017"
  }
},
{
  "type": "way",
  "id": 155945147,
  "nodes": [
    1682822602,
    1682822616,
    1682822617,
    1682822613,
    1682822602
  ],
  "tags": {
    "access:roof": "no",
    "addr:full": "Jalan Penggalang",
    "amenity": "marketplace",
    "backup_generator": "no",
    "building": "marketplace",
    "building:condition": "good",
    "building:floor": "tekhel",
    "building:levels": "1",
    "building:roof": "asbentos",
    "building:structure": "steel_frame",
    "building:walls": "brick",
    "capacity:persons": ">500",
    "name": "Pasar Matraman Kebon Kosong",
    "source": "HOT_InAWARESurvey_2017"
  }
},
{
  "type": "way",
  "id": 155953473,
  "nodes": [
    1682874116,
    1682874117,
    1682874105,
    1682874107,
    1682874106,
    1682874121,
    1682874123,
    1682874125,
    1682874129,
    1682874130,
    1682874135,
    1682874136,
    1682874116
  ],
  "tags": {
    "amenity": "marketplace",
    "name": "Pasar Beras Induk Cipinang"
  }
},
{
  "type": "way",
  "id": 482340843,
  "nodes": [
    4751878798,
    4751878797,
    4751878796,
    4751878795,
    4751878794,
    4751878793,
    4751878798
  ],
  "tags": {
    "access:roof": "yes",
    "addr:full": "Jalan Percetakan Negara II",
    "amenity": "marketplace",
    "backup_generator": "yes",
    "building": "marketplace",
    "building:condition": "good",
    "building:levels": "2",
    "building:roof": "concrete",
    "building:structure": "confined_masonry",
    "building:walls": "glass",
    "buildings:floor": "ceramics",
    "capacity": "250-500",
    "name": "Pasar Johar Baru",
    "source": "HOT_InAWARESurvey_2017"
  }
},
{
  "type": "way",
  "id": 485868913,
  "nodes": [
    4786305362,
    4786305359,
    4786305360,
    4786305361,
    4786305362
  ],
  "tags": {
    "access:roof": "no",
    "addr:full": "Jalan Jati Rawasari",
    "amenity": "marketplace",
    "backup_generator": "no",
    "building": "yes",
    "building:condition": "good",
    "building:floor": "ceramics",
    "building:levels": "1",
    "building:roof": "tin",
    "building:structure": "confined_masonry",
    "building:walls": "brick",
    "capacity:persons": "50-100",
    "name": "Pasar Jati Rawasari"
  }
},
{
  "type": "way",
  "id": 485886225,
  "nodes": [
    4786474457,
    4786474456,
    4786474455,
    4786474454,
    4786474457
  ],
  "tags": {
    "addr:city": "Cempaka Putih, Central Jakarta",
    "addr:postcode": "10520",
    "addr:street": "Jl. Pangkalan Asem",
    "amenity": "marketplace",
    "building": "yes",
    "name": "Pasar Gembrong Cempaka Putih"
  }
},
{
  "type": "way",
  "id": 485868974,
  "nodes": [
    4786317589,
    4786317586,
    4786317587,
    4786317588,
    4786317589
  ],
  "tags": {
    "access:roof": "no",
    "addr:full": "Jalan Cempaka Putih Barat",
    "amenity": "marketplace",
    "backup_generator": "no",
    "building": "marketplace",
    "building:condition": "good",
    "building:floor": "cement",
    "building:levels": "1",
    "building:roof": "tin",
    "building:structure": "confined_masonry",
    "building:walls": "wood",
    "capacity:persons": "250-500",
    "name": "Pasar cempaka putih barat"
  }
},
{
  "type": "way",
  "id": 155957755,
  "nodes": [
    1682910227,
    1682910229,
    1682910226,
    1682910224,
    1682910227
  ],
  "tags": {
    "amenity": "marketplace",
    "name": "Pasar Ampera"
  }
},
{
  "type": "way",
  "id": 123433379,
  "nodes": [
    1376500941,
    1376500936,
    1376500969,
    1376500971,
    1376500932,
    1376500948,
    1376500941
  ],
  "tags": {
    "amenity": "marketplace",
    "name": "Pasar Motor"
  }
},
{
  "type": "way",
  "id": 155957120,
  "nodes": [
    1682840995,
    1682904214,
    1682904217,
    1682904202,
    1682840995
  ],
  "tags": {
    "amenity": "marketplace",
    "name": "Pulo Gadung"
  }
},
{
  "type": "way",
  "id": 155961371,
  "nodes": [
    1682942233,
    1682942230,
    1682942262,
    1692723322,
    1692723321,
    1682942259,
    1682942233
  ],
  "tags": {
    "amenity": "marketplace",
    "name": "PASAR CAKUNG"
  }
},
{
  "type": "way",
  "id": 315413734,
  "nodes": [
    3215294419,
    3215294420,
    3215294417,
    3215294418,
    3215294416,
    3215294415,
    3215294419
  ],
  "tags": {
    "amenity": "marketplace",
    "evacuation_center": "no",
    "flood_prone": "no",
    "name": "Pasar Kedoya"
  }
},
{
  "type": "way",
  "id": 315413735,
  "nodes": [
    3215294347,
    3215294353,
    3215294346,
    3215294351,
    3215294356,
    3215294359,
    3215294366,
    3215294372,
    3215294376,
    3215294370,
    3215294371,
    3215294369,
    3215294367,
    3215294360,
    3215294347
  ],
  "tags": {
    "amenity": "marketplace",
    "evacuation_center": "no",
    "flood_prone": "yes",
    "name": "Pasar Pesing Koneng"
  }
},
{
  "type": "way",
  "id": 314689832,
  "nodes": [
    3207366974,
    3207366975,
    3207366983,
    3207366982,
    3207366974
  ],
  "tags": {
    "Id": "0",
    "amenity": "marketplace",
    "flood_prone": "no",
    "name": "Pasar PTB"
  }
},
{
  "type": "way",
  "id": 153318861,
  "nodes": [
    1660285135,
    1660285146,
    1660285145,
    1660285137,
    1660285139,
    1660285134,
    1660285135
  ],
  "tags": {
    "amenity": "marketplace",
    "name": "Pasar Jembatan Besi"
  }
},
{
  "type": "way",
  "id": 316757666,
  "nodes": [
    3229357192,
    3229357193,
    3229357191,
    3229357190,
    3229357192
  ],
  "tags": {
    "amenity": "marketplace",
    "flood_prone": "no",
    "name": "Pasar Alam"
  }
},
{
  "type": "way",
  "id": 314521147,
  "nodes": [
    3205707448,
    3205707454,
    3205707455,
    3205707449,
    3205707448
  ],
  "tags": {
    "amenity": "marketplace",
    "evacuation_center": "yes",
    "flood_prone": "no",
    "name": "Pasar"
  }
},
{
  "type": "way",
  "id": 314523737,
  "nodes": [
    3205727445,
    3205727446,
    3205727449,
    3205727448,
    3205727445
  ],
  "tags": {
    "amenity": "marketplace",
    "evacuation_center": "no",
    "flood_prone": "no",
    "name": "Pasar Indah Kapuk"
  }
},
{
  "type": "way",
  "id": 315870158,
  "nodes": [
    3220005058,
    3220006962,
    3220006961,
    3220005053,
    3220005058
  ],
  "tags": {
    "amenity": "marketplace",
    "evacuation_center": "no",
    "flood_prone": "no",
    "name": "Pasar Pusaka Abadi"
  }
},
{
  "type": "way",
  "id": 156926197,
  "nodes": [
    1691669114,
    1691669123,
    4768370199,
    1691669117,
    1691669112,
    1691669114
  ],
  "tags": {
    "amenity": "marketplace",
    "name": "Pasar Jembatan Dua"
  }
},
{
  "type": "way",
  "id": 156270958,
  "nodes": [
    1685304202,
    4592281876,
    1685304199,
    1685304200,
    1685304205,
    1685304204,
    1685304203,
    1685304202
  ],
  "tags": {
    "amenity": "marketplace",
    "evacuation_center": "yes",
    "flood_prone": "no",
    "kitchen:facilities": "no",
    "name": "Pluit Junction",
    "shelter_type": "tent",
    "shop": "mall",
    "toilet:facilities": "yes",
    "water_source": "water_works"
  }
},
{
  "type": "way",
  "id": 156270949,
  "nodes": [
    1685304046,
    1685304048,
    1685304068,
    1685304069,
    1685304046
  ],
  "tags": {
    "amenity": "marketplace",
    "evacuation_center": "yes",
    "flood_prone": "no",
    "kitchen:facilities": "yes",
    "name": "Pasar PD Jaya Pluit",
    "shelter_type": "building",
    "shop": "department_store",
    "toilet:facilities": "yes",
    "toilets:number": "2",
    "water_source": "water_works"
  }
},
{
  "type": "way",
  "id": 156924279,
  "nodes": [
    1691652644,
    1691652647,
    1691652646,
    1691652645,
    1691652644
  ],
  "tags": {
    "amenity": "marketplace",
    "name": "PD. Pasar Jaya",
    "opening_hours": "24/7"
  }
},
{
  "type": "way",
  "id": 352856285,
  "nodes": [
    3586341551,
    3586341552,
    3586341553,
    3586341554,
    3586341551
  ],
  "tags": {
    "amenity": "marketplace",
    "building": "yes",
    "name": "Pasar Petojo"
  }
},
{
  "type": "way",
  "id": 352856286,
  "nodes": [
    3586341555,
    3586341556,
    3586341557,
    3586341558,
    3586341555
  ],
  "tags": {
    "amenity": "marketplace",
    "building": "yes",
    "name": "Pasar Petojo"
  }
},
{
  "type": "way",
  "id": 156919807,
  "nodes": [
    1691620412,
    1691620413,
    1691620409,
    1691620406,
    1691620412
  ],
  "tags": {
    "amenity": "marketplace"
  }
},
{
  "type": "way",
  "id": 155110695,
  "nodes": [
    1675460296,
    1675460264,
    1675460275,
    1675460284,
    1675460243,
    1675460256,
    1675460273,
    1675460296
  ],
  "tags": {
    "amenity": "marketplace",
    "building": "yes",
    "name": "PD Pasar Jaya"
  }
},
{
  "type": "way",
  "id": 155110157,
  "nodes": [
    1675452956,
    1675452949,
    1675452959,
    1675452957,
    1675452960,
    1675452962,
    1675452963,
    1675452965,
    1675452967,
    1675452969,
    1675452956
  ],
  "tags": {
    "amenity": "marketplace",
    "building": "yes",
    "name": "Gardu Asem"
  }
},
{
  "type": "way",
  "id": 155097769,
  "nodes": [
    1675313931,
    1675313924,
    1675313926,
    1675313933,
    1675313931
  ],
  "tags": {
    "amenity": "marketplace",
    "name": "PASAR NANGKA"
  }
},
{
  "type": "way",
  "id": 154078986,
  "nodes": [
    1666759416,
    1666759419,
    1666759427,
    1666759424,
    1666759416
  ],
  "tags": {
    "amenity": "marketplace",
    "name": "Kombongan Market"
  }
},
{
  "type": "way",
  "id": 156920992,
  "nodes": [
    1691629710,
    1691629725,
    1691629728,
    1691629730,
    1691629723,
    1691629712,
    1691629710
  ],
  "tags": {
    "amenity": "marketplace",
    "name": "PD. Pasar Jaya",
    "opening_hours": "06.00-17.00"
  }
},
{
  "type": "way",
  "id": 156920993,
  "nodes": [
    1691629701,
    1691629707,
    1691629711,
    1691629703,
    1691629700,
    1691629699,
    1691629701
  ],
  "tags": {
    "amenity": "marketplace",
    "name": "Pertokoan Candra",
    "opening_hours": "06.00-17.00"
  }
},
{
  "type": "way",
  "id": 121986315,
  "nodes": [
    1364120460,
    1364120403,
    1364120568,
    1364120467,
    1364120532,
    2125700348,
    2125700344,
    1364120427,
    1364120398,
    1364120541,
    2125700350,
    1364120607,
    2125700377,
    1364120508,
    1364120399,
    1364120543,
    2125700417,
    2125700420,
    2125700461,
    2125700446,
    1364120609,
    1364120509,
    1364120481,
    1364120460
  ],
  "tags": {
    "amenity": "marketplace",
    "building": "yes",
    "building:levels": "4",
    "building:roof": "concrete",
    "building:structure": "confined_masonry",
    "building:use": "commercial",
    "building:walls": "brick",
    "name": "Pasar Mangga Dua"
  }
},
{
  "type": "way",
  "id": 210917133,
  "nodes": [
    2209475920,
    2209475915,
    2209475921,
    2209475918,
    2209475911,
    2209475913,
    2209475936,
    2209475942,
    2209475951,
    2209475990,
    3289259128,
    2209476005,
    3289259130,
    2209476010,
    2209476024,
    2209476013,
    2209475998,
    2209475987,
    2209475959,
    3289259125,
    2209475947,
    2209475920
  ],
  "tags": {
    "amenity": "marketplace",
    "building": "yes",
    "evacuation_center": "no",
    "flood_prone": "yes",
    "name": "Pasar Ikan"
  }
},
{
  "type": "way",
  "id": 154831700,
  "nodes": [
    1673016160,
    1673016162,
    2956778153,
    2956778150,
    1673016160
  ],
  "tags": {
    "amenity": "marketplace",
    "building": "yes",
    "evacuation_center": "no",
    "flood_prone": "yes",
    "name": "PD PASAR JAYA Pademangan",
    "opening_hours": "04.00-22.00",
    "operator": "PEMERINTAH"
  }
},
{
  "type": "way",
  "id": 156270948,
  "nodes": [
    1685303848,
    1685303876,
    1685303879,
    1685303854,
    1685303848
  ],
  "tags": {
    "amenity": "marketplace",
    "evacuation_center": "no",
    "flood_prone": "no",
    "name": "Pasar Muara Karang",
    "shop": "convenience"
  }
},
{
  "type": "way",
  "id": 295768433,
  "nodes": [
    2995298045,
    2995298060,
    2995298070,
    2995298061,
    2995298045
  ],
  "tags": {
    "amenity": "marketplace",
    "building": "yes",
    "evacuation_center": "no",
    "flood_prone": "no",
    "name": "PD PasarJaya Muara Angke"
  }
},
{
  "type": "way",
  "id": 211399409,
  "nodes": [
    2214026654,
    2214026771,
    2214026733,
    2214026628,
    2214026654
  ],
  "tags": {
    "amenity": "marketplace",
    "building": "yes",
    "evacuation_center": "no",
    "flood_prone": "yes",
    "name": "Pasar Ikan Muara Baru"
  }
},
{
  "type": "way",
  "id": 211357635,
  "nodes": [
    2213682032,
    2213682055,
    2213682050,
    2213682090,
    2213682094,
    2213682110,
    2213682135,
    2213682124,
    2213682120,
    2213682104,
    2213682106,
    2213682088,
    2213682032
  ],
  "tags": {
    "amenity": "marketplace",
    "building": "industrial"
  }
},
{
  "type": "way",
  "id": 155097156,
  "nodes": [
    1675291707,
    1675291715,
    1675291716,
    1675291718,
    1675291720,
    1675291719,
    1675291717,
    1675291713,
    1675291710,
    1675291714,
    1675291707
  ],
  "tags": {
    "amenity": "marketplace",
    "name": "PASAR KEMAYORAN"
  }
},
{
  "type": "way",
  "id": 155110899,
  "nodes": [
    1675462623,
    1675462621,
    1675462622,
    1675462619,
    1675462618,
    1675462614,
    1675462615,
    1675462613,
    1675462616,
    1675722217,
    1675722225,
    1675722233,
    1675462631,
    1675462623
  ],
  "tags": {
    "amenity": "marketplace",
    "name": "Pasar Sumur Baru",
    "opening_hours": "24/7"
  }
},
{
  "type": "way",
  "id": 153303436,
  "nodes": [
    1660083398,
    1660083409,
    1660083419,
    1660083424,
    1660083436,
    1660083418,
    1660083411,
    1660083405,
    1748254797,
    1660083398
  ],
  "tags": {
    "amenity": "marketplace",
    "name": "pasar walang jaya",
    "opening_hours": "Mo-Fr 08:30-20:00"
  }
},
{
  "type": "way",
  "id": 316325057,
  "nodes": [
    3224362333,
    3224362334,
    3224362335,
    3224362336,
    3224362333
  ],
  "tags": {
    "amenity": "marketplace",
    "building": "yes",
    "evacuation_center": "no",
    "flood_prone": "yes",
    "name": "Pasar Jongkoh"
  }
},
{
  "type": "way",
  "id": 334982114,
  "nodes": [
    3421123038,
    3421123040,
    3421123041,
    3421123037,
    3421123038
  ],
  "tags": {
    "amenity": "marketplace",
    "building": "yes",
    "evacuation_center": "no",
    "flood_prone": "no",
    "name": "Pasar KBN"
  }
},
{
  "type": "way",
  "id": 97192738,
  "nodes": [
    1125903475,
    1125903473,
    1125903474,
    1125903472,
    1125903475
  ],
  "tags": {
    "amenity": "marketplace",
    "area": "yes",
    "name": "Traditional Market",
    "name:id": "Basar Kaget"
  }
},
{
  "type": "way",
  "id": 334984028,
  "nodes": [
    3421161219,
    3421161217,
    3421161218,
    3421161220,
    3421161219
  ],
  "tags": {
    "amenity": "marketplace",
    "building": "yes",
    "evacuation_center": "no",
    "flood_prone": "yes",
    "name": "Pasar Sukapura"
  }
},
{
  "type": "way",
  "id": 154856505,
  "nodes": [
    1673219834,
    1673219837,
    1673219836,
    1673467581,
    1673219833,
    1673219834
  ],
  "tags": {
    "amenity": "marketplace",
    "flood_prone": "yes",
    "name": "Pasar Embrio",
    "opening_hours": "24/7",
    "operator": "Pemerintah"
  }
},
{
  "type": "way",
  "id": 154839202,
  "nodes": [
    330759972,
    330759940,
    330765904,
    330765892,
    330765895,
    330765897,
    330761833,
    330766377,
    330759972
  ],
  "tags": {
    "amenity": "marketplace",
    "name": "Pasar Lontar",
    "opening_hours": "24/7",
    "operator": "Government"
  }
},
{
  "type": "way",
  "id": 154839203,
  "nodes": [
    1673095710,
    1673095708,
    1673095714,
    1673095716,
    1673095710
  ],
  "tags": {
    "amenity": "marketplace",
    "name": "Pasar Semper",
    "opening_hours": "24/7",
    "operator": "PEMERINTAH"
  }
},
{
  "type": "way",
  "id": 315566058,
  "nodes": [
    3216932999,
    3216932986,
    3216932995,
    3216932994,
    3216933011,
    3216933013,
    3216933004,
    3216933009,
    3216933006,
    3216933012,
    3216933002,
    3216933003,
    3216932999
  ],
  "tags": {
    "amenity": "marketplace",
    "evacuation_center": "no",
    "flood_prone": "no",
    "name": "Pasar Anyar"
  }
},
{
  "type": "way",
  "id": 154828482,
  "nodes": [
    1672991471,
    1676683133,
    1672991470,
    1672991472,
    1672991471
  ],
  "tags": {
    "amenity": "marketplace",
    "name": "Pasar Anyar Bahari"
  }
},
{
  "type": "way",
  "id": 154838035,
  "nodes": [
    1673084559,
    1673084561,
    1673084590,
    1673084587,
    1673084567,
    1673084568,
    1673084607,
    1673084605,
    1673084559
  ],
  "tags": {
    "amenity": "marketplace",
    "name": "Ruko",
    "opening_hours": "Tu-Su 08:00-15:00; Sa 08:00-12:00"
  }
},
{
  "type": "way",
  "id": 153941187,
  "nodes": [
    1665544799,
    1665544798,
    1665544791,
    1665544780,
    1674297474,
    1674297475,
    1665544787,
    1665544797,
    1665544793,
    1665544799
  ],
  "tags": {
    "amenity": "marketplace",
    "name": "Jalanbaru Market"
  }
},
{
  "type": "way",
  "id": 315568581,
  "nodes": [
    3216967207,
    3216967206,
    3216967211,
    3216967215,
    3216967213,
    3216967214,
    3216967212,
    3216967210,
    3216967209,
    3216967208,
    3216967207
  ],
  "tags": {
    "amenity": "marketplace",
    "evacuation_center": "no",
    "flood_prone": "no",
    "name": "Pasar Jongkok Berkah"
  }
},
{
  "type": "way",
  "id": 378946886,
  "nodes": [
    3823106161,
    3823106160,
    3823106158,
    3823106159,
    3823106161
  ],
  "tags": {
    "addr:full": "Jalan Marunda Rusun",
    "amenity": "marketplace",
    "name": "Pasar Rusun Marunda"
  }
},
{
  "type": "relation",
  "id": 7119957,
  "members": [
    {
      "type": "way",
      "ref": 157357317,
      "role": "outer"
    },
    {
      "type": "way",
      "ref": 483603849,
      "role": "inner"
    },
    {
      "type": "way",
      "ref": 483603850,
      "role": "inner"
    }
  ],
  "tags": {
    "amenity": "marketplace",
    "name": "Pasar LBUK",
    "operator": "LBUK",
    "type": "multipolygon"
  }
},
{
  "type": "relation",
  "id": 7165705,
  "members": [
    {
      "type": "way",
      "ref": 487621569,
      "role": "outer"
    },
    {
      "type": "way",
      "ref": 155255188,
      "role": "inner"
    },
    {
      "type": "way",
      "ref": 155945145,
      "role": "inner"
    },
    {
      "type": "way",
      "ref": 155945144,
      "role": "inner"
    }
  ],
  "tags": {
    "amenity": "marketplace",
    "name": "Pasar Pramuka",
    "source": "HOT_InAWARESurvey_2017",
    "type": "multipolygon"
  }
},
{
  "type": "relation",
  "id": 7173104,
  "members": [
    {
      "type": "way",
      "ref": 488456183,
      "role": "outer"
    },
    {
      "type": "way",
      "ref": 486277109,
      "role": "inner"
    },
    {
      "type": "way",
      "ref": 486277107,
      "role": "inner"
    },
    {
      "type": "way",
      "ref": 486277106,
      "role": "inner"
    },
    {
      "type": "way",
      "ref": 486277108,
      "role": "inner"
    },
    {
      "type": "way",
      "ref": 486277110,
      "role": "inner"
    }
  ],
  "tags": {
    "access:roof": "no",
    "addr:full": "Jalan Raya Bekasi Timur",
    "amenity": "marketplace",
    "backup_generator": "no",
    "building": "marketplace",
    "building:condition": "good",
    "building:floor": "ceramics",
    "building:levels": "2",
    "building:structure": "confined_masonry",
    "building:walls": "brick",
    "capacity:persons": "250-500",
    "name": "Pasar SS Klender",
    "type": "multipolygon"
  }
},
{
  "type": "relation",
  "id": 7132823,
  "members": [
    {
      "type": "way",
      "ref": 484689774,
      "role": "outer"
    },
    {
      "type": "way",
      "ref": 484689771,
      "role": "inner"
    },
    {
      "type": "way",
      "ref": 484689770,
      "role": "inner"
    },
    {
      "type": "way",
      "ref": 484689769,
      "role": "inner"
    },
    {
      "type": "way",
      "ref": 484689768,
      "role": "inner"
    },
    {
      "type": "way",
      "ref": 484689766,
      "role": "inner"
    },
    {
      "type": "way",
      "ref": 484689767,
      "role": "inner"
    },
    {
      "type": "way",
      "ref": 484689786,
      "role": "inner"
    },
    {
      "type": "way",
      "ref": 484689785,
      "role": "inner"
    },
    {
      "type": "way",
      "ref": 484689777,
      "role": "inner"
    },
    {
      "type": "way",
      "ref": 484689776,
      "role": "inner"
    },
    {
      "type": "way",
      "ref": 484689772,
      "role": "inner"
    },
    {
      "type": "way",
      "ref": 484689775,
      "role": "inner"
    },
    {
      "type": "way",
      "ref": 484689765,
      "role": "inner"
    },
    {
      "type": "way",
      "ref": 484689787,
      "role": "inner"
    },
    {
      "type": "way",
      "ref": 484689779,
      "role": "inner"
    },
    {
      "type": "way",
      "ref": 484689780,
      "role": "inner"
    },
    {
      "type": "way",
      "ref": 484689763,
      "role": "inner"
    },
    {
      "type": "way",
      "ref": 484689764,
      "role": "inner"
    },
    {
      "type": "way",
      "ref": 484689760,
      "role": "inner"
    },
    {
      "type": "way",
      "ref": 484689759,
      "role": "inner"
    },
    {
      "type": "way",
      "ref": 484689745,
      "role": "inner"
    },
    {
      "type": "way",
      "ref": 484689758,
      "role": "inner"
    },
    {
      "type": "way",
      "ref": 484689756,
      "role": "inner"
    },
    {
      "type": "way",
      "ref": 484689755,
      "role": "inner"
    },
    {
      "type": "way",
      "ref": 484689757,
      "role": "inner"
    },
    {
      "type": "way",
      "ref": 484689754,
      "role": "inner"
    },
    {
      "type": "way",
      "ref": 484689743,
      "role": "inner"
    },
    {
      "type": "way",
      "ref": 484689788,
      "role": "inner"
    },
    {
      "type": "way",
      "ref": 484689782,
      "role": "inner"
    },
    {
      "type": "way",
      "ref": 484689781,
      "role": "inner"
    },
    {
      "type": "way",
      "ref": 484689784,
      "role": "inner"
    },
    {
      "type": "way",
      "ref": 484689783,
      "role": "inner"
    },
    {
      "type": "way",
      "ref": 484689789,
      "role": "inner"
    },
    {
      "type": "way",
      "ref": 484689792,
      "role": "inner"
    },
    {
      "type": "way",
      "ref": 484689791,
      "role": "inner"
    },
    {
      "type": "way",
      "ref": 484689790,
      "role": "inner"
    },
    {
      "type": "way",
      "ref": 484689778,
      "role": "inner"
    },
    {
      "type": "way",
      "ref": 484689793,
      "role": "inner"
    },
    {
      "type": "way",
      "ref": 484689762,
      "role": "inner"
    },
    {
      "type": "way",
      "ref": 484689761,
      "role": "inner"
    },
    {
      "type": "way",
      "ref": 484689750,
      "role": "inner"
    },
    {
      "type": "way",
      "ref": 484689751,
      "role": "inner"
    },
    {
      "type": "way",
      "ref": 484689753,
      "role": "inner"
    },
    {
      "type": "way",
      "ref": 484689747,
      "role": "inner"
    },
    {
      "type": "way",
      "ref": 484689749,
      "role": "inner"
    }
  ],
  "tags": {
    "addr:full": "Jalan Percetakan Negara",
    "amenity": "marketplace",
    "name": "Pasar Genjing",
    "source": "HOT_InAWARESurvey_2017",
    "type": "multipolygon"
  }
},
{
  "type": "relation",
  "id": 7172088,
  "members": [
    {
      "type": "way",
      "ref": 488357424,
      "role": "outer"
    },
    {
      "type": "way",
      "ref": 484842333,
      "role": "inner"
    },
    {
      "type": "way",
      "ref": 484844347,
      "role": "inner"
    },
    {
      "type": "way",
      "ref": 484844346,
      "role": "inner"
    }
  ],
  "tags": {
    "addr:full": "Jalan Rawasari Selatan",
    "amenity": "marketplace",
    "name": "Pasar Rawasari",
    "type": "multipolygon"
  }
},
{
  "type": "relation",
  "id": 7138615,
  "members": [
    {
      "type": "way",
      "ref": 155114211,
      "role": "outer"
    },
    {
      "type": "way",
      "ref": 485085958,
      "role": "inner"
    },
    {
      "type": "way",
      "ref": 485085957,
      "role": "inner"
    },
    {
      "type": "way",
      "ref": 485085961,
      "role": "inner"
    },
    {
      "type": "way",
      "ref": 485085956,
      "role": "inner"
    },
    {
      "type": "way",
      "ref": 485085960,
      "role": "inner"
    },
    {
      "type": "way",
      "ref": 485085955,
      "role": "inner"
    },
    {
      "type": "way",
      "ref": 485085959,
      "role": "inner"
    },
    {
      "type": "way",
      "ref": 485085954,
      "role": "inner"
    },
    {
      "type": "way",
      "ref": 485085953,
      "role": "inner"
    },
    {
      "type": "way",
      "ref": 485085952,
      "role": "inner"
    },
    {
      "type": "way",
      "ref": 485085947,
      "role": "inner"
    },
    {
      "type": "way",
      "ref": 485085950,
      "role": "inner"
    },
    {
      "type": "way",
      "ref": 485085951,
      "role": "inner"
    },
    {
      "type": "way",
      "ref": 485085949,
      "role": "inner"
    },
    {
      "type": "way",
      "ref": 485085948,
      "role": "inner"
    },
    {
      "type": "way",
      "ref": 485085946,
      "role": "inner"
    },
    {
      "type": "way",
      "ref": 485085945,
      "role": "inner"
    },
    {
      "type": "way",
      "ref": 485085944,
      "role": "inner"
    },
    {
      "type": "way",
      "ref": 485085943,
      "role": "inner"
    },
    {
      "type": "way",
      "ref": 485085942,
      "role": "inner"
    }
  ],
  "tags": {
    "addr:full": "Jalan Galur Raya",
    "amenity": "marketplace",
    "name": "Pasar Gembrong Galur",
    "type": "multipolygon"
  }
},
{
  "type": "relation",
  "id": 7150394,
  "members": [
    {
      "type": "way",
      "ref": 485987557,
      "role": "outer"
    },
    {
      "type": "way",
      "ref": 482405731,
      "role": "inner"
    },
    {
      "type": "way",
      "ref": 485987559,
      "role": "inner"
    },
    {
      "type": "way",
      "ref": 482405682,
      "role": "inner"
    }
  ],
  "tags": {
    "addr:full": "Jalan Kramat Pulo Gundul",
    "amenity": "marketplace",
    "name": "Induk Usaha Kecil Pulo Gundul",
    "source": "HOT_InAWARESurvey_2017",
    "type": "multipolygon"
  }
}

  ]
}
