{
"type": "FeatureCollection",
"features": [
{
  "type": "Feature",
  "id": "relation/6697467",
  "properties": {
    "addr:full": "Jalan Matraman Raya",
    "amenity": "townhall",
    "name": "Wisma PPAD",
    "type": "multipolygon",
    "id": "relation/6697467"
  },
  "geometry": {
    "type": "Point",
    "coordinates": [
      106.8584065,
      -6.2077117
    ]
  }
},
{
  "type": "Feature",
  "id": "way/154830068",
  "properties": {
    "amenity": "townhall",
    "name": "KANTOR LURAH SUNTER AGUNG",
    "id": "way/154830068"
  },
  "geometry": {
    "type": "Point",
    "coordinates": [
      106.8712381,
      -6.1391985
    ]
  }
},
{
  "type": "Feature",
  "id": "way/155904754",
  "properties": {
    "addr:full": "Jl. Puskesmas Rambutan Rt 012/01",
    "addr:housename": "KANTOR SEKRETARIAT RW 01",
    "addr:postcode": "13830",
    "addr:street": "JL.PUSKESMAS RAMBUTAN RT.012/01",
    "admin_level": "8",
    "amenity": "townhall",
    "building": "yes",
    "building:levels": "1",
    "building:roof": "tile",
    "building:structure": "reinforced_masonry",
    "building:walls": "brick",
    "designation": "POSKO BENCANA BANJIR RW 01",
    "name": "KANTOR SEKRETARIAT RW 01",
    "office": "government",
    "source": "DAPUR UMUM DAN POS PENGUNGSIAN",
    "id": "way/155904754"
  },
  "geometry": {
    "type": "Point",
    "coordinates": [
      106.8736054,
      -6.296955
    ]
  }
},
{
  "type": "Feature",
  "id": "way/231290862",
  "properties": {
    "amenity": "townhall",
    "building": "yes",
    "name": "Dhanapala",
    "id": "way/231290862"
  },
  "geometry": {
    "type": "Point",
    "coordinates": [
      106.8384507,
      -6.1727171
    ]
  }
},
{
  "type": "Feature",
  "id": "way/246963403",
  "properties": {
    "access:roof": "yes",
    "addr:full": "Jalan Pluit Karang Permai",
    "admin_level": "8",
    "amenity": "townhall",
    "building": "yes",
    "building:condition": "good",
    "building:levels": "1",
    "evacuation_center": "no",
    "flood_prone": "no",
    "name": "Kantor RW 15",
    "office": "government",
    "id": "way/246963403"
  },
  "geometry": {
    "type": "Point",
    "coordinates": [
      106.7778833,
      -6.1234156
    ]
  }
},
{
  "type": "Feature",
  "id": "way/246963876",
  "properties": {
    "addr:full": "Jalan Pluit Karang Sari 13",
    "admin_level": "8",
    "amenity": "townhall",
    "building": "yes",
    "building:condition": "good",
    "building:levels": "1",
    "evacuation_center": "no",
    "flood_prone": "no",
    "name": "Kantor RW 08",
    "office": "government",
    "id": "way/246963876"
  },
  "geometry": {
    "type": "Point",
    "coordinates": [
      106.7788724,
      -6.117694
    ]
  }
},
{
  "type": "Feature",
  "id": "way/246972845",
  "properties": {
    "addr:full": "Jalan Pluit Karang Permai",
    "admin_level": "7",
    "amenity": "townhall",
    "building": "yes",
    "building:condition": "good",
    "building:levels": "1",
    "evacuation_center": "no",
    "flood_prone": "no",
    "name": "Kantor Sekretariat Karang Taruna Pluit",
    "office": "yes",
    "id": "way/246972845"
  },
  "geometry": {
    "type": "Point",
    "coordinates": [
      106.7751063,
      -6.1217216
    ]
  }
},
{
  "type": "Feature",
  "id": "way/362085905",
  "properties": {
    "addr:city": "Tangerang Selatan",
    "addr:street": "Jalan Pondok Aren Raya",
    "admin_level": "7",
    "amenity": "townhall",
    "building": "civic",
    "name": "Kantor Kelurahan Pondok Aren",
    "townhall:type": "village",
    "id": "way/362085905"
  },
  "geometry": {
    "type": "Point",
    "coordinates": [
      106.7169497,
      -6.2631984
    ]
  }
},
{
  "type": "Feature",
  "id": "way/362087526",
  "properties": {
    "addr:city": "Tangerang Selatan",
    "addr:housenumber": "1",
    "addr:postcode": "15226",
    "addr:street": "Jalan Pondok Kacang Raya",
    "admin_level": "7",
    "amenity": "townhall",
    "building": "civic",
    "name": "Kantor Kelurahan Pondok Kacang Timur",
    "townhall:type": "village",
    "id": "way/362087526"
  },
  "geometry": {
    "type": "Point",
    "coordinates": [
      106.6894315,
      -6.2558893
    ]
  }
},
{
  "type": "Feature",
  "id": "way/362090048",
  "properties": {
    "addr:city": "Tangerang Selatan",
    "addr:street": "Jalan Graha Bintaro Utama",
    "admin_level": "6",
    "amenity": "townhall",
    "building": "public",
    "building:levels": "2",
    "name": "Kantor Kecamatan Pondok Aren",
    "townhall:type": "town",
    "id": "way/362090048"
  },
  "geometry": {
    "type": "Point",
    "coordinates": [
      106.6921854,
      -6.2750422
    ]
  }
},
{
  "type": "Feature",
  "id": "way/362092698",
  "properties": {
    "addr:city": "Tangerang Selatan",
    "addr:street": "Jalan Jombang Raya",
    "amenity": "townhall",
    "building": "civic",
    "name": "Kantor Kelurahan Pondok Pucung",
    "townhall:type": "village",
    "id": "way/362092698"
  },
  "geometry": {
    "type": "Point",
    "coordinates": [
      106.708433,
      -6.2730045
    ]
  }
},
{
  "type": "Feature",
  "id": "way/362355921",
  "properties": {
    "amenity": "townhall",
    "building": "yes",
    "id": "way/362355921"
  },
  "geometry": {
    "type": "Point",
    "coordinates": [
      106.7317102,
      -6.1357758
    ]
  }
},
{
  "type": "Feature",
  "id": "way/376783081",
  "properties": {
    "addr:full": "Jalan Marunda Pulo RT 01",
    "admin_level": "8",
    "amenity": "townhall",
    "building": "yes",
    "building:condition": "good",
    "building:levels": "1",
    "building:roof": "asbestos",
    "building:walls": "brick",
    "name": "Kantor Sekretaris Simpan Pinjam Danamon",
    "water_source:id": "PDAM",
    "id": "way/376783081"
  },
  "geometry": {
    "type": "Point",
    "coordinates": [
      106.9585266,
      -6.0968934
    ]
  }
},
{
  "type": "Feature",
  "id": "way/377941793",
  "properties": {
    "addr:full": "Jalan Marunda Empang",
    "admin_level": "8",
    "amenity": "townhall",
    "building": "yes",
    "building:condition": "good",
    "building:levels": "1",
    "building:roof": "asbestos",
    "building:walls": "brick",
    "flood_prone": "yes",
    "name": "Kantor RW",
    "water_source:id": "PDAM",
    "id": "way/377941793"
  },
  "geometry": {
    "type": "Point",
    "coordinates": [
      106.9637032,
      -6.099826
    ]
  }
},
{
  "type": "Feature",
  "id": "way/451349915",
  "properties": {
    "access:roof": "no",
    "addr:full": "Jalan Matraman Raya",
    "amenity": "townhall",
    "building": "townhall",
    "building:levels": "1",
    "building:roof": "tile",
    "building:structure": "confined_masonry",
    "building:walls": "brick",
    "capacity": "1000",
    "name": "Graha Zeni AD Matraman",
    "id": "way/451349915"
  },
  "geometry": {
    "type": "Point",
    "coordinates": [
      106.857939,
      -6.2086321
    ]
  }
},
{
  "type": "Feature",
  "id": "way/483347300",
  "properties": {
    "access:roof": "no",
    "addr:full": "Jalan Mengteng Wadas Timur",
    "amenity": "townhall",
    "backup_generator": "no",
    "building": "yes",
    "building:condition": "good",
    "building:floor": "ceramics",
    "building:levels": "1",
    "building:roof": "tile",
    "building:structure": "confined_masonry",
    "building:walls": "brick",
    "capacity:persons": "100-250",
    "name": "Gedung SAS",
    "source": "Hot_inAWARESurvey_2017",
    "id": "way/483347300"
  },
  "geometry": {
    "type": "Point",
    "coordinates": [
      106.8419789,
      -6.2110957
    ]
  }
},
{
  "type": "Feature",
  "id": "way/484861499",
  "properties": {
    "access:roof": "yes",
    "addr:full": "Jalan Minangkabau Timur Raya",
    "amenity": "townhall",
    "building": "government_office",
    "building:condition": "good",
    "building:floor": "ceramics",
    "building:levels": "2",
    "building:roof": "tile",
    "building:structure": "confined_masonry",
    "building:walls": "brick",
    "capacity:persons": "100-250",
    "name": "Kantor Pusat Parishadha Buddha Dharma Niciren Syosyu Indonesia",
    "office": "government",
    "source": "Hot_inAWARESurvey_2017",
    "id": "way/484861499"
  },
  "geometry": {
    "type": "Point",
    "coordinates": [
      106.8447985,
      -6.2120374
    ]
  }
},
{
  "type": "Feature",
  "id": "node/1308663671",
  "properties": {
    "amenity": "townhall",
    "is_in:country": "Indonesia",
    "is_in:county": "Kembangan",
    "is_in:region": "Jakarta Barat",
    "is_in:state": "Dki Jakarta",
    "name": "Kantor Walikota Jakarta Barat",
    "id": "node/1308663671"
  },
  "geometry": {
    "type": "Point",
    "coordinates": [
      106.737661,
      -6.1860896
    ]
  }
},
{
  "type": "Feature",
  "id": "node/2090882757",
  "properties": {
    "addr:city": "Gambir, Central Jakarta",
    "addr:housenumber": "No. 8-9",
    "addr:postcode": "10110",
    "addr:street": "Jl. Medan Merdeka Selatan",
    "admin_level": "5",
    "amenity": "townhall",
    "building": "yes",
    "name": "Balaikota DKI Jakarta",
    "office": "government",
    "id": "node/2090882757"
  },
  "geometry": {
    "type": "Point",
    "coordinates": [
      106.8289784,
      -6.1814454
    ]
  }
},
{
  "type": "Feature",
  "id": "node/2479742645",
  "properties": {
    "addr:full": "MUARA ANGKE BLOK AMBALAT",
    "admin_level": "8",
    "amenity": "townhall",
    "building": "yes",
    "building:condition": "good",
    "building:levels": "1",
    "building:use": "potensi dapur umum",
    "name": "KANTOR RW 021",
    "id": "node/2479742645"
  },
  "geometry": {
    "type": "Point",
    "coordinates": [
      106.772197,
      -6.1107002
    ]
  }
},
{
  "type": "Feature",
  "id": "node/2479749120",
  "properties": {
    "addr:full": "pantai mutiara",
    "admin_level": "8",
    "amenity": "townhall",
    "building": "yes",
    "building:condition": "baik",
    "building:levels": "1",
    "building:use": "Pengungsian/tempat evakuasi",
    "name": "kantor sekretariat RW.016",
    "id": "node/2479749120"
  },
  "geometry": {
    "type": "Point",
    "coordinates": [
      106.7956952,
      -6.1045182
    ]
  }
},
{
  "type": "Feature",
  "id": "node/2479751947",
  "properties": {
    "addr:full": "Jl.Pengasinan",
    "admin_level": "8",
    "amenity": "townhall",
    "building": "yes",
    "building:condition": "good",
    "building:levels": "1",
    "building:use": "Posko Logistik",
    "name": "Kantor RW.01",
    "id": "node/2479751947"
  },
  "geometry": {
    "type": "Point",
    "coordinates": [
      106.7702282,
      -6.1091287
    ]
  }
},
{
  "type": "Feature",
  "id": "node/2479751948",
  "properties": {
    "addr:full": "Jl.Rumah Susun Cinta kasih II Muara Angke",
    "admin_level": "8",
    "amenity": "townhall",
    "building": "yes",
    "building:condition": "good",
    "building:levels": "1",
    "building:use": "Posko Logistik",
    "name": "Kantor RW.020",
    "id": "node/2479751948"
  },
  "geometry": {
    "type": "Point",
    "coordinates": [
      106.7714765,
      -6.1083891
    ]
  }
},
{
  "type": "Feature",
  "id": "node/2479751964",
  "properties": {
    "addr:full": "Taman Bawal Putih",
    "admin_level": "8",
    "amenity": "townhall",
    "building": "yes",
    "building:condition": "good",
    "building:levels": "1",
    "building:use": "tempat evakuasi, posko logistik dan dapur umum",
    "name": "kantor RW.011",
    "id": "node/2479751964"
  },
  "geometry": {
    "type": "Point",
    "coordinates": [
      106.7740683,
      -6.1101936
    ]
  }
},
{
  "type": "Feature",
  "id": "node/2479752640",
  "properties": {
    "admin_level": "8",
    "amenity": "townhall",
    "building:condition": "good",
    "name": "kantor RW 09",
    "id": "node/2479752640"
  },
  "geometry": {
    "type": "Point",
    "coordinates": [
      106.7949037,
      -6.1240181
    ]
  }
},
{
  "type": "Feature",
  "id": "node/2479752934",
  "properties": {
    "addr:full": "Jl. Dermaga Lama Muara Angke",
    "admin_level": "5",
    "amenity": "townhall",
    "building:condition": "good",
    "building:use": "potensi tempat evakuasi",
    "name": "Kantor Dishub Pel. Muara Angke",
    "id": "node/2479752934"
  },
  "geometry": {
    "type": "Point",
    "coordinates": [
      106.7762188,
      -6.1046135
    ]
  }
},
{
  "type": "Feature",
  "id": "node/2479752938",
  "properties": {
    "access:roof": "yes",
    "addr:full": "Muara Angke",
    "admin_level": "7",
    "amenity": "townhall",
    "building": "yes",
    "building:condition": "good",
    "building:levels": "4-7",
    "building:use": "potensi tempat evakuasi",
    "name": "UPT PKPP & PPI",
    "id": "node/2479752938"
  },
  "geometry": {
    "type": "Point",
    "coordinates": [
      106.7748801,
      -6.1061176
    ]
  }
},
{
  "type": "Feature",
  "id": "node/2479753532",
  "properties": {
    "addr:full": "Jln pluit",
    "admin_level": "8",
    "amenity": "townhall",
    "building": "yes",
    "building:condition": "good",
    "building:levels": "1",
    "building:use": "Tempat Evakuasi",
    "name": "Kantor Rw 04",
    "id": "node/2479753532"
  },
  "geometry": {
    "type": "Point",
    "coordinates": [
      106.7917122,
      -6.1130413
    ]
  }
},
{
  "type": "Feature",
  "id": "node/2479756269",
  "properties": {
    "addr:full": "Jl Pluit Karang Permai NO1",
    "admin_level": "7",
    "amenity": "townhall",
    "building": "yes",
    "building:condition": "good",
    "building:levels": "3",
    "building:use": "tempat evakuasi, posko logistik dan dapur umum",
    "name": "Kelurahan Pluit",
    "id": "node/2479756269"
  },
  "geometry": {
    "type": "Point",
    "coordinates": [
      106.7756578,
      -6.1219775
    ]
  }
},
{
  "type": "Feature",
  "id": "node/2479756273",
  "properties": {
    "admin_level": "8",
    "amenity": "townhall",
    "building:condition": "good",
    "building:levels": "1",
    "name": "Pos Rw",
    "id": "node/2479756273"
  },
  "geometry": {
    "type": "Point",
    "coordinates": [
      106.7793674,
      -6.1109604
    ]
  }
},
{
  "type": "Feature",
  "id": "node/2479762062",
  "properties": {
    "addr:full": "tmn pluit kencana utara",
    "admin_level": "8",
    "amenity": "townhall",
    "building:condition": "good",
    "building:levels": "1",
    "name": "kantor rw o6 pluit",
    "id": "node/2479762062"
  },
  "geometry": {
    "type": "Point",
    "coordinates": [
      106.788714,
      -6.1204209
    ]
  }
},
{
  "type": "Feature",
  "id": "node/2479762063",
  "properties": {
    "addr:full": "jalan pluit sakiti 5 no.17a",
    "admin_level": "8",
    "amenity": "townhall",
    "building:condition": "good",
    "building:levels": "1",
    "name": "kantor rw. 07 pluit",
    "id": "node/2479762063"
  },
  "geometry": {
    "type": "Point",
    "coordinates": [
      106.7860296,
      -6.1201691
    ]
  }
},
{
  "type": "Feature",
  "id": "node/2479762409",
  "properties": {
    "addr:full": "jl.pluit karang molek",
    "admin_level": "RW O2",
    "amenity": "townhall",
    "building": "yes",
    "building:condition": "good",
    "building:levels": "1",
    "name": "KANTOR RW",
    "id": "node/2479762409"
  },
  "geometry": {
    "type": "Point",
    "coordinates": [
      106.7733283,
      -6.1123172
    ]
  }
},
{
  "type": "Feature",
  "id": "node/2479762410",
  "properties": {
    "addr:full": "JL.PLUIT karang asri blok 10",
    "admin_level": "RW O13",
    "amenity": "townhall",
    "building": "yes",
    "building:condition": "good",
    "building:levels": "1",
    "building:use": "Posko Logistik",
    "name": "KANTOR RW 013",
    "id": "node/2479762410"
  },
  "geometry": {
    "type": "Point",
    "coordinates": [
      106.7734537,
      -6.1137369
    ]
  }
},
{
  "type": "Feature",
  "id": "node/2479762411",
  "properties": {
    "access:roof": "no",
    "addr:full": "jl.muara karang",
    "admin_level": "RW O18",
    "amenity": "townhall",
    "building": "yes",
    "building:condition": "baik",
    "building:levels": "1",
    "building:use": "Tempat Evakuasi/Dapur umum/Posko kesehatan dll.",
    "name": "KANTOR RW",
    "id": "node/2479762411"
  },
  "geometry": {
    "type": "Point",
    "coordinates": [
      106.7764501,
      -6.1148314
    ]
  }
},
{
  "type": "Feature",
  "id": "node/2479781171",
  "properties": {
    "addr:full": "Pluit Permai",
    "admin_level": "7",
    "amenity": "townhall",
    "building": "yes",
    "building:condition": "good",
    "building:levels": "2",
    "building:use": "Tempat Evakuasi",
    "name": "Balai Pengujian Pengolahan Hasil Perikanan",
    "id": "node/2479781171"
  },
  "geometry": {
    "type": "Point",
    "coordinates": [
      106.7856117,
      -6.1155656
    ]
  }
},
{
  "type": "Feature",
  "id": "node/2490615825",
  "properties": {
    "amenity": "townhall",
    "building:condition": "good",
    "building:levels": "2",
    "name": "Kantor Kementrian dan Perikanan",
    "id": "node/2490615825"
  },
  "geometry": {
    "type": "Point",
    "coordinates": [
      106.8019699,
      -6.1104461
    ]
  }
},
{
  "type": "Feature",
  "id": "node/2490616679",
  "properties": {
    "admin_level": "8",
    "amenity": "townhall",
    "building": "yes",
    "building:condition": "good",
    "building:levels": "2",
    "building:use": "Tempat Evakuasi",
    "name": "Kantor RW.017",
    "id": "node/2490616679"
  },
  "geometry": {
    "type": "Point",
    "coordinates": [
      106.8039228,
      -6.1221996
    ]
  }
},
{
  "type": "Feature",
  "id": "node/2490616702",
  "properties": {
    "admin_level": "8",
    "amenity": "townhall",
    "building": "yes",
    "building:condition": "good",
    "building:levels": "2",
    "building:use": "Dapur Umum, Posko Kesehatan, Posko Logistik",
    "name": "Kantor RW 08",
    "id": "node/2490616702"
  },
  "geometry": {
    "type": "Point",
    "coordinates": [
      106.7964163,
      -6.1286241
    ]
  }
},
{
  "type": "Feature",
  "id": "node/2490616733",
  "properties": {
    "amenity": "townhall",
    "building:levels": "2",
    "name": "Kantor Kementrian Kelautan dan Perikanan",
    "id": "node/2490616733"
  },
  "geometry": {
    "type": "Point",
    "coordinates": [
      106.8030026,
      -6.110963
    ]
  }
},
{
  "type": "Feature",
  "id": "node/2490617750",
  "properties": {
    "addr:full": "Jalan Bakti",
    "admin_level": "8",
    "amenity": "townhall",
    "building": "yes",
    "building:condition": "good",
    "building:levels": "2",
    "building:use": "Tempat Evakuasi",
    "name": "Kantor RW 07",
    "id": "node/2490617750"
  },
  "geometry": {
    "type": "Point",
    "coordinates": [
      106.8038204,
      -6.1287781
    ]
  }
},
{
  "type": "Feature",
  "id": "node/2490617751",
  "properties": {
    "addr:full": "Jalan Tanah Pasir",
    "admin_level": "8",
    "amenity": "townhall",
    "building": "yes",
    "building:condition": "poor",
    "building:levels": "2",
    "building:use": "Tempat Evakuasi",
    "name": "Kantor Rw 09",
    "id": "node/2490617751"
  },
  "geometry": {
    "type": "Point",
    "coordinates": [
      106.8027041,
      -6.1296717
    ]
  }
},
{
  "type": "Feature",
  "id": "node/2490620013",
  "properties": {
    "addr:full": "Jalan Rawa Bebek 1",
    "admin_level": "8",
    "amenity": "townhall",
    "building": "yes",
    "building:condition": "good",
    "building:levels": "2",
    "building:use": "Tempat Evakuasi, Dapur Umum",
    "name": "Kantor Rw. 11",
    "id": "node/2490620013"
  },
  "geometry": {
    "type": "Point",
    "coordinates": [
      106.7997146,
      -6.1316245
    ]
  }
},
{
  "type": "Feature",
  "id": "node/2500253635",
  "properties": {
    "amenity": "townhall",
    "building": "residential",
    "building:condition": "good",
    "building:levels": "1",
    "building:use": "tempat evakuasi, posko logistik dan dapur umum",
    "name": "Aula Perumahan Budha Tzu Chi",
    "id": "node/2500253635"
  },
  "geometry": {
    "type": "Point",
    "coordinates": [
      106.7717811,
      -6.1079788
    ]
  }
},
{
  "type": "Feature",
  "id": "node/2511084653",
  "properties": {
    "admin_level": "8",
    "amenity": "townhall",
    "building:levels": "1",
    "name": "Kantor RW 06",
    "id": "node/2511084653"
  },
  "geometry": {
    "type": "Point",
    "coordinates": [
      106.7961052,
      -6.1311983
    ]
  }
},
{
  "type": "Feature",
  "id": "node/2511084655",
  "properties": {
    "admin_level": "8",
    "amenity": "townhall",
    "building:condition": "good",
    "building:levels": "1",
    "name": "Kantor RW 10",
    "id": "node/2511084655"
  },
  "geometry": {
    "type": "Point",
    "coordinates": [
      106.8018816,
      -6.131331
    ]
  }
},
{
  "type": "Feature",
  "id": "node/2511088310",
  "properties": {
    "admin_level": "8",
    "amenity": "townhall",
    "building:condition": "good",
    "building:levels": "2",
    "name": "Kantor RW 12",
    "id": "node/2511088310"
  },
  "geometry": {
    "type": "Point",
    "coordinates": [
      106.7978003,
      -6.1317947
    ]
  }
},
{
  "type": "Feature",
  "id": "node/2540909792",
  "properties": {
    "addr:full": "rusub buda sutji",
    "admin_level": "8",
    "amenity": "townhall",
    "building": "yes",
    "building:condition": "good",
    "building:levels": "1",
    "building:use": "Posko Kesehatan",
    "name": "kantor rw 020",
    "id": "node/2540909792"
  },
  "geometry": {
    "type": "Point",
    "coordinates": [
      106.7714306,
      -6.1077196
    ]
  }
},
{
  "type": "Feature",
  "id": "node/3813490553",
  "properties": {
    "admin_level": "8",
    "amenity": "townhall",
    "id": "node/3813490553"
  },
  "geometry": {
    "type": "Point",
    "coordinates": [
      106.9636886,
      -6.0998406
    ]
  }
},
{
  "type": "Feature",
  "id": "node/3816551185",
  "properties": {
    "amenity": "townhall",
    "id": "node/3816551185"
  },
  "geometry": {
    "type": "Point",
    "coordinates": [
      106.9585267,
      -6.0968928
    ]
  }
}
]
}
