{
"type": "FeatureCollection",
"features": [
{
  "type": "Feature",
  "id": "relation/7119957",
  "properties": {
    "amenity": "marketplace",
    "name": "Pasar LBUK",
    "operator": "LBUK",
    "type": "multipolygon",
    "id": "relation/7119957"
  },
  "geometry": {
    "type": "Point",
    "coordinates": [
      106.8390397,
      -6.2211444
    ]
  }
},
{
  "type": "Feature",
  "id": "relation/7132823",
  "properties": {
    "addr:full": "Jalan Percetakan Negara",
    "amenity": "marketplace",
    "name": "Pasar Genjing",
    "source": "HOT_InAWARESurvey_2017",
    "type": "multipolygon",
    "id": "relation/7132823"
  },
  "geometry": {
    "type": "Point",
    "coordinates": [
      106.8601249,
      -6.1943962
    ]
  }
},
{
  "type": "Feature",
  "id": "relation/7138615",
  "properties": {
    "addr:full": "Jalan Galur Raya",
    "amenity": "marketplace",
    "name": "Pasar Gembrong Galur",
    "type": "multipolygon",
    "id": "relation/7138615"
  },
  "geometry": {
    "type": "Point",
    "coordinates": [
      106.8548855,
      -6.1777863
    ]
  }
},
{
  "type": "Feature",
  "id": "relation/7150394",
  "properties": {
    "addr:full": "Jalan Kramat Pulo Gundul",
    "amenity": "marketplace",
    "name": "Induk Usaha Kecil Pulo Gundul",
    "source": "HOT_InAWARESurvey_2017",
    "type": "multipolygon",
    "id": "relation/7150394"
  },
  "geometry": {
    "type": "Point",
    "coordinates": [
      106.8514237,
      -6.1806902
    ]
  }
},
{
  "type": "Feature",
  "id": "relation/7165705",
  "properties": {
    "amenity": "marketplace",
    "name": "Pasar Pramuka",
    "source": "HOT_InAWARESurvey_2017",
    "type": "multipolygon",
    "id": "relation/7165705"
  },
  "geometry": {
    "type": "Point",
    "coordinates": [
      106.8576971,
      -6.1976232
    ]
  }
},
{
  "type": "Feature",
  "id": "relation/7172088",
  "properties": {
    "addr:full": "Jalan Rawasari Selatan",
    "amenity": "marketplace",
    "name": "Pasar Rawasari",
    "type": "multipolygon",
    "id": "relation/7172088"
  },
  "geometry": {
    "type": "Point",
    "coordinates": [
      106.8722949,
      -6.1854622
    ]
  }
},
{
  "type": "Feature",
  "id": "relation/7173104",
  "properties": {
    "access:roof": "no",
    "addr:full": "Jalan Raya Bekasi Timur",
    "amenity": "marketplace",
    "backup_generator": "no",
    "building": "marketplace",
    "building:condition": "good",
    "building:floor": "ceramics",
    "building:levels": "2",
    "building:structure": "confined_masonry",
    "building:walls": "brick",
    "capacity:persons": "250-500",
    "name": "Pasar SS Klender",
    "type": "multipolygon",
    "id": "relation/7173104"
  },
  "geometry": {
    "type": "Point",
    "coordinates": [
      106.9018432,
      -6.2127164
    ]
  }
},
{
  "type": "Feature",
  "id": "way/97192738",
  "properties": {
    "amenity": "marketplace",
    "area": "yes",
    "name": "Traditional Market",
    "name:id": "Basar Kaget",
    "id": "way/97192738"
  },
  "geometry": {
    "type": "Point",
    "coordinates": [
      106.9517835,
      -6.1518262
    ]
  }
},
{
  "type": "Feature",
  "id": "way/119919348",
  "properties": {
    "amenity": "marketplace",
    "building": "yes",
    "building:roof": "concrete",
    "building:structure": "reinforced_masonry",
    "building:use": "commercial",
    "building:walls": "brick",
    "name": "Pasar dan Ramayana Palmerah",
    "id": "way/119919348"
  },
  "geometry": {
    "type": "Point",
    "coordinates": [
      106.7958937,
      -6.2082553
    ]
  }
},
{
  "type": "Feature",
  "id": "way/120555916",
  "properties": {
    "amenity": "marketplace",
    "building": "yes",
    "building:levels": "4",
    "building:roof": "concrete",
    "building:structure": "confined_masonry",
    "building:use": "commercial",
    "building:walls": "brick",
    "name": "Pasar Senen Jaya",
    "id": "way/120555916"
  },
  "geometry": {
    "type": "Point",
    "coordinates": [
      106.8423762,
      -6.176988
    ]
  }
},
{
  "type": "Feature",
  "id": "way/120909872",
  "properties": {
    "amenity": "marketplace",
    "building": "yes",
    "building:roof": "concrete",
    "building:structure": "unreinforced_masonry",
    "building:use": "shop",
    "building:walls": "brick",
    "name": "TOTAL buah",
    "id": "way/120909872"
  },
  "geometry": {
    "type": "Point",
    "coordinates": [
      106.7967982,
      -6.1943881
    ]
  }
},
{
  "type": "Feature",
  "id": "way/120910680",
  "properties": {
    "amenity": "marketplace",
    "building": "yes",
    "building:levels": "4",
    "building:roof": "tile",
    "building:structure": "reinforced_masonry",
    "building:use": "commercial",
    "building:walls": "brick",
    "name": "Pasar Slipi",
    "id": "way/120910680"
  },
  "geometry": {
    "type": "Point",
    "coordinates": [
      106.7958929,
      -6.1902824
    ]
  }
},
{
  "type": "Feature",
  "id": "way/121986315",
  "properties": {
    "amenity": "marketplace",
    "building": "yes",
    "building:levels": "4",
    "building:roof": "concrete",
    "building:structure": "confined_masonry",
    "building:use": "commercial",
    "building:walls": "brick",
    "name": "Pasar Mangga Dua",
    "id": "way/121986315"
  },
  "geometry": {
    "type": "Point",
    "coordinates": [
      106.8224443,
      -6.1359417
    ]
  }
},
{
  "type": "Feature",
  "id": "way/123433379",
  "properties": {
    "amenity": "marketplace",
    "name": "Pasar Motor",
    "id": "way/123433379"
  },
  "geometry": {
    "type": "Point",
    "coordinates": [
      106.9131516,
      -6.2206094
    ]
  }
},
{
  "type": "Feature",
  "id": "way/129912079",
  "properties": {
    "amenity": "marketplace",
    "id": "way/129912079"
  },
  "geometry": {
    "type": "Point",
    "coordinates": [
      106.7145988,
      -6.3159595
    ]
  }
},
{
  "type": "Feature",
  "id": "way/144562026",
  "properties": {
    "access:roof": "yes",
    "amenity": "marketplace",
    "backup_generator": "yes",
    "building": "marketplace",
    "building:condition": "good",
    "building:floor": "ceramics",
    "building:levels": "3",
    "building:roof": "concrete",
    "building:structure": "confined_masonry",
    "building:walls": "concrete",
    "capacity:persons": ">500",
    "name": "Pasar Kramatjati",
    "name:id": "Pasar Induk Kramat Jati",
    "source": "survey",
    "id": "way/144562026"
  },
  "geometry": {
    "type": "Point",
    "coordinates": [
      106.8689821,
      -6.2951766
    ]
  }
},
{
  "type": "Feature",
  "id": "way/153303436",
  "properties": {
    "amenity": "marketplace",
    "name": "pasar walang jaya",
    "opening_hours": "Mo-Fr 08:30-20:00",
    "id": "way/153303436"
  },
  "geometry": {
    "type": "Point",
    "coordinates": [
      106.8988551,
      -6.126444
    ]
  }
},
{
  "type": "Feature",
  "id": "way/153318861",
  "properties": {
    "amenity": "marketplace",
    "name": "Pasar Jembatan Besi",
    "id": "way/153318861"
  },
  "geometry": {
    "type": "Point",
    "coordinates": [
      106.7972354,
      -6.1504484
    ]
  }
},
{
  "type": "Feature",
  "id": "way/153941187",
  "properties": {
    "amenity": "marketplace",
    "name": "Jalanbaru Market",
    "id": "way/153941187"
  },
  "geometry": {
    "type": "Point",
    "coordinates": [
      106.9278415,
      -6.1025195
    ]
  }
},
{
  "type": "Feature",
  "id": "way/154078986",
  "properties": {
    "amenity": "marketplace",
    "name": "Kombongan Market",
    "id": "way/154078986"
  },
  "geometry": {
    "type": "Point",
    "coordinates": [
      106.8409474,
      -6.161277
    ]
  }
},
{
  "type": "Feature",
  "id": "way/154828482",
  "properties": {
    "amenity": "marketplace",
    "name": "Pasar Anyar Bahari",
    "id": "way/154828482"
  },
  "geometry": {
    "type": "Point",
    "coordinates": [
      106.8791195,
      -6.1147705
    ]
  }
},
{
  "type": "Feature",
  "id": "way/154831700",
  "properties": {
    "amenity": "marketplace",
    "building": "yes",
    "evacuation_center": "no",
    "flood_prone": "yes",
    "name": "PD PASAR JAYA Pademangan",
    "opening_hours": "04.00-22.00",
    "operator": "PEMERINTAH",
    "id": "way/154831700"
  },
  "geometry": {
    "type": "Point",
    "coordinates": [
      106.8433366,
      -6.1353004
    ]
  }
},
{
  "type": "Feature",
  "id": "way/154838035",
  "properties": {
    "amenity": "marketplace",
    "name": "Ruko",
    "opening_hours": "Tu-Su 08:00-15:00; Sa 08:00-12:00",
    "id": "way/154838035"
  },
  "geometry": {
    "type": "Point",
    "coordinates": [
      106.9079723,
      -6.112534
    ]
  }
},
{
  "type": "Feature",
  "id": "way/154839202",
  "properties": {
    "amenity": "marketplace",
    "name": "Pasar Lontar",
    "opening_hours": "24/7",
    "operator": "Government",
    "id": "way/154839202"
  },
  "geometry": {
    "type": "Point",
    "coordinates": [
      106.9105043,
      -6.1191772
    ]
  }
},
{
  "type": "Feature",
  "id": "way/154839203",
  "properties": {
    "amenity": "marketplace",
    "name": "Pasar Semper",
    "opening_hours": "24/7",
    "operator": "PEMERINTAH",
    "id": "way/154839203"
  },
  "geometry": {
    "type": "Point",
    "coordinates": [
      106.9173181,
      -6.1271307
    ]
  }
},
{
  "type": "Feature",
  "id": "way/154856505",
  "properties": {
    "amenity": "marketplace",
    "flood_prone": "yes",
    "name": "Pasar Embrio",
    "opening_hours": "24/7",
    "operator": "Pemerintah",
    "id": "way/154856505"
  },
  "geometry": {
    "type": "Point",
    "coordinates": [
      106.9283816,
      -6.135125
    ]
  }
},
{
  "type": "Feature",
  "id": "way/155097156",
  "properties": {
    "amenity": "marketplace",
    "name": "PASAR KEMAYORAN",
    "id": "way/155097156"
  },
  "geometry": {
    "type": "Point",
    "coordinates": [
      106.8552842,
      -6.1611043
    ]
  }
},
{
  "type": "Feature",
  "id": "way/155097769",
  "properties": {
    "amenity": "marketplace",
    "name": "PASAR NANGKA",
    "id": "way/155097769"
  },
  "geometry": {
    "type": "Point",
    "coordinates": [
      106.8497532,
      -6.1674108
    ]
  }
},
{
  "type": "Feature",
  "id": "way/155110157",
  "properties": {
    "amenity": "marketplace",
    "building": "yes",
    "name": "Gardu Asem",
    "id": "way/155110157"
  },
  "geometry": {
    "type": "Point",
    "coordinates": [
      106.8472329,
      -6.16496
    ]
  }
},
{
  "type": "Feature",
  "id": "way/155110267",
  "properties": {
    "amenity": "marketplace",
    "building": "yes",
    "name": "Blok G Tanah Abang",
    "id": "way/155110267"
  },
  "geometry": {
    "type": "Point",
    "coordinates": [
      106.8119223,
      -6.1889823
    ]
  }
},
{
  "type": "Feature",
  "id": "way/155110695",
  "properties": {
    "amenity": "marketplace",
    "building": "yes",
    "name": "PD Pasar Jaya",
    "id": "way/155110695"
  },
  "geometry": {
    "type": "Point",
    "coordinates": [
      106.8333253,
      -6.1616472
    ]
  }
},
{
  "type": "Feature",
  "id": "way/155110899",
  "properties": {
    "amenity": "marketplace",
    "name": "Pasar Sumur Baru",
    "opening_hours": "24/7",
    "id": "way/155110899"
  },
  "geometry": {
    "type": "Point",
    "coordinates": [
      106.8644006,
      -6.1644711
    ]
  }
},
{
  "type": "Feature",
  "id": "way/155115828",
  "properties": {
    "amenity": "marketplace",
    "name": "Pasar Benhil",
    "opening_hours": "Mo-Fr 08:30-20:00",
    "id": "way/155115828"
  },
  "geometry": {
    "type": "Point",
    "coordinates": [
      106.8152214,
      -6.2156994
    ]
  }
},
{
  "type": "Feature",
  "id": "way/155812919",
  "properties": {
    "amenity": "marketplace",
    "name": "Pasar Pondok Labu",
    "id": "way/155812919"
  },
  "geometry": {
    "type": "Point",
    "coordinates": [
      106.7936964,
      -6.3124402
    ]
  }
},
{
  "type": "Feature",
  "id": "way/155933439",
  "properties": {
    "access:roof": "yes",
    "addr:full": "Jalan Bekasi Barat I",
    "amenity": "marketplace",
    "backup_generator": "yes",
    "building": "marketplace",
    "building:condition": "good",
    "building:floor": "ceramics",
    "building:levels": "3",
    "building:roof": "concrete",
    "building:structure": "confined_masonry",
    "building:walls": "concrete",
    "capacity:persons": ">500",
    "name": "Pasar Gems Center",
    "source": "HOT_InAWARESurvey_2017",
    "id": "way/155933439"
  },
  "geometry": {
    "type": "Point",
    "coordinates": [
      106.8697443,
      -6.2161019
    ]
  }
},
{
  "type": "Feature",
  "id": "way/155935904",
  "properties": {
    "access:roof": "no",
    "addr:full": "Jalan Pasar Jambul Cawang - Jakarta Timur",
    "amenity": "marketplace",
    "backup_generator": "no",
    "building": "marketplace",
    "building:condition": "good",
    "building:levels": "1",
    "building:roof": "asbentos",
    "building:structure": "confined_masonry",
    "building:walls": "brick",
    "buildings:floor": "ceramics",
    "capacity": "50-100",
    "evacuation_center": "no",
    "flood_prone": "no",
    "name": "Pasar Jaya Pasar Jambul Baru",
    "source": "HOT_InAWARESurvey_2017",
    "id": "way/155935904"
  },
  "geometry": {
    "type": "Point",
    "coordinates": [
      106.8654197,
      -6.2567161
    ]
  }
},
{
  "type": "Feature",
  "id": "way/155941466",
  "properties": {
    "amenity": "marketplace",
    "name": "ceriamart",
    "id": "way/155941466"
  },
  "geometry": {
    "type": "Point",
    "coordinates": [
      106.8615252,
      -6.205124
    ]
  }
},
{
  "type": "Feature",
  "id": "way/155941468",
  "properties": {
    "amenity": "marketplace",
    "name": "ceriamart",
    "id": "way/155941468"
  },
  "geometry": {
    "type": "Point",
    "coordinates": [
      106.8626742,
      -6.2091115
    ]
  }
},
{
  "type": "Feature",
  "id": "way/155945147",
  "properties": {
    "access:roof": "no",
    "addr:full": "Jalan Penggalang",
    "amenity": "marketplace",
    "backup_generator": "no",
    "building": "marketplace",
    "building:condition": "good",
    "building:floor": "tekhel",
    "building:levels": "1",
    "building:roof": "asbentos",
    "building:structure": "steel_frame",
    "building:walls": "brick",
    "capacity:persons": ">500",
    "name": "Pasar Matraman Kebon Kosong",
    "source": "HOT_InAWARESurvey_2017",
    "id": "way/155945147"
  },
  "geometry": {
    "type": "Point",
    "coordinates": [
      106.8571274,
      -6.1982565
    ]
  }
},
{
  "type": "Feature",
  "id": "way/155953473",
  "properties": {
    "amenity": "marketplace",
    "name": "Pasar Beras Induk Cipinang",
    "id": "way/155953473"
  },
  "geometry": {
    "type": "Point",
    "coordinates": [
      106.8816476,
      -6.2126369
    ]
  }
},
{
  "type": "Feature",
  "id": "way/155953475",
  "properties": {
    "amenity": "marketplace",
    "name": "Pasar Enjo",
    "id": "way/155953475"
  },
  "geometry": {
    "type": "Point",
    "coordinates": [
      106.8755828,
      -6.211818
    ]
  }
},
{
  "type": "Feature",
  "id": "way/155957120",
  "properties": {
    "amenity": "marketplace",
    "name": "Pulo Gadung",
    "id": "way/155957120"
  },
  "geometry": {
    "type": "Point",
    "coordinates": [
      106.9054377,
      -6.1864731
    ]
  }
},
{
  "type": "Feature",
  "id": "way/155957755",
  "properties": {
    "amenity": "marketplace",
    "name": "Pasar Ampera",
    "id": "way/155957755"
  },
  "geometry": {
    "type": "Point",
    "coordinates": [
      106.8843685,
      -6.1861826
    ]
  }
},
{
  "type": "Feature",
  "id": "way/155961371",
  "properties": {
    "amenity": "marketplace",
    "name": "PASAR CAKUNG",
    "id": "way/155961371"
  },
  "geometry": {
    "type": "Point",
    "coordinates": [
      106.9344693,
      -6.1829891
    ]
  }
},
{
  "type": "Feature",
  "id": "way/156270948",
  "properties": {
    "amenity": "marketplace",
    "evacuation_center": "no",
    "flood_prone": "no",
    "name": "Pasar Muara Karang",
    "shop": "convenience",
    "id": "way/156270948"
  },
  "geometry": {
    "type": "Point",
    "coordinates": [
      106.7787137,
      -6.1158068
    ]
  }
},
{
  "type": "Feature",
  "id": "way/156270949",
  "properties": {
    "amenity": "marketplace",
    "evacuation_center": "yes",
    "flood_prone": "no",
    "kitchen:facilities": "yes",
    "name": "Pasar PD Jaya Pluit",
    "shelter_type": "building",
    "shop": "department_store",
    "toilet:facilities": "yes",
    "toilets:number": "2",
    "water_source": "water_works",
    "id": "way/156270949"
  },
  "geometry": {
    "type": "Point",
    "coordinates": [
      106.7889946,
      -6.1212042
    ]
  }
},
{
  "type": "Feature",
  "id": "way/156270958",
  "properties": {
    "amenity": "marketplace",
    "evacuation_center": "yes",
    "flood_prone": "no",
    "kitchen:facilities": "no",
    "name": "Pluit Junction",
    "shelter_type": "tent",
    "shop": "mall",
    "toilet:facilities": "yes",
    "water_source": "water_works",
    "id": "way/156270958"
  },
  "geometry": {
    "type": "Point",
    "coordinates": [
      106.791042,
      -6.1262158
    ]
  }
},
{
  "type": "Feature",
  "id": "way/156917371",
  "properties": {
    "amenity": "marketplace",
    "building": "yes",
    "evacuation_center": "no",
    "flood_prone": "no",
    "name": "Pasar Bojong Indah",
    "id": "way/156917371"
  },
  "geometry": {
    "type": "Point",
    "coordinates": [
      106.7413107,
      -6.1616037
    ]
  }
},
{
  "type": "Feature",
  "id": "way/156919505",
  "properties": {
    "amenity": "marketplace",
    "name": "PASAR HIPLI SEMANAN",
    "id": "way/156919505"
  },
  "geometry": {
    "type": "Point",
    "coordinates": [
      106.7063036,
      -6.1574339
    ]
  }
},
{
  "type": "Feature",
  "id": "way/156919807",
  "properties": {
    "amenity": "marketplace",
    "id": "way/156919807"
  },
  "geometry": {
    "type": "Point",
    "coordinates": [
      106.8174248,
      -6.1502865
    ]
  }
},
{
  "type": "Feature",
  "id": "way/156920992",
  "properties": {
    "amenity": "marketplace",
    "name": "PD. Pasar Jaya",
    "opening_hours": "06.00-17.00",
    "id": "way/156920992"
  },
  "geometry": {
    "type": "Point",
    "coordinates": [
      106.8142183,
      -6.1427204
    ]
  }
},
{
  "type": "Feature",
  "id": "way/156920993",
  "properties": {
    "amenity": "marketplace",
    "name": "Pertokoan Candra",
    "opening_hours": "06.00-17.00",
    "id": "way/156920993"
  },
  "geometry": {
    "type": "Point",
    "coordinates": [
      106.8123657,
      -6.141745
    ]
  }
},
{
  "type": "Feature",
  "id": "way/156924279",
  "properties": {
    "amenity": "marketplace",
    "name": "PD. Pasar Jaya",
    "opening_hours": "24/7",
    "id": "way/156924279"
  },
  "geometry": {
    "type": "Point",
    "coordinates": [
      106.8045494,
      -6.1617043
    ]
  }
},
{
  "type": "Feature",
  "id": "way/156924647",
  "properties": {
    "amenity": "marketplace",
    "building": "yes",
    "name": "Pasar Tomang Barat (Pasar Kopro)",
    "id": "way/156924647"
  },
  "geometry": {
    "type": "Point",
    "coordinates": [
      106.7843206,
      -6.1778438
    ]
  }
},
{
  "type": "Feature",
  "id": "way/156926197",
  "properties": {
    "amenity": "marketplace",
    "name": "Pasar Jembatan Dua",
    "id": "way/156926197"
  },
  "geometry": {
    "type": "Point",
    "coordinates": [
      106.7924079,
      -6.1432018
    ]
  }
},
{
  "type": "Feature",
  "id": "way/157038257",
  "properties": {
    "amenity": "marketplace",
    "name": "Pasar Guna Karya Bambu Larangan",
    "id": "way/157038257"
  },
  "geometry": {
    "type": "Point",
    "coordinates": [
      106.7134914,
      -6.1376359
    ]
  }
},
{
  "type": "Feature",
  "id": "way/157347071",
  "properties": {
    "amenity": "marketplace",
    "evacuation_center": "no",
    "flood_prone": "no",
    "name": "Pasar Santa",
    "opening_hours": "Su-Sa 07:00-17:00",
    "shop": "department_store",
    "id": "way/157347071"
  },
  "geometry": {
    "type": "Point",
    "coordinates": [
      106.8120936,
      -6.2398988
    ]
  }
},
{
  "type": "Feature",
  "id": "way/157347180",
  "properties": {
    "access:roof": "no",
    "addr:full": "Jalan Karet Sawah",
    "amenity": "marketplace",
    "backup_generator": "no",
    "building": "marketplace",
    "building:condition": "poor",
    "building:floor": "ground",
    "building:levels": "1",
    "building:roof": "asbentos",
    "building:structure": "wood_frame",
    "building:walls": "wood",
    "capacity:persons": "50-100",
    "name": "Pasar Karet Pedurenan",
    "opening_hours": "Su-Mo 07:00-16:00",
    "shop": "convenience",
    "source": "Hot_inAWARESurvey_2017",
    "id": "way/157347180"
  },
  "geometry": {
    "type": "Point",
    "coordinates": [
      106.8199566,
      -6.2210253
    ]
  }
},
{
  "type": "Feature",
  "id": "way/157351125",
  "properties": {
    "amenity": "marketplace",
    "name": "Pasar Taman Alfa",
    "id": "way/157351125"
  },
  "geometry": {
    "type": "Point",
    "coordinates": [
      106.7547771,
      -6.2268698
    ]
  }
},
{
  "type": "Feature",
  "id": "way/157357315",
  "properties": {
    "addr:full": "jalan menteng pulo 1",
    "amenity": "marketplace",
    "building": "marketplace",
    "building:condition": "good",
    "building:floor": "ceramics",
    "building:levels": "2",
    "building:roof": "tile",
    "building:structure": "confined_masonry",
    "building:walls": "brick",
    "capacity:persons": "100-250",
    "name": "Pasar Menteng Pulo",
    "source": "Hot_inAWARESurvey_2017",
    "id": "way/157357315"
  },
  "geometry": {
    "type": "Point",
    "coordinates": [
      106.8452508,
      -6.2212102
    ]
  }
},
{
  "type": "Feature",
  "id": "way/157357317",
  "properties": {
    "addr:full": "Jalan muria dalam",
    "amenity": "marketplace",
    "name": "Pasar Lokbin",
    "source": "Hot_inAWARESurvey_2017",
    "id": "way/157357317"
  },
  "geometry": {
    "type": "Point",
    "coordinates": [
      106.8390397,
      -6.2211444
    ]
  }
},
{
  "type": "Feature",
  "id": "way/157357320",
  "properties": {
    "amenity": "marketplace",
    "name": "Pasar Pocong",
    "operator": "UKM",
    "id": "way/157357320"
  },
  "geometry": {
    "type": "Point",
    "coordinates": [
      106.8384913,
      -6.2204606
    ]
  }
},
{
  "type": "Feature",
  "id": "way/157360113",
  "properties": {
    "addr:city": "Jakarta Selatan",
    "addr:full": "Jalan Sultan Agung",
    "addr:housenumber": "1",
    "addr:postcode": "12850",
    "addr:street": "Jalan Sultan Agung",
    "amenity": "marketplace",
    "building": "marketplace",
    "building:condition": "good",
    "building:floor": "ceramics",
    "building:levels": "5",
    "building:roof": "concrete",
    "building:structure": "confined_masonry",
    "building:walls": "brick",
    "capacity:persons": "250-500",
    "fixme": "Opening hours missing, tenant nodes are urgently needed! (jam buka kosong, node tenant diperlukan!)",
    "name": "Pasar Raya Manggarai",
    "shop": "mall",
    "source": "Hot_inAWARESurvey_2017",
    "id": "way/157360113"
  },
  "geometry": {
    "type": "Point",
    "coordinates": [
      106.8469981,
      -6.2095483
    ]
  }
},
{
  "type": "Feature",
  "id": "way/157360660",
  "properties": {
    "amenity": "marketplace",
    "building": "yes",
    "evacuation_center": "no",
    "flood_prone": "no",
    "name": "PD PASAR JAYA BUKITDURI\\",
    "id": "way/157360660"
  },
  "geometry": {
    "type": "Point",
    "coordinates": [
      106.8539326,
      -6.2181762
    ]
  }
},
{
  "type": "Feature",
  "id": "way/157362094",
  "properties": {
    "access:roof": "no",
    "addr:full": "Jalan Tebet Timur Dalam",
    "amenity": "marketplace",
    "backup_generator": "no",
    "building": "marketplace",
    "building:condition": "good",
    "building:levels": "3",
    "building:roof": "tile",
    "building:structure": "confined_masonry",
    "building:walls": "brick",
    "buildings:floor": "ceramics",
    "capacity": "250-500",
    "name": "Pasar Tebet Timur",
    "source": "HOT_InAWARESurvey_2017",
    "id": "way/157362094"
  },
  "geometry": {
    "type": "Point",
    "coordinates": [
      106.8565966,
      -6.2347544
    ]
  }
},
{
  "type": "Feature",
  "id": "way/157362676",
  "properties": {
    "access:roof": "no",
    "addr:full": "Jalan Tebet Barat IX",
    "amenity": "marketplace",
    "backup_generator": "no",
    "building": "marketplace",
    "building:condition": "poor",
    "building:floor": "ceramics",
    "building:levels": "3",
    "building:roof": "tin",
    "building:structure": "confined_masonry",
    "building:walls": "concrete",
    "capacity:persons": "250-500",
    "name": "Pasar Raya Tebet Barat",
    "shop": "department_store",
    "source": "HOT_InAWARESurvey_2017",
    "id": "way/157362676"
  },
  "geometry": {
    "type": "Point",
    "coordinates": [
      106.8483064,
      -6.2394066
    ]
  }
},
{
  "type": "Feature",
  "id": "way/157365895",
  "properties": {
    "access:roof": "yes",
    "addr:full": "jl raya ragunan",
    "amenity": "marketplace",
    "building": "yes",
    "building:levels": "4",
    "building:roof": "concrete",
    "building:structure": "reinforced_masonry",
    "building:walls": "brick",
    "capacity:persons": ">5000",
    "industrial": "factory",
    "name": "PD Pasar Jaya",
    "id": "way/157365895"
  },
  "geometry": {
    "type": "Point",
    "coordinates": [
      106.8433189,
      -6.2844394
    ]
  }
},
{
  "type": "Feature",
  "id": "way/158663671",
  "properties": {
    "amenity": "marketplace",
    "building": "yes",
    "name": "Pasar Pondok Gede",
    "id": "way/158663671"
  },
  "geometry": {
    "type": "Point",
    "coordinates": [
      106.9132876,
      -6.2837443
    ]
  }
},
{
  "type": "Feature",
  "id": "way/158820399",
  "properties": {
    "amenity": "marketplace",
    "building": "yes",
    "name": "Pasar Bintaro Sektor 2",
    "id": "way/158820399"
  },
  "geometry": {
    "type": "Point",
    "coordinates": [
      106.752183,
      -6.2781057
    ]
  }
},
{
  "type": "Feature",
  "id": "way/160290310",
  "properties": {
    "amenity": "marketplace",
    "building": "yes",
    "name": "Pasar Modern",
    "id": "way/160290310"
  },
  "geometry": {
    "type": "Point",
    "coordinates": [
      106.6847984,
      -6.3044527
    ]
  }
},
{
  "type": "Feature",
  "id": "way/210917133",
  "properties": {
    "amenity": "marketplace",
    "building": "yes",
    "evacuation_center": "no",
    "flood_prone": "yes",
    "name": "Pasar Ikan",
    "id": "way/210917133"
  },
  "geometry": {
    "type": "Point",
    "coordinates": [
      106.8087539,
      -6.1258107
    ]
  }
},
{
  "type": "Feature",
  "id": "way/211357635",
  "properties": {
    "amenity": "marketplace",
    "building": "industrial",
    "id": "way/211357635"
  },
  "geometry": {
    "type": "Point",
    "coordinates": [
      106.8017354,
      -6.1027085
    ]
  }
},
{
  "type": "Feature",
  "id": "way/211399409",
  "properties": {
    "amenity": "marketplace",
    "building": "yes",
    "evacuation_center": "no",
    "flood_prone": "yes",
    "name": "Pasar Ikan Muara Baru",
    "id": "way/211399409"
  },
  "geometry": {
    "type": "Point",
    "coordinates": [
      106.8014224,
      -6.1094191
    ]
  }
},
{
  "type": "Feature",
  "id": "way/228532668",
  "properties": {
    "amenity": "marketplace",
    "name": "Pasar Arinda",
    "id": "way/228532668"
  },
  "geometry": {
    "type": "Point",
    "coordinates": [
      106.709386,
      -6.2605508
    ]
  }
},
{
  "type": "Feature",
  "id": "way/242192476",
  "properties": {
    "amenity": "marketplace",
    "building": "yes",
    "name": "Mini Mall Disbintal AD",
    "id": "way/242192476"
  },
  "geometry": {
    "type": "Point",
    "coordinates": [
      106.8558399,
      -6.2065544
    ]
  }
},
{
  "type": "Feature",
  "id": "way/244053498",
  "properties": {
    "amenity": "marketplace",
    "name": "Alfamart",
    "opening_hours": "Mo-Fr 08:30-22:00",
    "id": "way/244053498"
  },
  "geometry": {
    "type": "Point",
    "coordinates": [
      106.9325122,
      -6.3042749
    ]
  }
},
{
  "type": "Feature",
  "id": "way/244053511",
  "properties": {
    "amenity": "marketplace",
    "opening_hours": "Mo-Sat 05:30-18:00",
    "operator": "Kecapi Market",
    "id": "way/244053511"
  },
  "geometry": {
    "type": "Point",
    "coordinates": [
      106.9336709,
      -6.3051653
    ]
  }
},
{
  "type": "Feature",
  "id": "way/258738739",
  "properties": {
    "amenity": "marketplace",
    "building": "yes",
    "name": "Fresh Market",
    "id": "way/258738739"
  },
  "geometry": {
    "type": "Point",
    "coordinates": [
      106.951963,
      -6.272094
    ]
  }
},
{
  "type": "Feature",
  "id": "way/258857437",
  "properties": {
    "amenity": "marketplace",
    "building": "yes",
    "name": "Pasar Jatiasih",
    "id": "way/258857437"
  },
  "geometry": {
    "type": "Point",
    "coordinates": [
      106.9667557,
      -6.2910028
    ]
  }
},
{
  "type": "Feature",
  "id": "way/264726189",
  "properties": {
    "amenity": "marketplace",
    "building": "yes",
    "name": "Pasar traditional market",
    "id": "way/264726189"
  },
  "geometry": {
    "type": "Point",
    "coordinates": [
      106.8602094,
      -6.2205812
    ]
  }
},
{
  "type": "Feature",
  "id": "way/295768433",
  "properties": {
    "amenity": "marketplace",
    "building": "yes",
    "evacuation_center": "no",
    "flood_prone": "no",
    "name": "PD PasarJaya Muara Angke",
    "id": "way/295768433"
  },
  "geometry": {
    "type": "Point",
    "coordinates": [
      106.7729089,
      -6.1093289
    ]
  }
},
{
  "type": "Feature",
  "id": "way/303431059",
  "properties": {
    "amenity": "marketplace",
    "name": "Pasar Blora",
    "id": "way/303431059"
  },
  "geometry": {
    "type": "Point",
    "coordinates": [
      106.8238024,
      -6.2018883
    ]
  }
},
{
  "type": "Feature",
  "id": "way/311563513",
  "properties": {
    "amenity": "marketplace",
    "building": "yes",
    "name": "Pasar Blok-A",
    "id": "way/311563513"
  },
  "geometry": {
    "type": "Point",
    "coordinates": [
      106.7969034,
      -6.2557895
    ]
  }
},
{
  "type": "Feature",
  "id": "way/312175015",
  "properties": {
    "amenity": "marketplace",
    "building": "yes",
    "name": "Pasar Radio Dalam",
    "operator": "PD Pasar Jaya",
    "id": "way/312175015"
  },
  "geometry": {
    "type": "Point",
    "coordinates": [
      106.7912759,
      -6.258554
    ]
  }
},
{
  "type": "Feature",
  "id": "way/314067027",
  "properties": {
    "amenity": "marketplace",
    "evacuation_center": "no",
    "flood_prone": "yes",
    "name": "Pasar RT 08/02/07",
    "id": "way/314067027"
  },
  "geometry": {
    "type": "Point",
    "coordinates": [
      106.7248781,
      -6.0919138
    ]
  }
},
{
  "type": "Feature",
  "id": "way/314067028",
  "properties": {
    "amenity": "marketplace",
    "evacuation_center": "no",
    "flood_prone": "yes",
    "name": "Pelelangan",
    "id": "way/314067028"
  },
  "geometry": {
    "type": "Point",
    "coordinates": [
      106.7251882,
      -6.0919302
    ]
  }
},
{
  "type": "Feature",
  "id": "way/314067041",
  "properties": {
    "amenity": "marketplace",
    "evacuation_center": "no",
    "flood_prone": "yes",
    "name": "TPI Kamal Muara",
    "id": "way/314067041"
  },
  "geometry": {
    "type": "Point",
    "coordinates": [
      106.7254956,
      -6.0916545
    ]
  }
},
{
  "type": "Feature",
  "id": "way/314070581",
  "properties": {
    "amenity": "marketplace",
    "building": "yes",
    "flood_prone": "no",
    "name": "PD Pasar Jaya Pondok Labu",
    "id": "way/314070581"
  },
  "geometry": {
    "type": "Point",
    "coordinates": [
      106.79376,
      -6.3123011
    ]
  }
},
{
  "type": "Feature",
  "id": "way/314070582",
  "properties": {
    "amenity": "marketplace",
    "building": "yes",
    "flood_prone": "no",
    "name": "Pasar Koperasi",
    "id": "way/314070582"
  },
  "geometry": {
    "type": "Point",
    "coordinates": [
      106.7935532,
      -6.3127056
    ]
  }
},
{
  "type": "Feature",
  "id": "way/314070583",
  "properties": {
    "amenity": "marketplace",
    "flood_prone": "no",
    "name": "Pasar Swadaya",
    "id": "way/314070583"
  },
  "geometry": {
    "type": "Point",
    "coordinates": [
      106.7940192,
      -6.3133433
    ]
  }
},
{
  "type": "Feature",
  "id": "way/314070584",
  "properties": {
    "amenity": "marketplace",
    "flood_prone": "no",
    "name": "Pasar Taman",
    "id": "way/314070584"
  },
  "geometry": {
    "type": "Point",
    "coordinates": [
      106.7942003,
      -6.3137276
    ]
  }
},
{
  "type": "Feature",
  "id": "way/314521147",
  "properties": {
    "amenity": "marketplace",
    "evacuation_center": "yes",
    "flood_prone": "no",
    "name": "Pasar",
    "id": "way/314521147"
  },
  "geometry": {
    "type": "Point",
    "coordinates": [
      106.7696959,
      -6.1328193
    ]
  }
},
{
  "type": "Feature",
  "id": "way/314523737",
  "properties": {
    "amenity": "marketplace",
    "evacuation_center": "no",
    "flood_prone": "no",
    "name": "Pasar Indah Kapuk",
    "id": "way/314523737"
  },
  "geometry": {
    "type": "Point",
    "coordinates": [
      106.7538921,
      -6.1291187
    ]
  }
},
{
  "type": "Feature",
  "id": "way/314528950",
  "properties": {
    "amenity": "marketplace",
    "building": "yes",
    "flood_prone": "yes",
    "name": "Pasar",
    "id": "way/314528950"
  },
  "geometry": {
    "type": "Point",
    "coordinates": [
      106.7252079,
      -6.1361801
    ]
  }
},
{
  "type": "Feature",
  "id": "way/314669763",
  "properties": {
    "amenity": "marketplace",
    "evacuation_center": "no",
    "flood_prone": "yes",
    "name": "Pasar Deprok",
    "id": "way/314669763"
  },
  "geometry": {
    "type": "Point",
    "coordinates": [
      106.7245655,
      -6.1324499
    ]
  }
},
{
  "type": "Feature",
  "id": "way/314669764",
  "properties": {
    "amenity": "marketplace",
    "evacuation_center": "no",
    "flood_prone": "yes",
    "name": "Pasar Kenanga",
    "id": "way/314669764"
  },
  "geometry": {
    "type": "Point",
    "coordinates": [
      106.7252665,
      -6.1306967
    ]
  }
},
{
  "type": "Feature",
  "id": "way/314677975",
  "properties": {
    "amenity": "marketplace",
    "evacuation_center": "no",
    "flood_prone": "no",
    "name": "Pasar Kaget Pengadegan",
    "id": "way/314677975"
  },
  "geometry": {
    "type": "Point",
    "coordinates": [
      106.8566678,
      -6.250483
    ]
  }
},
{
  "type": "Feature",
  "id": "way/314679084",
  "properties": {
    "amenity": "marketplace",
    "evacuation_center": "no",
    "flood_prone": "no",
    "name": "Pasar Ganepo",
    "id": "way/314679084"
  },
  "geometry": {
    "type": "Point",
    "coordinates": [
      106.7214814,
      -6.149453
    ]
  }
},
{
  "type": "Feature",
  "id": "way/314681711",
  "properties": {
    "amenity": "marketplace",
    "evacuation_center": "no",
    "flood_prone": "yes",
    "name": "Pasar Kampung Melayu",
    "id": "way/314681711"
  },
  "geometry": {
    "type": "Point",
    "coordinates": [
      106.8650991,
      -6.2250249
    ]
  }
},
{
  "type": "Feature",
  "id": "way/314689832",
  "properties": {
    "Id": "0",
    "amenity": "marketplace",
    "flood_prone": "no",
    "name": "Pasar PTB",
    "id": "way/314689832"
  },
  "geometry": {
    "type": "Point",
    "coordinates": [
      106.7488003,
      -6.1477693
    ]
  }
},
{
  "type": "Feature",
  "id": "way/315411487",
  "properties": {
    "amenity": "marketplace",
    "building": "yes",
    "evacuation_center": "no",
    "flood_prone": "yes",
    "name": "Pasar Batak",
    "id": "way/315411487"
  },
  "geometry": {
    "type": "Point",
    "coordinates": [
      106.8710016,
      -6.2601796
    ]
  }
},
{
  "type": "Feature",
  "id": "way/315413734",
  "properties": {
    "amenity": "marketplace",
    "evacuation_center": "no",
    "flood_prone": "no",
    "name": "Pasar Kedoya",
    "id": "way/315413734"
  },
  "geometry": {
    "type": "Point",
    "coordinates": [
      106.7647995,
      -6.1637643
    ]
  }
},
{
  "type": "Feature",
  "id": "way/315413735",
  "properties": {
    "amenity": "marketplace",
    "evacuation_center": "no",
    "flood_prone": "yes",
    "name": "Pasar Pesing Koneng",
    "id": "way/315413735"
  },
  "geometry": {
    "type": "Point",
    "coordinates": [
      106.7672205,
      -6.1601866
    ]
  }
},
{
  "type": "Feature",
  "id": "way/315562271",
  "properties": {
    "amenity": "marketplace",
    "evacuation_center": "no",
    "flood_prone": "no",
    "name": "Pasar Pintu Air",
    "id": "way/315562271"
  },
  "geometry": {
    "type": "Point",
    "coordinates": [
      106.8094137,
      -6.1979006
    ]
  }
},
{
  "type": "Feature",
  "id": "way/315566058",
  "properties": {
    "amenity": "marketplace",
    "evacuation_center": "no",
    "flood_prone": "no",
    "name": "Pasar Anyar",
    "id": "way/315566058"
  },
  "geometry": {
    "type": "Point",
    "coordinates": [
      106.9355228,
      -6.1335426
    ]
  }
},
{
  "type": "Feature",
  "id": "way/315568581",
  "properties": {
    "amenity": "marketplace",
    "evacuation_center": "no",
    "flood_prone": "no",
    "name": "Pasar Jongkok Berkah",
    "id": "way/315568581"
  },
  "geometry": {
    "type": "Point",
    "coordinates": [
      106.934029,
      -6.1088472
    ]
  }
},
{
  "type": "Feature",
  "id": "way/315589068",
  "properties": {
    "amenity": "marketplace",
    "flood_prone": "yes",
    "name": "Pasar Krenso",
    "id": "way/315589068"
  },
  "geometry": {
    "type": "Point",
    "coordinates": [
      106.8654539,
      -6.2310378
    ]
  }
},
{
  "type": "Feature",
  "id": "way/315867396",
  "properties": {
    "Id": "0",
    "amenity": "marketplace",
    "evacuation_center": "yes",
    "flood_prone": "yes",
    "kitchen:facilities": "yes",
    "name": "Pasar Air Mancur",
    "shelter_type": "tent",
    "toilet:facilities": "no",
    "id": "way/315867396"
  },
  "geometry": {
    "type": "Point",
    "coordinates": [
      106.7255887,
      -6.1633414
    ]
  }
},
{
  "type": "Feature",
  "id": "way/315870158",
  "properties": {
    "amenity": "marketplace",
    "evacuation_center": "no",
    "flood_prone": "no",
    "name": "Pasar Pusaka Abadi",
    "id": "way/315870158"
  },
  "geometry": {
    "type": "Point",
    "coordinates": [
      106.7850194,
      -6.1389893
    ]
  }
},
{
  "type": "Feature",
  "id": "way/316325057",
  "properties": {
    "amenity": "marketplace",
    "building": "yes",
    "evacuation_center": "no",
    "flood_prone": "yes",
    "name": "Pasar Jongkoh",
    "id": "way/316325057"
  },
  "geometry": {
    "type": "Point",
    "coordinates": [
      106.9134277,
      -6.1696302
    ]
  }
},
{
  "type": "Feature",
  "id": "way/316748045",
  "properties": {
    "Id": "0",
    "amenity": "marketplace",
    "evacuation_center": "no",
    "flood_prone": "no",
    "name": "Pasar 55",
    "id": "way/316748045"
  },
  "geometry": {
    "type": "Point",
    "coordinates": [
      106.7105784,
      -6.1210351
    ]
  }
},
{
  "type": "Feature",
  "id": "way/316748047",
  "properties": {
    "Id": "0",
    "amenity": "marketplace",
    "evacuation_center": "no",
    "flood_prone": "yes",
    "name": "Pasar Binaan",
    "id": "way/316748047"
  },
  "geometry": {
    "type": "Point",
    "coordinates": [
      106.7128961,
      -6.1152065
    ]
  }
},
{
  "type": "Feature",
  "id": "way/316748049",
  "properties": {
    "Id": "0",
    "amenity": "marketplace",
    "evacuation_center": "no",
    "flood_prone": "yes",
    "name": "Pasar Darurat",
    "id": "way/316748049"
  },
  "geometry": {
    "type": "Point",
    "coordinates": [
      106.717912,
      -6.1199077
    ]
  }
},
{
  "type": "Feature",
  "id": "way/316748051",
  "properties": {
    "Id": "0",
    "amenity": "marketplace",
    "evacuation_center": "no",
    "flood_prone": "no",
    "name": "Pasar Menceng",
    "id": "way/316748051"
  },
  "geometry": {
    "type": "Point",
    "coordinates": [
      106.7218445,
      -6.1261943
    ]
  }
},
{
  "type": "Feature",
  "id": "way/316748056",
  "properties": {
    "Id": "0",
    "amenity": "marketplace",
    "flood_prone": "yes",
    "name": "Pasar Menvo",
    "id": "way/316748056"
  },
  "geometry": {
    "type": "Point",
    "coordinates": [
      106.7189155,
      -6.1263512
    ]
  }
},
{
  "type": "Feature",
  "id": "way/316748058",
  "properties": {
    "Id": "0",
    "amenity": "marketplace",
    "evacuation_center": "no",
    "flood_prone": "no",
    "name": "Pasar Nangka",
    "id": "way/316748058"
  },
  "geometry": {
    "type": "Point",
    "coordinates": [
      106.7292422,
      -6.120955
    ]
  }
},
{
  "type": "Feature",
  "id": "way/316757666",
  "properties": {
    "amenity": "marketplace",
    "flood_prone": "no",
    "name": "Pasar Alam",
    "id": "way/316757666"
  },
  "geometry": {
    "type": "Point",
    "coordinates": [
      106.745709,
      -6.1334947
    ]
  }
},
{
  "type": "Feature",
  "id": "way/316757667",
  "properties": {
    "amenity": "marketplace",
    "flood_prone": "no",
    "name": "Pasar Oglek",
    "id": "way/316757667"
  },
  "geometry": {
    "type": "Point",
    "coordinates": [
      106.7447588,
      -6.1355276
    ]
  }
},
{
  "type": "Feature",
  "id": "way/316766678",
  "properties": {
    "amenity": "marketplace",
    "name": "Pasar",
    "id": "way/316766678"
  },
  "geometry": {
    "type": "Point",
    "coordinates": [
      106.7430163,
      -6.1467178
    ]
  }
},
{
  "type": "Feature",
  "id": "way/318923431",
  "properties": {
    "amenity": "marketplace",
    "building": "yes",
    "name": "Pasar Maharta",
    "opening_hours": "06.00 - 11.00",
    "id": "way/318923431"
  },
  "geometry": {
    "type": "Point",
    "coordinates": [
      106.6932369,
      -6.248055
    ]
  }
},
{
  "type": "Feature",
  "id": "way/319372907",
  "properties": {
    "amenity": "marketplace",
    "evacuation_center": "no",
    "flood_prone": "yes",
    "name": "Pasar Darurat",
    "id": "way/319372907"
  },
  "geometry": {
    "type": "Point",
    "coordinates": [
      106.7172863,
      -6.1792485
    ]
  }
},
{
  "type": "Feature",
  "id": "way/319374647",
  "properties": {
    "amenity": "marketplace",
    "evacuation_center": "no",
    "flood_prone": "no",
    "name": "Pasar Tradisional",
    "id": "way/319374647"
  },
  "geometry": {
    "type": "Point",
    "coordinates": [
      106.7221939,
      -6.1790383
    ]
  }
},
{
  "type": "Feature",
  "id": "way/334982114",
  "properties": {
    "amenity": "marketplace",
    "building": "yes",
    "evacuation_center": "no",
    "flood_prone": "no",
    "name": "Pasar KBN",
    "id": "way/334982114"
  },
  "geometry": {
    "type": "Point",
    "coordinates": [
      106.9242205,
      -6.1449371
    ]
  }
},
{
  "type": "Feature",
  "id": "way/334984028",
  "properties": {
    "amenity": "marketplace",
    "building": "yes",
    "evacuation_center": "no",
    "flood_prone": "yes",
    "name": "Pasar Sukapura",
    "id": "way/334984028"
  },
  "geometry": {
    "type": "Point",
    "coordinates": [
      106.9224731,
      -6.1409405
    ]
  }
},
{
  "type": "Feature",
  "id": "way/334989574",
  "properties": {
    "amenity": "marketplace",
    "evacuation_center": "no",
    "flood_prone": "no",
    "name": "Pasar Kodam",
    "id": "way/334989574"
  },
  "geometry": {
    "type": "Point",
    "coordinates": [
      106.9164698,
      -6.2526077
    ]
  }
},
{
  "type": "Feature",
  "id": "way/343482020",
  "properties": {
    "amenity": "marketplace",
    "building": "yes",
    "id": "way/343482020"
  },
  "geometry": {
    "type": "Point",
    "coordinates": [
      106.7391094,
      -6.1374553
    ]
  }
},
{
  "type": "Feature",
  "id": "way/343482021",
  "properties": {
    "amenity": "marketplace",
    "building": "yes",
    "id": "way/343482021"
  },
  "geometry": {
    "type": "Point",
    "coordinates": [
      106.7392947,
      -6.1376112
    ]
  }
},
{
  "type": "Feature",
  "id": "way/343482022",
  "properties": {
    "amenity": "marketplace",
    "building": "yes",
    "id": "way/343482022"
  },
  "geometry": {
    "type": "Point",
    "coordinates": [
      106.7395561,
      -6.1378303
    ]
  }
},
{
  "type": "Feature",
  "id": "way/343482023",
  "properties": {
    "amenity": "marketplace",
    "building": "yes",
    "id": "way/343482023"
  },
  "geometry": {
    "type": "Point",
    "coordinates": [
      106.7397405,
      -6.137985
    ]
  }
},
{
  "type": "Feature",
  "id": "way/343482092",
  "properties": {
    "amenity": "marketplace",
    "building": "yes",
    "id": "way/343482092"
  },
  "geometry": {
    "type": "Point",
    "coordinates": [
      106.7396547,
      -6.138133
    ]
  }
},
{
  "type": "Feature",
  "id": "way/343482100",
  "properties": {
    "amenity": "marketplace",
    "building": "yes",
    "id": "way/343482100"
  },
  "geometry": {
    "type": "Point",
    "coordinates": [
      106.7395064,
      -6.1383169
    ]
  }
},
{
  "type": "Feature",
  "id": "way/343482452",
  "properties": {
    "amenity": "marketplace",
    "building": "yes",
    "id": "way/343482452"
  },
  "geometry": {
    "type": "Point",
    "coordinates": [
      106.7393858,
      -6.1384203
    ]
  }
},
{
  "type": "Feature",
  "id": "way/343482473",
  "properties": {
    "amenity": "marketplace",
    "building": "yes",
    "id": "way/343482473"
  },
  "geometry": {
    "type": "Point",
    "coordinates": [
      106.7391994,
      -6.1382623
    ]
  }
},
{
  "type": "Feature",
  "id": "way/343482798",
  "properties": {
    "amenity": "marketplace",
    "building": "yes",
    "id": "way/343482798"
  },
  "geometry": {
    "type": "Point",
    "coordinates": [
      106.7389385,
      -6.1380383
    ]
  }
},
{
  "type": "Feature",
  "id": "way/343482799",
  "properties": {
    "amenity": "marketplace",
    "building": "yes",
    "id": "way/343482799"
  },
  "geometry": {
    "type": "Point",
    "coordinates": [
      106.7387475,
      -6.137885
    ]
  }
},
{
  "type": "Feature",
  "id": "way/343482800",
  "properties": {
    "amenity": "marketplace",
    "building": "yes",
    "id": "way/343482800"
  },
  "geometry": {
    "type": "Point",
    "coordinates": [
      106.7389774,
      -6.1375629
    ]
  }
},
{
  "type": "Feature",
  "id": "way/343483112",
  "properties": {
    "amenity": "marketplace",
    "building": "yes",
    "id": "way/343483112"
  },
  "geometry": {
    "type": "Point",
    "coordinates": [
      106.7389761,
      -6.1375649
    ]
  }
},
{
  "type": "Feature",
  "id": "way/343483114",
  "properties": {
    "amenity": "marketplace",
    "building": "yes",
    "id": "way/343483114"
  },
  "geometry": {
    "type": "Point",
    "coordinates": [
      106.7388285,
      -6.1377382
    ]
  }
},
{
  "type": "Feature",
  "id": "way/343483117",
  "properties": {
    "amenity": "marketplace",
    "building": "yes",
    "id": "way/343483117"
  },
  "geometry": {
    "type": "Point",
    "coordinates": [
      106.7389392,
      -6.1380396
    ]
  }
},
{
  "type": "Feature",
  "id": "way/343483119",
  "properties": {
    "amenity": "marketplace",
    "building": "yes",
    "id": "way/343483119"
  },
  "geometry": {
    "type": "Point",
    "coordinates": [
      106.7387474,
      -6.1378796
    ]
  }
},
{
  "type": "Feature",
  "id": "way/352856285",
  "properties": {
    "amenity": "marketplace",
    "building": "yes",
    "name": "Pasar Petojo",
    "id": "way/352856285"
  },
  "geometry": {
    "type": "Point",
    "coordinates": [
      106.8121581,
      -6.1626045
    ]
  }
},
{
  "type": "Feature",
  "id": "way/352856286",
  "properties": {
    "amenity": "marketplace",
    "building": "yes",
    "name": "Pasar Petojo",
    "id": "way/352856286"
  },
  "geometry": {
    "type": "Point",
    "coordinates": [
      106.8121642,
      -6.1630689
    ]
  }
},
{
  "type": "Feature",
  "id": "way/355163792",
  "properties": {
    "amenity": "marketplace",
    "building": "terrace",
    "name": "Pasar Sore BCI",
    "id": "way/355163792"
  },
  "geometry": {
    "type": "Point",
    "coordinates": [
      106.7408527,
      -6.1351882
    ]
  }
},
{
  "type": "Feature",
  "id": "way/378946886",
  "properties": {
    "addr:full": "Jalan Marunda Rusun",
    "amenity": "marketplace",
    "name": "Pasar Rusun Marunda",
    "id": "way/378946886"
  },
  "geometry": {
    "type": "Point",
    "coordinates": [
      106.963796,
      -6.0952767
    ]
  }
},
{
  "type": "Feature",
  "id": "way/408779091",
  "properties": {
    "amenity": "marketplace",
    "building": "yes",
    "name": "Mitra10",
    "id": "way/408779091"
  },
  "geometry": {
    "type": "Point",
    "coordinates": [
      106.7474992,
      -6.2595712
    ]
  }
},
{
  "type": "Feature",
  "id": "way/464500828",
  "properties": {
    "amenity": "marketplace",
    "building": "yes",
    "name": "Pasar",
    "operator": "PD. Pasar Jaya",
    "id": "way/464500828"
  },
  "geometry": {
    "type": "Point",
    "coordinates": [
      106.8743143,
      -6.2759269
    ]
  }
},
{
  "type": "Feature",
  "id": "way/482145169",
  "properties": {
    "access:roof": "yes",
    "addr:city": "Setiabudi, South Jakarta",
    "addr:full": "Jalan Unggaran Ujung",
    "addr:postcode": "12970",
    "addr:street": "Jalan Unggaran",
    "amenity": "marketplace",
    "building": "marketplace",
    "building:condition": "good",
    "building:floor": "ceramics",
    "building:levels": "2",
    "building:roof": "concrete",
    "building:structure": "confined_masonry",
    "building:walls": "brick",
    "capacity:persons": "100-250",
    "name": "Pasar Jaya Manggis",
    "source": "Hot_inAWARESurvey_2017",
    "id": "way/482145169"
  },
  "geometry": {
    "type": "Point",
    "coordinates": [
      106.8375861,
      -6.2084089
    ]
  }
},
{
  "type": "Feature",
  "id": "way/482198094",
  "properties": {
    "access:roof": "no",
    "addr:full": "Jalan Rengas I",
    "amenity": "marketplace",
    "backup_generator": "no",
    "building": "marketplace",
    "building:condition": "poor",
    "building:floor": "ground",
    "building:levels": "1",
    "building:roof": "tin",
    "building:structure": "wood_frame",
    "building:walls": "wood",
    "capacity:persons": "100-250",
    "name": "Pasar Rengas",
    "source": "HOT_InAWARESurvey_2017",
    "id": "way/482198094"
  },
  "geometry": {
    "type": "Point",
    "coordinates": [
      106.8185568,
      -6.2367694
    ]
  }
},
{
  "type": "Feature",
  "id": "way/482340843",
  "properties": {
    "access:roof": "yes",
    "addr:full": "Jalan Percetakan Negara II",
    "amenity": "marketplace",
    "backup_generator": "yes",
    "building": "marketplace",
    "building:condition": "good",
    "building:levels": "2",
    "building:roof": "concrete",
    "building:structure": "confined_masonry",
    "building:walls": "glass",
    "buildings:floor": "ceramics",
    "capacity": "250-500",
    "name": "Pasar Johar Baru",
    "source": "HOT_InAWARESurvey_2017",
    "id": "way/482340843"
  },
  "geometry": {
    "type": "Point",
    "coordinates": [
      106.8555488,
      -6.1854353
    ]
  }
},
{
  "type": "Feature",
  "id": "way/482411675",
  "properties": {
    "access:roof": "no",
    "addr:full": "Jalan Palmeriam",
    "amenity": "marketplace",
    "backup_generator": "no",
    "building": "marketplace",
    "building:condition": "good",
    "building:floor": "ceramics",
    "building:levels": "3",
    "building:roof": "concrete",
    "building:structure": "confined_masonry",
    "building:walls": "concrete",
    "capacity:persons": ">500",
    "name": "Pasar Jaya Palmeriam",
    "source": "HOT_InAWARESurvey_2017",
    "id": "way/482411675"
  },
  "geometry": {
    "type": "Point",
    "coordinates": [
      106.8606803,
      -6.2053777
    ]
  }
},
{
  "type": "Feature",
  "id": "way/484850437",
  "properties": {
    "access:roof": "no",
    "addr:full": "Jalan Surabaya no.2",
    "amenity": "marketplace",
    "backup_generator": "no",
    "building": "marketplace",
    "building:condition": "good",
    "building:floor": "ceramics",
    "building:levels": "1",
    "building:roof": "tile",
    "building:structure": "confined_masonry",
    "building:walls": "brick",
    "capacity:persons": "250-500",
    "name": "Pasar Antik dan Koper Jakarta",
    "source": "HOT_InAWARESurvey_2017",
    "id": "way/484850437"
  },
  "geometry": {
    "type": "Point",
    "coordinates": [
      106.8393226,
      -6.197529
    ]
  }
},
{
  "type": "Feature",
  "id": "way/485254692",
  "properties": {
    "access:roof": "no",
    "addr:full": "Jalan Srikaya 1",
    "amenity": "marketplace",
    "backup_generator": "no",
    "building": "marketplace",
    "building:condition": "good",
    "building:floor": "ceramics",
    "building:levels": "2",
    "building:roof": "concrete",
    "building:structure": "confined_masonry",
    "building:walls": "brick",
    "capacity:persons": ">500",
    "name": "Pasar Jaya Gondangdia",
    "source": "HOT_InAWARESurvey_2017",
    "id": "way/485254692"
  },
  "geometry": {
    "type": "Point",
    "coordinates": [
      106.832139,
      -6.1865095
    ]
  }
},
{
  "type": "Feature",
  "id": "way/485256695",
  "properties": {
    "access:roof": "yes",
    "addr:full": "Jalan Matraman Raya",
    "amenity": "marketplace",
    "backup_generator": "yes",
    "building": "marketplace",
    "building:condition": "good",
    "building:floor": "ceramics",
    "building:levels": "4",
    "building:roof": "concrete",
    "building:structure": "confined_masonry",
    "building:walls": "concrete",
    "capacity:persons": ">500",
    "name": "Jatinegara Trade Center",
    "source": "HOT_InAWARESurvey_2017",
    "id": "way/485256695"
  },
  "geometry": {
    "type": "Point",
    "coordinates": [
      106.8648294,
      -6.2161305
    ]
  }
},
{
  "type": "Feature",
  "id": "way/485868913",
  "properties": {
    "access:roof": "no",
    "addr:full": "Jalan Jati Rawasari",
    "amenity": "marketplace",
    "backup_generator": "no",
    "building": "yes",
    "building:condition": "good",
    "building:floor": "ceramics",
    "building:levels": "1",
    "building:roof": "tin",
    "building:structure": "confined_masonry",
    "building:walls": "brick",
    "capacity:persons": "50-100",
    "name": "Pasar Jati Rawasari",
    "id": "way/485868913"
  },
  "geometry": {
    "type": "Point",
    "coordinates": [
      106.8636013,
      -6.1833885
    ]
  }
},
{
  "type": "Feature",
  "id": "way/485868974",
  "properties": {
    "access:roof": "no",
    "addr:full": "Jalan Cempaka Putih Barat",
    "amenity": "marketplace",
    "backup_generator": "no",
    "building": "marketplace",
    "building:condition": "good",
    "building:floor": "cement",
    "building:levels": "1",
    "building:roof": "tin",
    "building:structure": "confined_masonry",
    "building:walls": "wood",
    "capacity:persons": "250-500",
    "name": "Pasar cempaka putih barat",
    "id": "way/485868974"
  },
  "geometry": {
    "type": "Point",
    "coordinates": [
      106.8632296,
      -6.1728191
    ]
  }
},
{
  "type": "Feature",
  "id": "way/485886225",
  "properties": {
    "addr:city": "Cempaka Putih, Central Jakarta",
    "addr:postcode": "10520",
    "addr:street": "Jl. Pangkalan Asem",
    "amenity": "marketplace",
    "building": "yes",
    "name": "Pasar Gembrong Cempaka Putih",
    "id": "way/485886225"
  },
  "geometry": {
    "type": "Point",
    "coordinates": [
      106.8601948,
      -6.1798428
    ]
  }
},
{
  "type": "Feature",
  "id": "way/487637922",
  "properties": {
    "access:roof": "no",
    "addr:full": "Jalan Karbela Barat",
    "addr:postcode": "12920",
    "amenity": "marketplace",
    "backup_generator": "no",
    "building": "marketplace",
    "building:condition": "good",
    "building:floor": "ground",
    "building:levels": "1",
    "building:roof": "asbestos",
    "building:structure": "wood_frame",
    "building:walls": "wood",
    "capacity:persons": "50-100",
    "name": "Pasar Mencos",
    "source": "Hot_InAWARESurvey_2017",
    "id": "way/487637922"
  },
  "geometry": {
    "type": "Point",
    "coordinates": [
      106.8260642,
      -6.2137193
    ]
  }
},
{
  "type": "Feature",
  "id": "way/488371648",
  "properties": {
    "addr:full": "Jalan Pasar Rumput",
    "amenity": "marketplace",
    "building": "marketplace",
    "building:condition": "good",
    "name": "Pasar Rumput",
    "source": "Hot_inAWARESurvey_2017",
    "id": "way/488371648"
  },
  "geometry": {
    "type": "Point",
    "coordinates": [
      106.8395244,
      -6.2078678
    ]
  }
},
{
  "type": "Feature",
  "id": "way/488371664",
  "properties": {
    "addr:full": "Jalan Pasar Rumput",
    "amenity": "marketplace",
    "building": "marketplace",
    "building:condition": "good",
    "name": "Pasar Rumput",
    "source": "Hot_inAWARESurvey_2017",
    "id": "way/488371664"
  },
  "geometry": {
    "type": "Point",
    "coordinates": [
      106.8405551,
      -6.2087396
    ]
  }
},
{
  "type": "Feature",
  "id": "way/488371672",
  "properties": {
    "addr:full": "Jalan Pasar Rumput",
    "amenity": "marketplace",
    "building": "marketplace",
    "building:condition": "good",
    "name": "Pasar Rumput",
    "source": "Hot_inAWARESurvey_2017",
    "id": "way/488371672"
  },
  "geometry": {
    "type": "Point",
    "coordinates": [
      106.8418391,
      -6.2082129
    ]
  }
},
{
  "type": "Feature",
  "id": "node/1774686847",
  "properties": {
    "amenity": "marketplace",
    "name": "Alfamart",
    "id": "node/1774686847"
  },
  "geometry": {
    "type": "Point",
    "coordinates": [
      106.8269348,
      -6.2141752
    ]
  }
},
{
  "type": "Feature",
  "id": "node/1848639594",
  "properties": {
    "amenity": "marketplace",
    "id": "node/1848639594"
  },
  "geometry": {
    "type": "Point",
    "coordinates": [
      106.9444471,
      -6.2915177
    ]
  }
},
{
  "type": "Feature",
  "id": "node/2216026792",
  "properties": {
    "amenity": "marketplace",
    "name": "Pasar Sunan Giri",
    "id": "node/2216026792"
  },
  "geometry": {
    "type": "Point",
    "coordinates": [
      106.8827406,
      -6.1965723
    ]
  }
},
{
  "type": "Feature",
  "id": "node/2285199213",
  "properties": {
    "amenity": "marketplace",
    "name": "Jamblang",
    "id": "node/2285199213"
  },
  "geometry": {
    "type": "Point",
    "coordinates": [
      106.9637676,
      -6.2591674
    ]
  }
},
{
  "type": "Feature",
  "id": "node/2372285201",
  "properties": {
    "amenity": "marketplace",
    "name": "Pasar Tradisional Arinda",
    "id": "node/2372285201"
  },
  "geometry": {
    "type": "Point",
    "coordinates": [
      106.7093938,
      -6.2605426
    ]
  }
},
{
  "type": "Feature",
  "id": "node/2479751952",
  "properties": {
    "addr:city": "North Jakarta",
    "addr:full": "Jl.Dermaga Muara Angke",
    "addr:housenumber": "RT.11/RW.11",
    "addr:postcode": "14450",
    "addr:street": "Jl. Muara Angke",
    "amenity": "marketplace",
    "building:condition": "good",
    "building:levels": "2",
    "name": "Pasar Muara Angke",
    "id": "node/2479751952"
  },
  "geometry": {
    "type": "Point",
    "coordinates": [
      106.7733011,
      -6.1095687
    ]
  }
},
{
  "type": "Feature",
  "id": "node/2479752921",
  "properties": {
    "access:roof": "yes",
    "addr:full": "Jl. Muara Karang Raya",
    "amenity": "marketplace",
    "building:condition": "good",
    "building:levels": "2",
    "name": "Superindo Swalayan",
    "id": "node/2479752921"
  },
  "geometry": {
    "type": "Point",
    "coordinates": [
      106.7834262,
      -6.1173756
    ]
  }
},
{
  "type": "Feature",
  "id": "node/2479753542",
  "properties": {
    "addr:full": "Jln Pluit Permai",
    "amenity": "marketplace",
    "building": "yes",
    "building:condition": "good",
    "building:levels": "1",
    "building:use": "Tempat Evakuasi",
    "name": "Seven Eleven",
    "id": "node/2479753542"
  },
  "geometry": {
    "type": "Point",
    "coordinates": [
      106.7925496,
      -6.1154573
    ]
  }
},
{
  "type": "Feature",
  "id": "node/2479762065",
  "properties": {
    "addr:full": "pluit kencana dalam",
    "amenity": "marketplace",
    "building": "yes",
    "building:condition": "good",
    "building:levels": "1",
    "building:use": "Tempat Evakuasi",
    "name": "pasar pluit",
    "id": "node/2479762065"
  },
  "geometry": {
    "type": "Point",
    "coordinates": [
      106.7889894,
      -6.1212387
    ]
  }
},
{
  "type": "Feature",
  "id": "node/2479767393",
  "properties": {
    "addr:full": "Jl Pluit Karang Niaga",
    "amenity": "marketplace",
    "building:condition": "good",
    "building:levels": "4-7",
    "name": "Pasar Muarakarang",
    "id": "node/2479767393"
  },
  "geometry": {
    "type": "Point",
    "coordinates": [
      106.7786871,
      -6.1157999
    ]
  }
},
{
  "type": "Feature",
  "id": "node/2490616165",
  "properties": {
    "addr:full": "Jl.Tanah Merah",
    "amenity": "marketplace",
    "building:condition": "good",
    "name": "Pasar Tanah Merah",
    "id": "node/2490616165"
  },
  "geometry": {
    "type": "Point",
    "coordinates": [
      106.7943127,
      -6.1299929
    ]
  }
},
{
  "type": "Feature",
  "id": "node/2490616272",
  "properties": {
    "addr:full": "jl.muarabaru",
    "amenity": "marketplace",
    "building:condition": "good",
    "name": "pasar muara baru",
    "id": "node/2490616272"
  },
  "geometry": {
    "type": "Point",
    "coordinates": [
      106.8039458,
      -6.1235295
    ]
  }
},
{
  "type": "Feature",
  "id": "node/2490616909",
  "properties": {
    "amenity": "marketplace",
    "name": "pelelangan ikan",
    "id": "node/2490616909"
  },
  "geometry": {
    "type": "Point",
    "coordinates": [
      106.8023667,
      -6.1100928
    ]
  }
},
{
  "type": "Feature",
  "id": "node/2490617754",
  "properties": {
    "addr:full": "Jalan Tanah Pasir",
    "amenity": "marketplace",
    "building:condition": "poor",
    "building:levels": "1",
    "name": "Pasar Tanah Pasir",
    "id": "node/2490617754"
  },
  "geometry": {
    "type": "Point",
    "coordinates": [
      106.8010304,
      -6.1298338
    ]
  }
},
{
  "type": "Feature",
  "id": "node/2511101537",
  "properties": {
    "addr:full": "Jalan Cumi Raya",
    "amenity": "marketplace",
    "name": "Pasar (Alat Kapal)",
    "id": "node/2511101537"
  },
  "geometry": {
    "type": "Point",
    "coordinates": [
      106.8016981,
      -6.1027122
    ]
  }
},
{
  "type": "Feature",
  "id": "node/2511101538",
  "properties": {
    "amenity": "marketplace",
    "building": "yes",
    "building:condition": "good",
    "building:levels": "1",
    "building:use": "Tempat Evakuasi, Dapur Umum, Posko Logistik, Posko Kesehatan",
    "name": "Pelelangan Ikan",
    "id": "node/2511101538"
  },
  "geometry": {
    "type": "Point",
    "coordinates": [
      106.8016341,
      -6.100579
    ]
  }
},
{
  "type": "Feature",
  "id": "node/2511101539",
  "properties": {
    "amenity": "marketplace",
    "building": "yes",
    "building:condition": "good",
    "building:levels": "1",
    "building:use": "Tempat Evakuasi, Dapur Umum, Posko Logistik, Posko Kesehatan",
    "name": "Pelelangan Ikan",
    "id": "node/2511101539"
  },
  "geometry": {
    "type": "Point",
    "coordinates": [
      106.8013396,
      -6.1093681
    ]
  }
},
{
  "type": "Feature",
  "id": "node/2640383640",
  "properties": {
    "amenity": "marketplace",
    "name": "Pasar Kecapi",
    "id": "node/2640383640"
  },
  "geometry": {
    "type": "Point",
    "coordinates": [
      106.9345044,
      -6.3060945
    ]
  }
},
{
  "type": "Feature",
  "id": "node/3692631819",
  "properties": {
    "amenity": "marketplace",
    "name": "Pasar Bambu Kuning",
    "id": "node/3692631819"
  },
  "geometry": {
    "type": "Point",
    "coordinates": [
      106.8566682,
      -6.1287071
    ]
  }
},
{
  "type": "Feature",
  "id": "node/3692631820",
  "properties": {
    "amenity": "marketplace",
    "name": "Pasar Belek",
    "id": "node/3692631820"
  },
  "geometry": {
    "type": "Point",
    "coordinates": [
      106.8543756,
      -6.128468
    ]
  }
},
{
  "type": "Feature",
  "id": "node/3692631824",
  "properties": {
    "amenity": "marketplace",
    "name": "Pasar Waro Kali",
    "id": "node/3692631824"
  },
  "geometry": {
    "type": "Point",
    "coordinates": [
      106.8542299,
      -6.1292942
    ]
  }
},
{
  "type": "Feature",
  "id": "node/3801705131",
  "properties": {
    "addr:full": "Jalan Marunda Rusun",
    "amenity": "marketplace",
    "name": "Pasar Rusun Marunda",
    "id": "node/3801705131"
  },
  "geometry": {
    "type": "Point",
    "coordinates": [
      106.9637902,
      -6.0952775
    ]
  }
},
{
  "type": "Feature",
  "id": "node/4132781137",
  "properties": {
    "amenity": "marketplace",
    "name": "Indomaret",
    "id": "node/4132781137"
  },
  "geometry": {
    "type": "Point",
    "coordinates": [
      106.8502929,
      -6.1616309
    ]
  }
},
{
  "type": "Feature",
  "id": "node/4146438303",
  "properties": {
    "addr:city": "Jakarta Barat",
    "addr:postcode": "11470",
    "addr:street": "Tanjung Duren Barat 3",
    "amenity": "marketplace",
    "name": "Pasar Tomang Barat (Pasar Kopro)",
    "id": "node/4146438303"
  },
  "geometry": {
    "type": "Point",
    "coordinates": [
      106.7837889,
      -6.177704
    ]
  }
},
{
  "type": "Feature",
  "id": "node/4146456982",
  "properties": {
    "addr:city": "jakarta selatan",
    "addr:postcode": "12130",
    "addr:street": "Jalan Tebah 2",
    "amenity": "marketplace",
    "name": "Pasar Mayestik",
    "id": "node/4146456982"
  },
  "geometry": {
    "type": "Point",
    "coordinates": [
      106.7910128,
      -6.241328
    ]
  }
},
{
  "type": "Feature",
  "id": "node/4146468727",
  "properties": {
    "addr:city": "Jakarta barat",
    "addr:postcode": "11480",
    "addr:street": "Palmerah Utara",
    "amenity": "marketplace",
    "name": "Pasar Palmerah",
    "id": "node/4146468727"
  },
  "geometry": {
    "type": "Point",
    "coordinates": [
      106.7961301,
      -6.2077667
    ]
  }
},
{
  "type": "Feature",
  "id": "node/4146483311",
  "properties": {
    "addr:city": "jakarta selatan",
    "addr:postcode": "12180",
    "addr:street": "Cipaku 1",
    "amenity": "marketplace",
    "name": "Pasar Santa",
    "id": "node/4146483311"
  },
  "geometry": {
    "type": "Point",
    "coordinates": [
      106.8118191,
      -6.2396827
    ]
  }
},
{
  "type": "Feature",
  "id": "node/4146503326",
  "properties": {
    "addr:city": "Jakarta Pusat",
    "addr:housenumber": "No. 169",
    "addr:postcode": "10710",
    "addr:street": "Bungur besar",
    "amenity": "marketplace",
    "name": "Pasar Senen",
    "id": "node/4146503326"
  },
  "geometry": {
    "type": "Point",
    "coordinates": [
      106.841974,
      -6.1768998
    ]
  }
},
{
  "type": "Feature",
  "id": "node/4146533407",
  "properties": {
    "addr:city": "jakarta barat",
    "addr:postcode": "11480",
    "addr:street": "Jalan Anggrek Garuda",
    "amenity": "marketplace",
    "name": "Pasar Slipi",
    "id": "node/4146533407"
  },
  "geometry": {
    "type": "Point",
    "coordinates": [
      106.7957009,
      -6.1902239
    ]
  }
},
{
  "type": "Feature",
  "id": "node/4148448704",
  "properties": {
    "addr:city": "Tanah Abang, Central Jakarta",
    "addr:housenumber": "No. 78, 80, 82",
    "addr:postcode": "10220",
    "addr:street": "Jl. H. Fachrudin",
    "amenity": "marketplace",
    "name": "Blok B Tanah Abang",
    "id": "node/4148448704"
  },
  "geometry": {
    "type": "Point",
    "coordinates": [
      106.8145206,
      -6.1880206
    ]
  }
},
{
  "type": "Feature",
  "id": "node/4150434858",
  "properties": {
    "addr:city": "Central Jakarta",
    "addr:postcode": "10710",
    "addr:street": "Jalan Pasar Baru",
    "amenity": "marketplace",
    "name": "Pasar Baru",
    "name:en": "Pintu Pasar Baru",
    "id": "node/4150434858"
  },
  "geometry": {
    "type": "Point",
    "coordinates": [
      106.8347756,
      -6.1656442
    ]
  }
},
{
  "type": "Feature",
  "id": "node/4150471600",
  "properties": {
    "addr:city": "West Jakarta",
    "addr:housenumber": "No. 1",
    "addr:postcode": "11540",
    "addr:street": "Jalan Sulaiman",
    "amenity": "marketplace",
    "name": "Pasar Bunga Rawa Belong",
    "id": "node/4150471600"
  },
  "geometry": {
    "type": "Point",
    "coordinates": [
      106.7778386,
      -6.2062082
    ]
  }
},
{
  "type": "Feature",
  "id": "node/4150557619",
  "properties": {
    "addr:city": "West Jakarta",
    "addr:postcode": "11410",
    "addr:street": "Jl. Kemanggisan Utama",
    "amenity": "marketplace",
    "name": "Pasar Slipi",
    "id": "node/4150557619"
  },
  "geometry": {
    "type": "Point",
    "coordinates": [
      106.7956461,
      -6.1900604
    ]
  }
},
{
  "type": "Feature",
  "id": "node/4150570546",
  "properties": {
    "addr:city": "Central Jakarta",
    "addr:housenumber": "Blok F.2",
    "addr:postcode": "10250",
    "addr:street": "Jl. Kh. Mas Mansyur",
    "amenity": "marketplace",
    "name": "Pasar Tanah Abang Blok A - F",
    "id": "node/4150570546"
  },
  "geometry": {
    "type": "Point",
    "coordinates": [
      106.8145376,
      -6.1881778
    ]
  }
},
{
  "type": "Feature",
  "id": "node/4198510242",
  "properties": {
    "amenity": "marketplace",
    "name": "Night market",
    "id": "node/4198510242"
  },
  "geometry": {
    "type": "Point",
    "coordinates": [
      106.8247042,
      -6.1799499
    ]
  }
},
{
  "type": "Feature",
  "id": "node/4243951030",
  "properties": {
    "addr:city": "Tanah Abang, Central Jakarta",
    "addr:housenumber": "1",
    "addr:postcode": "10210",
    "addr:street": "Jalan Bendungan Hilir Blok A",
    "amenity": "marketplace",
    "name": "Pasar Bendungan Hilir",
    "id": "node/4243951030"
  },
  "geometry": {
    "type": "Point",
    "coordinates": [
      106.8153156,
      -6.2153127
    ]
  }
},
{
  "type": "Feature",
  "id": "node/4243955092",
  "properties": {
    "addr:city": "Cilandak, South Jakarta",
    "addr:postcode": "12410",
    "addr:street": "Jalan Pangeran Antasari",
    "amenity": "marketplace",
    "name": "Pasar Cipete Selatan",
    "id": "node/4243955092"
  },
  "geometry": {
    "type": "Point",
    "coordinates": [
      106.8079724,
      -6.278724
    ]
  }
},
{
  "type": "Feature",
  "id": "node/4243963464",
  "properties": {
    "addr:city": "Grogol Petamburan, West Jakarta",
    "addr:postcode": "11450",
    "addr:street": "Jl. DR. Mawardi Raya",
    "amenity": "marketplace",
    "name": "Pasar Grogol",
    "id": "node/4243963464"
  },
  "geometry": {
    "type": "Point",
    "coordinates": [
      106.797142,
      -6.1623147
    ]
  }
},
{
  "type": "Feature",
  "id": "node/4243963887",
  "properties": {
    "addr:city": "Pinangsia, West Jakarta",
    "addr:postcode": "11110",
    "addr:street": "Jalan Asemka-Petongkangan",
    "amenity": "marketplace",
    "name": "Pasar Grosir Asemka",
    "id": "node/4243963887"
  },
  "geometry": {
    "type": "Point",
    "coordinates": [
      106.8119471,
      -6.140576
    ]
  }
},
{
  "type": "Feature",
  "id": "node/4243966701",
  "properties": {
    "addr:city": "Cilandak, South Jakarta",
    "addr:housenumber": "1",
    "addr:postcode": "12440",
    "addr:street": "Jalan Pasar Jumat",
    "amenity": "marketplace",
    "name": "Pasar Jumat",
    "id": "node/4243966701"
  },
  "geometry": {
    "type": "Point",
    "coordinates": [
      106.7715006,
      -6.2892907
    ]
  }
},
{
  "type": "Feature",
  "id": "node/4243970206",
  "properties": {
    "addr:city": "Kebayoran Lama, South Jakarta",
    "addr:postcode": "12230",
    "addr:street": "Jalan Ciputat Raya",
    "amenity": "marketplace",
    "name": "Pasar Kebayoran Lama",
    "id": "node/4243970206"
  },
  "geometry": {
    "type": "Point",
    "coordinates": [
      106.7806307,
      -6.2401693
    ]
  }
},
{
  "type": "Feature",
  "id": "node/4243970642",
  "properties": {
    "addr:city": "Tanah Abang, Central Jakarta",
    "addr:housenumber": "11",
    "addr:postcode": "10230",
    "addr:street": "Jl. Sabeni",
    "amenity": "marketplace",
    "name": "Pasar Kambing Tanah Abang",
    "id": "node/4243970642"
  },
  "geometry": {
    "type": "Point",
    "coordinates": [
      106.8136575,
      -6.1933174
    ]
  }
},
{
  "type": "Feature",
  "id": "node/4243972080",
  "properties": {
    "addr:city": "Kramat Jati, East Jakarta",
    "addr:postcode": "13510",
    "addr:street": "Jalan Raya Bogor",
    "amenity": "marketplace",
    "name": "Pasar Kramat Jati",
    "id": "node/4243972080"
  },
  "geometry": {
    "type": "Point",
    "coordinates": [
      106.8667229,
      -6.2681814
    ]
  }
},
{
  "type": "Feature",
  "id": "node/4243975631",
  "properties": {
    "addr:city": "Pulo Gadung, East Jakarta",
    "addr:postcode": "13220",
    "addr:street": "Jl. Sunan Giri",
    "amenity": "marketplace",
    "name": "Pasar Sunan Giri",
    "id": "node/4243975631"
  },
  "geometry": {
    "type": "Point",
    "coordinates": [
      106.883492,
      -6.190144
    ]
  }
},
{
  "type": "Feature",
  "id": "node/4243975636",
  "properties": {
    "addr:city": "Tanah Abang, Central Jakarta",
    "addr:postcode": "10250",
    "addr:street": "Jalan Kebon Jati",
    "amenity": "marketplace",
    "name": "Pasar Tanah Abang",
    "id": "node/4243975636"
  },
  "geometry": {
    "type": "Point",
    "coordinates": [
      106.8120002,
      -6.18883
    ]
  }
},
{
  "type": "Feature",
  "id": "node/4243979772",
  "properties": {
    "addr:city": "Sawah Besar, Central Jakarta",
    "addr:postcode": "10710",
    "addr:street": "Jalan KH Samanhudi",
    "amenity": "marketplace",
    "name": "Pasar Metro",
    "id": "node/4243979772"
  },
  "geometry": {
    "type": "Point",
    "coordinates": [
      106.8324024,
      -6.16103
    ]
  }
},
{
  "type": "Feature",
  "id": "node/4243984103",
  "properties": {
    "addr:city": "Kembangan, West Jakarta",
    "addr:postcode": "11620",
    "addr:street": "Jalan Meruya Ilir",
    "amenity": "marketplace",
    "name": "Pasar Pengampuan",
    "id": "node/4243984103"
  },
  "geometry": {
    "type": "Point",
    "coordinates": [
      106.7611797,
      -6.1991527
    ]
  }
},
{
  "type": "Feature",
  "id": "node/4243984835",
  "properties": {
    "addr:city": "Senen, Central Jakarta",
    "addr:postcode": "10450",
    "addr:street": "Jl. Let. Jen. Suprapto-Kramat Bunder",
    "amenity": "marketplace",
    "name": "Pasar Proyek Senen",
    "id": "node/4243984835"
  },
  "geometry": {
    "type": "Point",
    "coordinates": [
      106.8419352,
      -6.1768067
    ]
  }
},
{
  "type": "Feature",
  "id": "node/4244006457",
  "properties": {
    "addr:city": "Koja, North Jakarta",
    "addr:postcode": "14230",
    "addr:street": "Jl. Raya Plumpang Rawa",
    "amenity": "marketplace",
    "name": "Pasar Ular",
    "id": "node/4244006457"
  },
  "geometry": {
    "type": "Point",
    "coordinates": [
      106.8946007,
      -6.1302273
    ]
  }
},
{
  "type": "Feature",
  "id": "node/4244009966",
  "properties": {
    "addr:city": "Pancoran, South Jakarta",
    "addr:housenumber": "9",
    "addr:postcode": "12760",
    "addr:street": "Jalan Kemang Utara",
    "amenity": "marketplace",
    "name": "Pasar Warung Buncit",
    "id": "node/4244009966"
  },
  "geometry": {
    "type": "Point",
    "coordinates": [
      106.8248197,
      -6.2551713
    ]
  }
},
{
  "type": "Feature",
  "id": "node/4244016676",
  "properties": {
    "addr:city": "Sawah Besar, Central Jakarta",
    "addr:postcode": "10210",
    "addr:street": "Jalan KH Samanhudi",
    "amenity": "marketplace",
    "name": "PD Pasar Jaya Pasar Baru Metro Atom",
    "id": "node/4244016676"
  },
  "geometry": {
    "type": "Point",
    "coordinates": [
      106.8331087,
      -6.1611207
    ]
  }
},
{
  "type": "Feature",
  "id": "node/4248078330",
  "properties": {
    "addr:city": "Pondok Labu, South Jakarta",
    "addr:postcode": "12450",
    "addr:street": "Jl. R.S. Fatmawati",
    "amenity": "marketplace",
    "name": "Pasar Pondok Labu",
    "id": "node/4248078330"
  },
  "geometry": {
    "type": "Point",
    "coordinates": [
      106.7935663,
      -6.3123393
    ]
  }
},
{
  "type": "Feature",
  "id": "node/4248081888",
  "properties": {
    "addr:city": "Kebayoran Lama, South Jakarta",
    "addr:postcode": "12220",
    "addr:street": "Jalan Teuku Nyak Arief",
    "amenity": "marketplace",
    "name": "Pasar Bata Putih",
    "id": "node/4248081888"
  },
  "geometry": {
    "type": "Point",
    "coordinates": [
      106.7845262,
      -6.2350187
    ]
  }
},
{
  "type": "Feature",
  "id": "node/4248114112",
  "properties": {
    "addr:city": "Permata Hijau, South Jakarta",
    "addr:postcode": "12210",
    "addr:street": "Jl. Letjen. Supeno",
    "amenity": "marketplace",
    "name": "Pasar Mobil Auto Mall senayan",
    "id": "node/4248114112"
  },
  "geometry": {
    "type": "Point",
    "coordinates": [
      106.7831938,
      -6.22104
    ]
  }
},
{
  "type": "Feature",
  "id": "node/4248117055",
  "properties": {
    "addr:city": "Cilandak, South Jakarta",
    "addr:postcode": "12430",
    "addr:street": "Jalan RS Fatmawati",
    "amenity": "marketplace",
    "name": "Pasar Made",
    "id": "node/4248117055"
  },
  "geometry": {
    "type": "Point",
    "coordinates": [
      106.7954385,
      -6.286874
    ]
  }
},
{
  "type": "Feature",
  "id": "node/4248127894",
  "properties": {
    "addr:city": "Mampang Prapatan, South Jakarta",
    "addr:housenumber": "58",
    "addr:postcode": "12790",
    "addr:street": "Jalan Mampang Prapatan",
    "amenity": "marketplace",
    "name": "Pasar Mampang",
    "id": "node/4248127894"
  },
  "geometry": {
    "type": "Point",
    "coordinates": [
      106.8254953,
      -6.2409387
    ]
  }
},
{
  "type": "Feature",
  "id": "node/4248130259",
  "properties": {
    "addr:city": "Central Jakarta",
    "addr:postcode": "10710",
    "addr:street": "Pasar Baru Selatan",
    "amenity": "marketplace",
    "name": "Pasar Baru Selatan",
    "id": "node/4248130259"
  },
  "geometry": {
    "type": "Point",
    "coordinates": [
      106.8346943,
      -6.1656145
    ]
  }
},
{
  "type": "Feature",
  "id": "node/4248137508",
  "properties": {
    "addr:city": "Central Jakarta",
    "addr:postcode": "10610",
    "addr:street": "Jalan Pasar Baru Timur",
    "amenity": "marketplace",
    "name": "Pasar Baru Timur",
    "id": "node/4248137508"
  },
  "geometry": {
    "type": "Point",
    "coordinates": [
      106.8375614,
      -6.1615576
    ]
  }
},
{
  "type": "Feature",
  "id": "node/4248138443",
  "properties": {
    "addr:city": "Kebayoran Lama, South Jakarta",
    "addr:postcode": "12230",
    "addr:street": "Jalan Ciledug Raya",
    "amenity": "marketplace",
    "name": "Pasar Cipulir",
    "id": "node/4248138443"
  },
  "geometry": {
    "type": "Point",
    "coordinates": [
      106.7655365,
      -6.2379421
    ]
  }
},
{
  "type": "Feature",
  "id": "node/4248142853",
  "properties": {
    "addr:city": "Central Jakarta",
    "addr:postcode": "10610",
    "addr:street": "Jalan Kelinci Raya",
    "amenity": "marketplace",
    "name": "Pasat Baru Timur Dalam",
    "id": "node/4248142853"
  },
  "geometry": {
    "type": "Point",
    "coordinates": [
      106.8362437,
      -6.161951
    ]
  }
},
{
  "type": "Feature",
  "id": "node/4248147940",
  "properties": {
    "addr:city": "Koja, North Jakarta",
    "addr:postcode": "14230",
    "addr:street": "Jl. Alur Laut",
    "amenity": "marketplace",
    "name": "Pasar Walang Baru",
    "id": "node/4248147940"
  },
  "geometry": {
    "type": "Point",
    "coordinates": [
      106.8990853,
      -6.126592
    ]
  }
},
{
  "type": "Feature",
  "id": "node/4248149532",
  "properties": {
    "addr:city": "Central Jakarta",
    "addr:postcode": "10340",
    "addr:street": "Jalan Menteng Raya",
    "amenity": "marketplace",
    "name": "Pasar Boplo Menteng",
    "id": "node/4248149532"
  },
  "geometry": {
    "type": "Point",
    "coordinates": [
      106.8355734,
      -6.1856403
    ]
  }
},
{
  "type": "Feature",
  "id": "node/4248150754",
  "properties": {
    "addr:city": "Tanjung Priok, North Jakarta",
    "addr:postcode": "14370",
    "addr:street": "Jl. Warakas 1",
    "amenity": "marketplace",
    "name": "Pasar Warakas",
    "id": "node/4248150754"
  },
  "geometry": {
    "type": "Point",
    "coordinates": [
      106.8785023,
      -6.1163023
    ]
  }
},
{
  "type": "Feature",
  "id": "node/4248155973",
  "properties": {
    "addr:city": "Koja, North Jakarta",
    "addr:postcode": "14260",
    "addr:street": "JL. Kramat Raya",
    "amenity": "marketplace",
    "name": "Pasar Tugu",
    "id": "node/4248155973"
  },
  "geometry": {
    "type": "Point",
    "coordinates": [
      106.9167764,
      -6.1155307
    ]
  }
},
{
  "type": "Feature",
  "id": "node/4248161335",
  "properties": {
    "addr:city": "Sunter, North Jakarta",
    "addr:postcode": "14350",
    "addr:street": "Jl. Sunter Karya Utara II",
    "amenity": "marketplace",
    "name": "Pasar Sunter DKI",
    "id": "node/4248161335"
  },
  "geometry": {
    "type": "Point",
    "coordinates": [
      106.8702215,
      -6.1391247
    ]
  }
},
{
  "type": "Feature",
  "id": "node/4248163887",
  "properties": {
    "addr:city": "Pademangan, North Jakarta",
    "addr:housenumber": "93",
    "addr:postcode": "14430",
    "addr:street": "Jl. Gerbang Ancol",
    "amenity": "marketplace",
    "name": "Pasar Seni Ancol",
    "id": "node/4248163887"
  },
  "geometry": {
    "type": "Point",
    "coordinates": [
      106.8389892,
      -6.1257413
    ]
  }
},
{
  "type": "Feature",
  "id": "node/4248172467",
  "properties": {
    "addr:city": "North Jakarta",
    "addr:postcode": "10620",
    "addr:street": "Rajawali Selatan Raya",
    "amenity": "marketplace",
    "name": "Pasar Jakarta Fair",
    "id": "node/4248172467"
  },
  "geometry": {
    "type": "Point",
    "coordinates": [
      106.8455368,
      -6.149475
    ]
  }
},
{
  "type": "Feature",
  "id": "node/4248172785",
  "properties": {
    "addr:city": "Taman Sari, West Jakarta",
    "addr:housenumber": "5",
    "addr:postcode": "11150",
    "addr:street": "Jalan Taman Sari",
    "amenity": "marketplace",
    "name": "Pasar Graha Auto",
    "id": "node/4248172785"
  },
  "geometry": {
    "type": "Point",
    "coordinates": [
      106.8271256,
      -6.1581827
    ]
  }
},
{
  "type": "Feature",
  "id": "node/4248177063",
  "properties": {
    "addr:city": "Penjaringan, North Jakarta",
    "addr:housenumber": "73",
    "addr:postcode": "14440",
    "addr:street": "Jl. Muara Baru Ujung",
    "amenity": "marketplace",
    "name": "Pasar Ikan Muara Baru",
    "id": "node/4248177063"
  },
  "geometry": {
    "type": "Point",
    "coordinates": [
      106.8021952,
      -6.109628
    ]
  }
},
{
  "type": "Feature",
  "id": "node/4248181832",
  "properties": {
    "addr:city": "Sawah Besar, Central Jakarta",
    "addr:housenumber": "9",
    "addr:postcode": "10720",
    "addr:street": "Jl. Gunung Sahari 7A",
    "amenity": "marketplace",
    "name": "Pasar Ikan Kartini Gunung Sahari",
    "id": "node/4248181832"
  },
  "geometry": {
    "type": "Point",
    "coordinates": [
      106.8404812,
      -6.157826
    ]
  }
},
{
  "type": "Feature",
  "id": "node/4248182973",
  "properties": {
    "addr:city": "West Jakarta",
    "addr:postcode": "11170",
    "addr:street": "Jalan Mangga Besar Raya",
    "amenity": "marketplace",
    "name": "Pasar Jembatan Merah",
    "id": "node/4248182973"
  },
  "geometry": {
    "type": "Point",
    "coordinates": [
      106.8256211,
      -6.1486801
    ]
  }
},
{
  "type": "Feature",
  "id": "node/4248190179",
  "properties": {
    "addr:city": "Tanjung Priok, North Jakarta",
    "addr:postcode": "14350",
    "addr:street": "Jl. Ancol Selatan",
    "amenity": "marketplace",
    "name": "Pasar Bambu Kuning",
    "id": "node/4248190179"
  },
  "geometry": {
    "type": "Point",
    "coordinates": [
      106.8565739,
      -6.1320345
    ]
  }
},
{
  "type": "Feature",
  "id": "node/4248193645",
  "properties": {
    "addr:city": "Central Jakarta",
    "addr:postcode": "10630",
    "addr:street": "Jalan Kali Baru Timur",
    "amenity": "marketplace",
    "name": "Pasar Kalibaru",
    "id": "node/4248193645"
  },
  "geometry": {
    "type": "Point",
    "coordinates": [
      106.8494057,
      -6.1677497
    ]
  }
},
{
  "type": "Feature",
  "id": "node/4248196827",
  "properties": {
    "addr:city": "Senen, Central Jakarta",
    "addr:postcode": "10440",
    "addr:street": "Jalan Salemba Raya",
    "amenity": "marketplace",
    "name": "Pasar Kenari Mas",
    "id": "node/4248196827"
  },
  "geometry": {
    "type": "Point",
    "coordinates": [
      106.8484327,
      -6.1928049
    ]
  }
},
{
  "type": "Feature",
  "id": "node/4248198928",
  "properties": {
    "addr:city": "North Jakarta",
    "addr:postcode": "14260",
    "addr:street": "Jalan Bhayangkara",
    "amenity": "marketplace",
    "name": "Pasar Koja Baru",
    "id": "node/4248198928"
  },
  "geometry": {
    "type": "Point",
    "coordinates": [
      106.9165657,
      -6.1217187
    ]
  }
},
{
  "type": "Feature",
  "id": "node/4248199191",
  "properties": {
    "addr:city": "Tambora, West Jakarta",
    "addr:postcode": "11220",
    "addr:street": "Jl. Toko Tiga/Perniagaan",
    "amenity": "marketplace",
    "name": "Pasar Perniagaan Tambora",
    "id": "node/4248199191"
  },
  "geometry": {
    "type": "Point",
    "coordinates": [
      106.8094655,
      -6.1416743
    ]
  }
},
{
  "type": "Feature",
  "id": "node/4248202044",
  "properties": {
    "addr:city": "Duri Kepa, West Jakarta",
    "addr:postcode": "11470",
    "addr:street": "Jalan Patra",
    "amenity": "marketplace",
    "name": "Pasar Patra",
    "id": "node/4248202044"
  },
  "geometry": {
    "type": "Point",
    "coordinates": [
      106.7798583,
      -6.1823913
    ]
  }
},
{
  "type": "Feature",
  "id": "node/4248206303",
  "properties": {
    "addr:city": "Tambora, West Jakarta",
    "addr:postcode": "11230",
    "addr:street": "Jl. Pintu Kecil",
    "amenity": "marketplace",
    "name": "Pasar Pagi Lama",
    "id": "node/4248206303"
  },
  "geometry": {
    "type": "Point",
    "coordinates": [
      106.8093136,
      -6.1383521
    ]
  }
},
{
  "type": "Feature",
  "id": "node/4248212168",
  "properties": {
    "addr:city": "central Jakarta",
    "addr:postcode": "10720",
    "addr:street": "Jalan Industri Raya",
    "amenity": "marketplace",
    "name": "Pasar Mobil Kemayoran",
    "id": "node/4248212168"
  },
  "geometry": {
    "type": "Point",
    "coordinates": [
      106.8440096,
      -6.1522029
    ]
  }
},
{
  "type": "Feature",
  "id": "node/4248215163",
  "properties": {
    "addr:city": "Kali Deres, West Jakarta",
    "addr:postcode": "11820",
    "addr:street": "Jl. Raya Menceng",
    "amenity": "marketplace",
    "name": "Pasar Menceng",
    "id": "node/4248215163"
  },
  "geometry": {
    "type": "Point",
    "coordinates": [
      106.7219178,
      -6.1263047
    ]
  }
},
{
  "type": "Feature",
  "id": "node/4248217783",
  "properties": {
    "addr:city": "Kalideres, West Jakarta",
    "addr:postcode": "11840",
    "addr:street": "Jl. Peta Selatan",
    "amenity": "marketplace",
    "name": "Pasar Kalideres",
    "id": "node/4248217783"
  },
  "geometry": {
    "type": "Point",
    "coordinates": [
      106.7038298,
      -6.152846
    ]
  }
},
{
  "type": "Feature",
  "id": "node/4248220532",
  "properties": {
    "addr:city": "Tambora, West Jakarta",
    "addr:postcode": "11250",
    "addr:street": "Jalan KH Moh. Mansyur",
    "amenity": "marketplace",
    "name": "Pasar Jembatan Lima",
    "id": "node/4248220532"
  },
  "geometry": {
    "type": "Point",
    "coordinates": [
      106.8067529,
      -6.1451507
    ]
  }
},
{
  "type": "Feature",
  "id": "node/4248226212",
  "properties": {
    "addr:city": "Grogol Petamburan, West Jakarta",
    "addr:postcode": "11460",
    "addr:street": "Jl. Pasar Inpres",
    "amenity": "marketplace",
    "name": "Pasar Jelambar Polri",
    "id": "node/4248226212"
  },
  "geometry": {
    "type": "Point",
    "coordinates": [
      106.7786504,
      -6.1605133
    ]
  }
},
{
  "type": "Feature",
  "id": "node/4248239213",
  "properties": {
    "addr:city": "Taman Sari, West Jakarta",
    "addr:postcode": "11180",
    "addr:street": "Jalan Gajah Mada",
    "amenity": "marketplace",
    "name": "Pasar Glodok",
    "id": "node/4248239213"
  },
  "geometry": {
    "type": "Point",
    "coordinates": [
      106.8145794,
      -6.1432114
    ]
  }
},
{
  "type": "Feature",
  "id": "node/4248244437",
  "properties": {
    "addr:city": "Cengkareng, West Jakarta",
    "addr:postcode": "11720",
    "addr:street": "Jl. Kapuk Darurat",
    "amenity": "marketplace",
    "name": "Pasar Darurat",
    "id": "node/4248244437"
  },
  "geometry": {
    "type": "Point",
    "coordinates": [
      106.751503,
      -6.1365358
    ]
  }
},
{
  "type": "Feature",
  "id": "node/4248249986",
  "properties": {
    "addr:city": "Kemayoran, Central Jakarta",
    "addr:postcode": "10640",
    "addr:street": "Jalan Serdang Raya",
    "amenity": "marketplace",
    "name": "Pasar Sumur Batu",
    "id": "node/4248249986"
  },
  "geometry": {
    "type": "Point",
    "coordinates": [
      106.8640906,
      -6.1646828
    ]
  }
},
{
  "type": "Feature",
  "id": "node/4248285163",
  "properties": {
    "addr:city": "east jakarta",
    "addr:postcode": "13910",
    "addr:street": "Bekasi Raya",
    "amenity": "marketplace",
    "name": "Pasar Cakung",
    "id": "node/4248285163"
  },
  "geometry": {
    "type": "Point",
    "coordinates": [
      106.9343672,
      -6.182774
    ]
  }
},
{
  "type": "Feature",
  "id": "node/4248304319",
  "properties": {
    "addr:city": "east jakarta",
    "addr:postcode": "13410",
    "addr:street": "Jalan Raya Kalimalang",
    "amenity": "marketplace",
    "name": "Pasar Ciplak",
    "id": "node/4248304319"
  },
  "geometry": {
    "type": "Point",
    "coordinates": [
      106.8806763,
      -6.2361065
    ]
  }
},
{
  "type": "Feature",
  "id": "node/4253819272",
  "properties": {
    "addr:city": "North Jakarta",
    "addr:postcode": "14450",
    "addr:street": "Pantai Indah Kapuk Boulevard",
    "amenity": "marketplace",
    "name": "Fresh Market PIK",
    "id": "node/4253819272"
  },
  "geometry": {
    "type": "Point",
    "coordinates": [
      106.7411425,
      -6.1031584
    ]
  }
},
{
  "type": "Feature",
  "id": "node/4255917339",
  "properties": {
    "addr:city": "North Jakarta",
    "addr:postcode": "14440",
    "addr:street": "Pantai Indah Kapuk Boulevard",
    "amenity": "marketplace",
    "name": "Hype Market",
    "id": "node/4255917339"
  },
  "geometry": {
    "type": "Point",
    "coordinates": [
      106.7377731,
      -6.1097378
    ]
  }
},
{
  "type": "Feature",
  "id": "node/4347149038",
  "properties": {
    "amenity": "marketplace",
    "name": "Indomaret Bidara Cina",
    "id": "node/4347149038"
  },
  "geometry": {
    "type": "Point",
    "coordinates": [
      106.8670762,
      -6.2289631
    ]
  }
},
{
  "type": "Feature",
  "id": "node/4800253260",
  "properties": {
    "addr:full": "Jalan Gang amal III",
    "amenity": "marketplace",
    "name": "pasar tradisional",
    "source": "survey",
    "id": "node/4800253260"
  },
  "geometry": {
    "type": "Point",
    "coordinates": [
      106.8146181,
      -6.2452331
    ]
  }
},
{
  "type": "Feature",
  "id": "node/4800526390",
  "properties": {
    "addr:full": "Jalan Pasangan Baru Tengah Raya",
    "amenity": "marketplace",
    "name": "Pasar Jangkrik",
    "source": "Hot_InaWARESurvey_2017",
    "id": "node/4800526390"
  },
  "geometry": {
    "type": "Point",
    "coordinates": [
      106.866686,
      -6.2104411
    ]
  }
},
{
  "type": "Feature",
  "id": "node/4806851768",
  "properties": {
    "addr:full": "Jalan Bangka IX c",
    "amenity": "marketplace",
    "building": "marketplace",
    "building:condition": "good",
    "building:floor": "cement",
    "building:levels": "1",
    "building:roof": "asbestos",
    "building:structure": "confined_masonry",
    "building:walls": "brick",
    "capacity:persons": "50-100",
    "name": "Pasar Bangka",
    "source": "survey",
    "id": "node/4806851768"
  },
  "geometry": {
    "type": "Point",
    "coordinates": [
      106.8226647,
      -6.2533666
    ]
  }
}
]
}
