{
"type": "FeatureCollection",
"features": [
{
  "type": "Feature",
  "id": "way/300706381",
  "properties": {
    "amenity": "marketplace",
    "id": "way/300706381"
  },
  "geometry": {
    "type": "Point",
    "coordinates": [
      -6.5185647,
      34.2263558
    ]
  }
},
{
  "type": "Feature",
  "id": "way/454568426",
  "properties": {
    "amenity": "marketplace",
    "building": "yes",
    "name": "Souq Tidass",
    "id": "way/454568426"
  },
  "geometry": {
    "type": "Point",
    "coordinates": [
      -6.6133727,
      34.2586194
    ]
  }
},
{
  "type": "Feature",
  "id": "way/455837599",
  "properties": {
    "amenity": "marketplace",
    "building": "yes",
    "name": "Souq Al Houria",
    "name:ar": "سوق الحرية",
    "id": "way/455837599"
  },
  "geometry": {
    "type": "Point",
    "coordinates": [
      -6.5649017,
      34.2603978
    ]
  }
},
{
  "type": "Feature",
  "id": "way/455838335",
  "properties": {
    "amenity": "marketplace",
    "building": "yes",
    "name": "Souq Al Hofra",
    "id": "way/455838335"
  },
  "geometry": {
    "type": "Point",
    "coordinates": [
      -6.5579337,
      34.266367
    ]
  }
},
{
  "type": "Feature",
  "id": "way/479567926",
  "properties": {
    "amenity": "marketplace",
    "building": "yes",
    "id": "way/479567926"
  },
  "geometry": {
    "type": "Point",
    "coordinates": [
      -6.564371,
      34.2605132
    ]
  }
},
{
  "type": "Feature",
  "id": "node/4499158196",
  "properties": {
    "amenity": "marketplace",
    "name": "سوق سمك بتقسيط ميناء مهدية",
    "id": "node/4499158196"
  },
  "geometry": {
    "type": "Point",
    "coordinates": [
      -6.6562289,
      34.2666536
    ]
  }
},
{
  "type": "Feature",
  "id": "node/4499239679",
  "properties": {
    "amenity": "marketplace",
    "name": "Souq",
    "id": "node/4499239679"
  },
  "geometry": {
    "type": "Point",
    "coordinates": [
      -6.5934849,
      34.2621459
    ]
  }
},
{
  "type": "Feature",
  "id": "node/4499242133",
  "properties": {
    "amenity": "marketplace",
    "name": "Souq",
    "id": "node/4499242133"
  },
  "geometry": {
    "type": "Point",
    "coordinates": [
      -6.624184,
      34.2540804
    ]
  }
},
{
  "type": "Feature",
  "id": "node/4659781226",
  "properties": {
    "amenity": "marketplace",
    "name": "Souq Sebta",
    "id": "node/4659781226"
  },
  "geometry": {
    "type": "Point",
    "coordinates": [
      -6.5647024,
      34.2642335
    ]
  }
},
{
  "type": "Feature",
  "id": "node/4661014857",
  "properties": {
    "amenity": "marketplace",
    "name": "Marché Centrale",
    "name:fr": "Marché central.",
    "id": "node/4661014857"
  },
  "geometry": {
    "type": "Point",
    "coordinates": [
      -6.5850566,
      34.2635987
    ]
  }
}
]
}
