{
"type": "FeatureCollection",
"features": [
{
  "type": "Feature",
  "id": "way/251018734",
  "properties": {
    "addr:city": "Libreville",
    "addr:street": "Boulevard de l'Independance",
    "amenity": "hospital",
    "name": "Fondation Hôpital Jeanne Ebori",
    "id": "way/251018734"
  },
  "geometry": {
    "type": "Point",
    "coordinates": [
      9.4336078,
      0.4066752
    ]
  }
},
{
  "type": "Feature",
  "id": "way/251604749",
  "properties": {
    "amenity": "hospital",
    "emergency": "no",
    "name": "Nkembo Hospital",
    "name:fr": "Hopital de Nkembo",
    "id": "way/251604749"
  },
  "geometry": {
    "type": "Point",
    "coordinates": [
      9.4568891,
      0.4105421
    ]
  }
},
{
  "type": "Feature",
  "id": "way/410296774",
  "properties": {
    "addr:city": "Libreville",
    "amenity": "hospital",
    "emergency": "yes",
    "level": "1",
    "name": "Centre médical",
    "operator": "CNOU",
    "id": "way/410296774"
  },
  "geometry": {
    "type": "Point",
    "coordinates": [
      9.4438653,
      0.4185097
    ]
  }
},
{
  "type": "Feature",
  "id": "way/410356077",
  "properties": {
    "addr:city": "Libreville",
    "addr:street": "Felix Eboube Avenue",
    "amenity": "hospital",
    "description": "Centre Hospitalier Universitaire",
    "emergency": "yes",
    "name": "CHU de Libreville",
    "operator": "Ministère de la santé",
    "source": "BEDE Parfaittt",
    "id": "way/410356077"
  },
  "geometry": {
    "type": "Point",
    "coordinates": [
      9.4478692,
      0.3919825
    ]
  }
},
{
  "type": "Feature",
  "id": "way/413903267",
  "properties": {
    "addr:city": "Libreville",
    "amenity": "hospital",
    "name": "Hôpital d'Instruction des armées",
    "id": "way/413903267"
  },
  "geometry": {
    "type": "Point",
    "coordinates": [
      9.5058848,
      0.4072415
    ]
  }
},
{
  "type": "Feature",
  "id": "node/1252292649",
  "properties": {
    "amenity": "hospital",
    "name": "Military Hospital",
    "id": "node/1252292649"
  },
  "geometry": {
    "type": "Point",
    "coordinates": [
      9.5050457,
      0.4069683
    ]
  }
},
{
  "type": "Feature",
  "id": "node/3179776916",
  "properties": {
    "amenity": "hospital",
    "name": "Hopital général",
    "id": "node/3179776916"
  },
  "geometry": {
    "type": "Point",
    "coordinates": [
      9.446511,
      0.3911432
    ]
  }
},
{
  "type": "Feature",
  "id": "node/3678077746",
  "properties": {
    "addr:city": "Owendo",
    "amenity": "hospital",
    "name": "CHUO",
    "id": "node/3678077746"
  },
  "geometry": {
    "type": "Point",
    "coordinates": [
      9.4834246,
      0.3380794
    ]
  }
},
{
  "type": "Feature",
  "id": "node/4075762147",
  "properties": {
    "amenity": "hospital",
    "name": "S.O.S Medecin",
    "id": "node/4075762147"
  },
  "geometry": {
    "type": "Point",
    "coordinates": [
      9.4529731,
      0.4176536
    ]
  }
},
{
  "type": "Feature",
  "id": "node/4121837395",
  "properties": {
    "addr:city": "Libreville",
    "addr:street": "Montagne Sainte",
    "amenity": "hospital",
    "description": "Clinique privée",
    "emergency": "yes",
    "name": "Clinique Chambrier",
    "operator": "Dr Chambrier",
    "id": "node/4121837395"
  },
  "geometry": {
    "type": "Point",
    "coordinates": [
      9.4455026,
      0.3970606
    ]
  }
},
{
  "type": "Feature",
  "id": "node/4121844946",
  "properties": {
    "addr:city": "Libreville",
    "addr:street": "Montagne Sainte",
    "amenity": "hospital",
    "description": "Clinique privée",
    "emergency": "yes",
    "name": "Clinique Biyoghe",
    "operator": "Dr Biyoghe",
    "id": "node/4121844946"
  },
  "geometry": {
    "type": "Point",
    "coordinates": [
      9.4423489,
      0.3970097
    ]
  }
},
{
  "type": "Feature",
  "id": "node/4121875057",
  "properties": {
    "addr:city": "Libreville",
    "addr:street": "Batterie IV",
    "amenity": "hospital",
    "description": "Clinique privée",
    "name": "Clinique",
    "id": "node/4121875057"
  },
  "geometry": {
    "type": "Point",
    "coordinates": [
      9.4265547,
      0.4162191
    ]
  }
},
{
  "type": "Feature",
  "id": "node/4121875263",
  "properties": {
    "addr:city": "Libreville",
    "addr:street": "Batterie IV",
    "amenity": "hospital",
    "description": "Clinique privée",
    "name": "Clinique du Litoral",
    "id": "node/4121875263"
  },
  "geometry": {
    "type": "Point",
    "coordinates": [
      9.426046,
      0.4168963
    ]
  }
},
{
  "type": "Feature",
  "id": "node/4121893797",
  "properties": {
    "addr:city": "Libreville",
    "addr:street": "Sobraga",
    "amenity": "hospital",
    "emergency": "yes",
    "name": "Clinique Union Médicale",
    "id": "node/4121893797"
  },
  "geometry": {
    "type": "Point",
    "coordinates": [
      9.4493847,
      0.4204724
    ]
  }
}
]
}
