{
"type": "FeatureCollection",
"features": [
{
  "type": "Feature",
  "id": "way/399973349",
  "properties": {
    "amenity": "townhall",
    "building": "yes",
    "name": "COMMUNE URBAINE de MAROUA I",
    "id": "way/399973349"
  },
  "geometry": {
    "type": "Point",
    "coordinates": [
      14.3139296,
      10.6032134
    ]
  }
},
{
  "type": "Feature",
  "id": "way/400004822",
  "properties": {
    "amenity": "townhall",
    "building": "yes",
    "name": "Mairie de Maroua 3",
    "source": "Plan polyvalent Maroua",
    "id": "way/400004822"
  },
  "geometry": {
    "type": "Point",
    "coordinates": [
      14.337727,
      10.6036843
    ]
  }
},
{
  "type": "Feature",
  "id": "way/416118856",
  "properties": {
    "amenity": "townhall",
    "building": "yes",
    "name": "Communaut√© urbaine de Maroua 1er",
    "id": "way/416118856"
  },
  "geometry": {
    "type": "Point",
    "coordinates": [
      14.3054103,
      10.5869909
    ]
  }
},
{
  "type": "Feature",
  "id": "way/416168891",
  "properties": {
    "amenity": "townhall",
    "building": "yes",
    "name": "Nouvelle Mairie de Maroua",
    "id": "way/416168891"
  },
  "geometry": {
    "type": "Point",
    "coordinates": [
      14.3345562,
      10.6121757
    ]
  }
},
{
  "type": "Feature",
  "id": "node/2162428395",
  "properties": {
    "amenity": "townhall",
    "id": "node/2162428395"
  },
  "geometry": {
    "type": "Point",
    "coordinates": [
      14.2928213,
      10.5885126
    ]
  }
}
]
}
