{
"type": "FeatureCollection",
"features": [
{
  "type": "Feature",
  "id": "way/307416672",
  "properties": {
    "amenity": "hospital",
    "emergency": "no",
    "name": "Centre de santé - Takadoum",
    "id": "way/307416672"
  },
  "geometry": {
    "type": "Point",
    "coordinates": [
      -5.5767676,
      33.8841387
    ]
  }
},
{
  "type": "Feature",
  "id": "way/308237853",
  "properties": {
    "amenity": "hospital",
    "emergency": "yes",
    "name": "Mohemed V",
    "id": "way/308237853"
  },
  "geometry": {
    "type": "Point",
    "coordinates": [
      -5.5403272,
      33.9038339
    ]
  }
},
{
  "type": "Feature",
  "id": "way/315392072",
  "properties": {
    "amenity": "hospital",
    "name": "Hôpital Hay Salam مستشفى حي السلام",
    "name:ar": "مستشفى حي السلام",
    "name:fr": "Hôpital Hay Salam",
    "id": "way/315392072"
  },
  "geometry": {
    "type": "Point",
    "coordinates": [
      -5.583789,
      33.8954854
    ]
  }
},
{
  "type": "Feature",
  "id": "way/315799098",
  "properties": {
    "addr:city": "Meknès مكناس",
    "amenity": "hospital",
    "name": "مستشفى سيدي بابا",
    "name:fr": "Hôpital Sidi Baba",
    "id": "way/315799098"
  },
  "geometry": {
    "type": "Point",
    "coordinates": [
      -5.5774214,
      33.912047
    ]
  }
},
{
  "type": "Feature",
  "id": "way/315802633",
  "properties": {
    "amenity": "hospital",
    "name": "La croix rouge",
    "id": "way/315802633"
  },
  "geometry": {
    "type": "Point",
    "coordinates": [
      -5.5772441,
      33.901974
    ]
  }
},
{
  "type": "Feature",
  "id": "way/315802635",
  "properties": {
    "amenity": "hospital",
    "id": "way/315802635"
  },
  "geometry": {
    "type": "Point",
    "coordinates": [
      -5.5783818,
      33.9029552
    ]
  }
},
{
  "type": "Feature",
  "id": "node/4000042770",
  "properties": {
    "amenity": "hospital",
    "name": "Hôpital Militaire Moulay Ismail",
    "id": "node/4000042770"
  },
  "geometry": {
    "type": "Point",
    "coordinates": [
      -5.5240615,
      33.889071
    ]
  }
},
{
  "type": "Feature",
  "id": "node/4356630092",
  "properties": {
    "amenity": "hospital",
    "id": "node/4356630092"
  },
  "geometry": {
    "type": "Point",
    "coordinates": [
      -5.5602143,
      33.8778796
    ]
  }
},
{
  "type": "Feature",
  "id": "node/4360600289",
  "properties": {
    "amenity": "hospital",
    "id": "node/4360600289"
  },
  "geometry": {
    "type": "Point",
    "coordinates": [
      -5.4871047,
      33.7497368
    ]
  }
},
{
  "type": "Feature",
  "id": "node/4769756650",
  "properties": {
    "amenity": "hospital",
    "building": "yes",
    "name": "hôpital Sidi Said",
    "name:ar": "مستشفى سيدي سعيد",
    "id": "node/4769756650"
  },
  "geometry": {
    "type": "Point",
    "coordinates": [
      -5.5771889,
      33.8928715
    ]
  }
}
]
}
