{
"type": "FeatureCollection",
"features": [
{
  "type": "Feature",
  "id": "relation/4459538",
  "properties": {
    "amenity": "marketplace",
    "building": "yes",
    "name": "Al Gazzara",
    "name:en": "Butchers",
    "name:fr": "Boucheries",
    "type": "multipolygon",
    "id": "relation/4459538"
  },
  "geometry": {
    "type": "Point",
    "coordinates": [
      -1.9109299,
      34.6794858
    ]
  }
},
{
  "type": "Feature",
  "id": "relation/6711808",
  "properties": {
    "amenity": "marketplace",
    "building": "yes",
    "name": "Kissariat Bienfaisance",
    "type": "multipolygon",
    "id": "relation/6711808"
  },
  "geometry": {
    "type": "Point",
    "coordinates": [
      -1.9322278,
      34.6741322
    ]
  }
},
{
  "type": "Feature",
  "id": "way/289100462",
  "properties": {
    "amenity": "marketplace",
    "building": "yes",
    "name": "Aswak Al Maghreb Al Arabi",
    "id": "way/289100462"
  },
  "geometry": {
    "type": "Point",
    "coordinates": [
      -1.9099119,
      34.6818105
    ]
  }
},
{
  "type": "Feature",
  "id": "way/293305514",
  "properties": {
    "amenity": "marketplace",
    "building": "yes",
    "name": "Souk Sidi Abdelwahab",
    "id": "way/293305514"
  },
  "geometry": {
    "type": "Point",
    "coordinates": [
      -1.9096752,
      34.6810805
    ]
  }
},
{
  "type": "Feature",
  "id": "way/293728153",
  "properties": {
    "amenity": "marketplace",
    "building": "yes",
    "name": "Souk Sidi Yahya",
    "id": "way/293728153"
  },
  "geometry": {
    "type": "Point",
    "coordinates": [
      -1.8675055,
      34.6617025
    ]
  }
},
{
  "type": "Feature",
  "id": "way/305940443",
  "properties": {
    "amenity": "marketplace",
    "building": "yes",
    "name": "Marché de Gros aux Poissons",
    "name:fr": "Marché de Gros aux Poissons",
    "id": "way/305940443"
  },
  "geometry": {
    "type": "Point",
    "coordinates": [
      -1.9153089,
      34.7020598
    ]
  }
},
{
  "type": "Feature",
  "id": "way/316627000",
  "properties": {
    "amenity": "marketplace",
    "building": "yes",
    "name": "Souk Lazaret",
    "id": "way/316627000"
  },
  "geometry": {
    "type": "Point",
    "coordinates": [
      -1.8829321,
      34.6806162
    ]
  }
},
{
  "type": "Feature",
  "id": "way/317589132",
  "properties": {
    "amenity": "marketplace",
    "building": "yes",
    "name": "Marché De Poisson",
    "id": "way/317589132"
  },
  "geometry": {
    "type": "Point",
    "coordinates": [
      -1.8875844,
      34.6795542
    ]
  }
},
{
  "type": "Feature",
  "id": "way/319649666",
  "properties": {
    "amenity": "marketplace",
    "building": "yes",
    "name": "Marché aux Legumes",
    "id": "way/319649666"
  },
  "geometry": {
    "type": "Point",
    "coordinates": [
      -1.9185519,
      34.7018483
    ]
  }
},
{
  "type": "Feature",
  "id": "way/319868868",
  "properties": {
    "amenity": "marketplace",
    "building": "yes",
    "id": "way/319868868"
  },
  "geometry": {
    "type": "Point",
    "coordinates": [
      -1.8880214,
      34.7004383
    ]
  }
},
{
  "type": "Feature",
  "id": "way/320730271",
  "properties": {
    "amenity": "marketplace",
    "name": "Al Hidaya",
    "opening_hours": "8:00 to 18:00",
    "id": "way/320730271"
  },
  "geometry": {
    "type": "Point",
    "coordinates": [
      -1.8924818,
      34.6614866
    ]
  }
},
{
  "type": "Feature",
  "id": "way/320731253",
  "properties": {
    "amenity": "marketplace",
    "name": "Kissariat Al Firdaws",
    "id": "way/320731253"
  },
  "geometry": {
    "type": "Point",
    "coordinates": [
      -1.8853563,
      34.6655242
    ]
  }
},
{
  "type": "Feature",
  "id": "way/328371830",
  "properties": {
    "amenity": "marketplace",
    "area": "yes",
    "name": "Souk Ennasr",
    "id": "way/328371830"
  },
  "geometry": {
    "type": "Point",
    "coordinates": [
      -1.8871586,
      34.7129329
    ]
  }
},
{
  "type": "Feature",
  "id": "way/354090768",
  "properties": {
    "amenity": "marketplace",
    "area": "yes",
    "id": "way/354090768"
  },
  "geometry": {
    "type": "Point",
    "coordinates": [
      -1.9319711,
      34.6757308
    ]
  }
},
{
  "type": "Feature",
  "id": "way/356919793",
  "properties": {
    "amenity": "marketplace",
    "building": "yes",
    "name": "Souk Al Fallah",
    "id": "way/356919793"
  },
  "geometry": {
    "type": "Point",
    "coordinates": [
      -1.9046821,
      34.6808876
    ]
  }
},
{
  "type": "Feature",
  "id": "way/356924544",
  "properties": {
    "amenity": "marketplace",
    "building": "yes",
    "name": "Souk Allil",
    "name:ar": "سوق الليل",
    "id": "way/356924544"
  },
  "geometry": {
    "type": "Point",
    "coordinates": [
      -1.8997394,
      34.6799093
    ]
  }
},
{
  "type": "Feature",
  "id": "way/360313923",
  "properties": {
    "amenity": "marketplace",
    "area": "yes",
    "name": "Marché De Légumes",
    "name:ar": "سوق الخضر",
    "id": "way/360313923"
  },
  "geometry": {
    "type": "Point",
    "coordinates": [
      -1.8635795,
      34.6702382
    ]
  }
},
{
  "type": "Feature",
  "id": "way/442593383",
  "properties": {
    "amenity": "marketplace",
    "name": "Souk El Khoudra",
    "opening_hours": "Dimanche",
    "id": "way/442593383"
  },
  "geometry": {
    "type": "Point",
    "coordinates": [
      -1.9163518,
      34.7122164
    ]
  }
},
{
  "type": "Feature",
  "id": "way/442593384",
  "properties": {
    "amenity": "marketplace",
    "name": "Marché des Moutons",
    "id": "way/442593384"
  },
  "geometry": {
    "type": "Point",
    "coordinates": [
      -1.9138304,
      34.7127935
    ]
  }
},
{
  "type": "Feature",
  "id": "way/442593385",
  "properties": {
    "amenity": "marketplace",
    "name": "Souk El Had",
    "opening_hours": "Dimanche",
    "id": "way/442593385"
  },
  "geometry": {
    "type": "Point",
    "coordinates": [
      -1.9129668,
      34.712013
    ]
  }
},
{
  "type": "Feature",
  "id": "way/465342137",
  "properties": {
    "amenity": "marketplace",
    "building": "yes",
    "id": "way/465342137"
  },
  "geometry": {
    "type": "Point",
    "coordinates": [
      -1.9043372,
      34.6832888
    ]
  }
},
{
  "type": "Feature",
  "id": "node/2926448727",
  "properties": {
    "amenity": "marketplace",
    "name": "Souk Al Qods",
    "id": "node/2926448727"
  },
  "geometry": {
    "type": "Point",
    "coordinates": [
      -1.9084975,
      34.680695
    ]
  }
},
{
  "type": "Feature",
  "id": "node/2951545280",
  "properties": {
    "amenity": "marketplace",
    "name": "Marché Al Massira",
    "id": "node/2951545280"
  },
  "geometry": {
    "type": "Point",
    "coordinates": [
      -1.9187711,
      34.7002352
    ]
  }
},
{
  "type": "Feature",
  "id": "node/3269757414",
  "properties": {
    "amenity": "marketplace",
    "name": "Souk Des Bijoux",
    "id": "node/3269757414"
  },
  "geometry": {
    "type": "Point",
    "coordinates": [
      -1.9142511,
      34.6807916
    ]
  }
},
{
  "type": "Feature",
  "id": "node/3269780654",
  "properties": {
    "amenity": "marketplace",
    "name": "Souk De Dattes",
    "name:en": "Marketplace of Dates",
    "name:fr": "Souk De Dattes",
    "id": "node/3269780654"
  },
  "geometry": {
    "type": "Point",
    "coordinates": [
      -1.9105684,
      34.679874
    ]
  }
}
]
}
