{
"type": "FeatureCollection",
"features": [
{
  "type": "Feature",
  "id": "way/306089485",
  "properties": {
    "amenity": "hospital",
    "area": "yes",
    "name": "Hôpital El Farabi",
    "name:fr": "Hôpital El Farabi",
    "id": "way/306089485"
  },
  "geometry": {
    "type": "Point",
    "coordinates": [
      -1.914488,
      34.6755048
    ]
  }
},
{
  "type": "Feature",
  "id": "way/306127863",
  "properties": {
    "amenity": "hospital",
    "area": "yes",
    "name": "Centre Hospitalier Universitaire (CHU) Mohammed VI",
    "name:fr": "Centre Hospitalier Universitaire (CHU) Mohammed VI",
    "id": "way/306127863"
  },
  "geometry": {
    "type": "Point",
    "coordinates": [
      -1.910779,
      34.6562437
    ]
  }
},
{
  "type": "Feature",
  "id": "way/319795112",
  "properties": {
    "amenity": "hospital",
    "name": "Centre de Santé Lamharchi",
    "id": "way/319795112"
  },
  "geometry": {
    "type": "Point",
    "coordinates": [
      -1.9356027,
      34.6778842
    ]
  }
},
{
  "type": "Feature",
  "id": "way/322172160",
  "properties": {
    "amenity": "hospital",
    "name": "Polyclinique CNSS",
    "id": "way/322172160"
  },
  "geometry": {
    "type": "Point",
    "coordinates": [
      -1.9113664,
      34.6700246
    ]
  }
},
{
  "type": "Feature",
  "id": "way/322579233",
  "properties": {
    "addr:city": "Oujda",
    "addr:housenumber": "12",
    "addr:street": "Rue Abdelaziz Taalibi",
    "amenity": "hospital",
    "name": "Clinique Isly",
    "phone": "+212 536700701",
    "id": "way/322579233"
  },
  "geometry": {
    "type": "Point",
    "coordinates": [
      -1.925882,
      34.6729664
    ]
  }
},
{
  "type": "Feature",
  "id": "way/323165500",
  "properties": {
    "amenity": "hospital",
    "name": "L'Hôpital des Maladies Psychiatriques",
    "id": "way/323165500"
  },
  "geometry": {
    "type": "Point",
    "coordinates": [
      -1.8906515,
      34.6800227
    ]
  }
},
{
  "type": "Feature",
  "id": "way/324065524",
  "properties": {
    "amenity": "hospital",
    "health_facility_type": "health_center",
    "name": "Centre Mehdi Ibn Toumart",
    "name:ar": "مركز المهدي ابن تومرت",
    "id": "way/324065524"
  },
  "geometry": {
    "type": "Point",
    "coordinates": [
      -1.9020136,
      34.7913823
    ]
  }
},
{
  "type": "Feature",
  "id": "way/391290733",
  "properties": {
    "amenity": "hospital",
    "health_facility:type": "dispensary",
    "name": "Dispensaire El Aounia مستوصف العونية",
    "name:ar": "مستوصف العونية",
    "name:fr": "Dispensaire El Aounia",
    "id": "way/391290733"
  },
  "geometry": {
    "type": "Point",
    "coordinates": [
      -1.9007217,
      34.6883068
    ]
  }
},
{
  "type": "Feature",
  "id": "way/412853238",
  "properties": {
    "amenity": "hospital",
    "name": "Hopital de Oncologie",
    "id": "way/412853238"
  },
  "geometry": {
    "type": "Point",
    "coordinates": [
      -1.9839779,
      34.6250716
    ]
  }
}
]
}
