{
"type": "FeatureCollection",
"features": [
{
  "type": "Feature",
  "id": "way/150302956",
  "properties": {
    "amenity": "marketplace",
    "name": "Marché Central",
    "id": "way/150302956"
  },
  "geometry": {
    "type": "Point",
    "coordinates": [
      -6.7449392,
      33.9994113
    ]
  }
},
{
  "type": "Feature",
  "id": "way/201875009",
  "properties": {
    "amenity": "marketplace",
    "name": "Marché de légumes au gros",
    "id": "way/201875009"
  },
  "geometry": {
    "type": "Point",
    "coordinates": [
      -6.7983816,
      34.0620062
    ]
  }
},
{
  "type": "Feature",
  "id": "way/250351574",
  "properties": {
    "amenity": "marketplace",
    "building": "yes",
    "name": "Marché d'El Karia",
    "id": "way/250351574"
  },
  "geometry": {
    "type": "Point",
    "coordinates": [
      -6.7664433,
      34.0212811
    ]
  }
},
{
  "type": "Feature",
  "id": "way/250617826",
  "properties": {
    "amenity": "marketplace",
    "building": "yes",
    "name": "Nouveau Marché d'El Karia",
    "id": "way/250617826"
  },
  "geometry": {
    "type": "Point",
    "coordinates": [
      -6.7638059,
      34.0133479
    ]
  }
},
{
  "type": "Feature",
  "id": "way/291688668",
  "properties": {
    "amenity": "marketplace",
    "area": "yes",
    "name": "Marché désorganisé سوق غير منظم",
    "name:ar": "سوق غير منظم",
    "name:fr": "Marché désorganisé",
    "id": "way/291688668"
  },
  "geometry": {
    "type": "Point",
    "coordinates": [
      -6.7725846,
      34.0651624
    ]
  }
},
{
  "type": "Feature",
  "id": "way/302803613",
  "properties": {
    "amenity": "marketplace",
    "id": "way/302803613"
  },
  "geometry": {
    "type": "Point",
    "coordinates": [
      -6.9315147,
      33.8582667
    ]
  }
},
{
  "type": "Feature",
  "id": "way/304071559",
  "properties": {
    "amenity": "marketplace",
    "building": "yes",
    "name": "Marché youssoufia",
    "id": "way/304071559"
  },
  "geometry": {
    "type": "Point",
    "coordinates": [
      -6.8152412,
      33.9974342
    ]
  }
},
{
  "type": "Feature",
  "id": "way/306553474",
  "properties": {
    "amenity": "marketplace",
    "name": "Marché sidi moussa",
    "id": "way/306553474"
  },
  "geometry": {
    "type": "Point",
    "coordinates": [
      -6.8195463,
      34.0537937
    ]
  }
},
{
  "type": "Feature",
  "id": "way/391694169",
  "properties": {
    "amenity": "marketplace",
    "id": "way/391694169"
  },
  "geometry": {
    "type": "Point",
    "coordinates": [
      -6.9510647,
      33.8984691
    ]
  }
},
{
  "type": "Feature",
  "id": "way/449346484",
  "properties": {
    "amenity": "marketplace",
    "name": "Yacoub Al Mansour",
    "id": "way/449346484"
  },
  "geometry": {
    "type": "Point",
    "coordinates": [
      -6.8671423,
      34.0059748
    ]
  }
},
{
  "type": "Feature",
  "id": "node/2424534548",
  "properties": {
    "amenity": "marketplace",
    "id": "node/2424534548"
  },
  "geometry": {
    "type": "Point",
    "coordinates": [
      -6.8464428,
      34.0001732
    ]
  }
},
{
  "type": "Feature",
  "id": "node/2429247936",
  "properties": {
    "amenity": "marketplace",
    "id": "node/2429247936"
  },
  "geometry": {
    "type": "Point",
    "coordinates": [
      -6.846883,
      33.994675
    ]
  }
},
{
  "type": "Feature",
  "id": "node/4743522441",
  "properties": {
    "amenity": "marketplace",
    "name": "Marché G5",
    "id": "node/4743522441"
  },
  "geometry": {
    "type": "Point",
    "coordinates": [
      -6.8850031,
      33.9767975
    ]
  }
}
]
}
