{
"type": "FeatureCollection",
"features": [
{
  "type": "Feature",
  "id": "way/196942859",
  "properties": {
    "amenity": "marketplace",
    "name": "Mercado Cristo Rey",
    "id": "way/196942859"
  },
  "geometry": {
    "type": "Point",
    "coordinates": [
      -69.9258004,
      18.5007833
    ]
  }
},
{
  "type": "Feature",
  "id": "way/214171437",
  "properties": {
    "amenity": "marketplace",
    "building": "yes",
    "name": "Plaza Isabel Aguiar",
    "source": "KG Ground Survey 2016",
    "id": "way/214171437"
  },
  "geometry": {
    "type": "Point",
    "coordinates": [
      -69.9711702,
      18.4757944
    ]
  }
},
{
  "type": "Feature",
  "id": "way/214171438",
  "properties": {
    "amenity": "marketplace",
    "building": "yes",
    "name": "Plaza Lama",
    "source": "KG Ground Survey 2016",
    "id": "way/214171438"
  },
  "geometry": {
    "type": "Point",
    "coordinates": [
      -69.9711622,
      18.4752023
    ]
  }
},
{
  "type": "Feature",
  "id": "way/224105026",
  "properties": {
    "amenity": "marketplace",
    "name": "Mercado de Los Mina",
    "id": "way/224105026"
  },
  "geometry": {
    "type": "Point",
    "coordinates": [
      -69.8654585,
      18.5033218
    ]
  }
},
{
  "type": "Feature",
  "id": "way/305181834",
  "properties": {
    "amenity": "marketplace",
    "building": "yes",
    "name": "Mercado Villa Consuelo",
    "id": "way/305181834"
  },
  "geometry": {
    "type": "Point",
    "coordinates": [
      -69.8985738,
      18.4874021
    ]
  }
},
{
  "type": "Feature",
  "id": "way/309620499",
  "properties": {
    "addr:city": "Pedro Brand",
    "addr:street": "Carretera a Merca Santo Domingo",
    "amenity": "marketplace",
    "name": "Merca Santo Domingo",
    "operator": "Promefrim",
    "source": "KG Ground Survey 2016",
    "id": "way/309620499"
  },
  "geometry": {
    "type": "Point",
    "coordinates": [
      -70.0227129,
      18.5668043
    ]
  }
},
{
  "type": "Feature",
  "id": "way/344112802",
  "properties": {
    "addr:street": "Avenida La Pista",
    "amenity": "marketplace",
    "name": "Mercado El Almirante, Los Productores",
    "name:es": "Mercado Municipal El Almirante, Los Productores",
    "id": "way/344112802"
  },
  "geometry": {
    "type": "Point",
    "coordinates": [
      -69.8148676,
      18.5321068
    ]
  }
},
{
  "type": "Feature",
  "id": "way/347617635",
  "properties": {
    "amenity": "marketplace",
    "name": "Mercado Quita y pon",
    "name_1": "Mercado Calle 10",
    "source": "KG Ground Survey 2016",
    "id": "way/347617635"
  },
  "geometry": {
    "type": "Point",
    "coordinates": [
      -69.8923958,
      18.5042268
    ]
  }
},
{
  "type": "Feature",
  "id": "way/371199516",
  "properties": {
    "amenity": "marketplace",
    "building": "yes",
    "id": "way/371199516"
  },
  "geometry": {
    "type": "Point",
    "coordinates": [
      -69.8905966,
      18.4840524
    ]
  }
},
{
  "type": "Feature",
  "id": "way/371199517",
  "properties": {
    "amenity": "marketplace",
    "building": "yes",
    "id": "way/371199517"
  },
  "geometry": {
    "type": "Point",
    "coordinates": [
      -69.8902081,
      18.4843231
    ]
  }
},
{
  "type": "Feature",
  "id": "way/371199518",
  "properties": {
    "amenity": "marketplace",
    "building": "yes",
    "name": "Plaza de buhoneros Josè Martí",
    "name:es": "Plaza de buhoneros Josè Martí",
    "id": "way/371199518"
  },
  "geometry": {
    "type": "Point",
    "coordinates": [
      -69.8902529,
      18.4839646
    ]
  }
},
{
  "type": "Feature",
  "id": "way/408644548",
  "properties": {
    "addr:street": "Avenida Penetración",
    "amenity": "marketplace",
    "building": "yes",
    "name": "Mercadito Wendy",
    "source": "KG Ground Survey 2016",
    "id": "way/408644548"
  },
  "geometry": {
    "type": "Point",
    "coordinates": [
      -69.9056771,
      18.529749
    ]
  }
},
{
  "type": "Feature",
  "id": "way/411476137",
  "properties": {
    "addr:city": "Santo Domingo",
    "addr:housename": "Ferquido",
    "addr:housenumber": "Avenida Luperon",
    "addr:street": "Avenida Gregorio Luperón",
    "amenity": "marketplace",
    "area": "yes",
    "building": "yes",
    "name": "FERQUIDO",
    "phone": "809-530-5598",
    "source": "KG Ground Survey 2016",
    "id": "way/411476137"
  },
  "geometry": {
    "type": "Point",
    "coordinates": [
      -69.9726818,
      18.4537108
    ]
  }
},
{
  "type": "Feature",
  "id": "way/412505987",
  "properties": {
    "amenity": "marketplace",
    "building": "yes",
    "name": "Plaza Pony",
    "source": "KG Ground Survey 2016",
    "id": "way/412505987"
  },
  "geometry": {
    "type": "Point",
    "coordinates": [
      -69.9724045,
      18.4764316
    ]
  }
},
{
  "type": "Feature",
  "id": "way/412550192",
  "properties": {
    "amenity": "marketplace",
    "building": "yes",
    "name": "Plaza Isabel",
    "source": "KG Ground Survey 2016",
    "id": "way/412550192"
  },
  "geometry": {
    "type": "Point",
    "coordinates": [
      -69.9802463,
      18.4835443
    ]
  }
},
{
  "type": "Feature",
  "id": "way/412554853",
  "properties": {
    "amenity": "marketplace",
    "building": "yes",
    "name": "Plaza Caina",
    "source": "KG Ground Survey 2016",
    "id": "way/412554853"
  },
  "geometry": {
    "type": "Point",
    "coordinates": [
      -69.9818292,
      18.4839888
    ]
  }
},
{
  "type": "Feature",
  "id": "node/1661646889",
  "properties": {
    "amenity": "marketplace",
    "name": "Colmado Nieves",
    "id": "node/1661646889"
  },
  "geometry": {
    "type": "Point",
    "coordinates": [
      -69.847895,
      18.4988389
    ]
  }
},
{
  "type": "Feature",
  "id": "node/1851606326",
  "properties": {
    "amenity": "marketplace",
    "name": "Plaza Malecon Center",
    "id": "node/1851606326"
  },
  "geometry": {
    "type": "Point",
    "coordinates": [
      -69.9097263,
      18.4577946
    ]
  }
},
{
  "type": "Feature",
  "id": "node/2386467070",
  "properties": {
    "amenity": "marketplace",
    "name": "INESPRE",
    "id": "node/2386467070"
  },
  "geometry": {
    "type": "Point",
    "coordinates": [
      -69.9289788,
      18.4842619
    ]
  }
},
{
  "type": "Feature",
  "id": "node/3493437574",
  "properties": {
    "amenity": "marketplace",
    "name": "Parador Ejecutivo",
    "id": "node/3493437574"
  },
  "geometry": {
    "type": "Point",
    "coordinates": [
      -70.0391651,
      18.554901
    ]
  }
}
]
}
