{
"type": "FeatureCollection",
"features": [
{
  "type": "Feature",
  "id": "way/457969329",
  "properties": {
    "amenity": "hospital",
    "name": "Hôpital Hassan 2",
    "id": "way/457969329"
  },
  "geometry": {
    "type": "Point",
    "coordinates": [
      -7.612642,
      32.9929474
    ]
  }
},
{
  "type": "Feature",
  "id": "way/458067627",
  "properties": {
    "amenity": "hospital",
    "name": "Disponsaire Smaâla",
    "id": "way/458067627"
  },
  "geometry": {
    "type": "Point",
    "coordinates": [
      -7.622462,
      32.9994945
    ]
  }
},
{
  "type": "Feature",
  "id": "way/458238398",
  "properties": {
    "amenity": "hospital",
    "name": "Dispensaire ElKheir",
    "id": "way/458238398"
  },
  "geometry": {
    "type": "Point",
    "coordinates": [
      -7.6080169,
      32.9888331
    ]
  }
},
{
  "type": "Feature",
  "id": "way/461876205",
  "properties": {
    "amenity": "hospital",
    "id": "way/461876205"
  },
  "geometry": {
    "type": "Point",
    "coordinates": [
      -7.6079152,
      33.0078532
    ]
  }
},
{
  "type": "Feature",
  "id": "node/4540974861",
  "properties": {
    "amenity": "hospital",
    "name": "مستوصف ميمونة",
    "id": "node/4540974861"
  },
  "geometry": {
    "type": "Point",
    "coordinates": [
      -7.6260116,
      33.0027835
    ]
  }
},
{
  "type": "Feature",
  "id": "node/4542033085",
  "properties": {
    "addr:city": "Fés",
    "addr:street": "47 LOT WAHDA NARJISSB",
    "amenity": "hospital",
    "emergency": "no",
    "name": "Azzouzi",
    "name:ar": "صيدلية العزوزي",
    "operator": "AZZOUZI OMAR",
    "phone": "0535960428",
    "id": "node/4542033085"
  },
  "geometry": {
    "type": "Point",
    "coordinates": [
      -7.6187673,
      32.9980669
    ]
  }
}
]
}
