{
"type": "FeatureCollection",
"features": [
{
  "type": "Feature",
  "id": "relation/6683373",
  "properties": {
    "addr:city": "Kertajaya, Gubeng, Surabaya, East Java",
    "addr:full": "Jalan Menur 120",
    "amenity": "hospital",
    "name": "Rumah Sakit Jiwa Menur Provinsi Jawa Timur",
    "operator:type": "government",
    "type": "multipolygon",
    "id": "relation/6683373"
  },
  "geometry": {
    "type": "Point",
    "coordinates": [
      112.7620875,
      -7.2861609
    ]
  }
},
{
  "type": "Feature",
  "id": "relation/6685071",
  "properties": {
    "addr:full": "Jalan Undaan Kulon",
    "amenity": "hospital",
    "name": "Rumah Sakit Mata Undaan",
    "operator:type": "private",
    "type": "multipolygon",
    "id": "relation/6685071"
  },
  "geometry": {
    "type": "Point",
    "coordinates": [
      112.743466,
      -7.2540403
    ]
  }
},
{
  "type": "Feature",
  "id": "relation/6688109",
  "properties": {
    "addr:full": "Jalan Tambakrejo",
    "amenity": "hospital",
    "name": "RSUD Dr.M.Soewandhie",
    "operator:type": "government",
    "type": "multipolygon",
    "id": "relation/6688109"
  },
  "geometry": {
    "type": "Point",
    "coordinates": [
      112.7579853,
      -7.2459814
    ]
  }
},
{
  "type": "Feature",
  "id": "relation/6688297",
  "properties": {
    "amenity": "hospital",
    "name": "Rumah Sakit Gotong Royong",
    "operator:type": "private",
    "type": "multipolygon",
    "id": "relation/6688297"
  },
  "geometry": {
    "type": "Point",
    "coordinates": [
      112.7875315,
      -7.3074744
    ]
  }
},
{
  "type": "Feature",
  "id": "relation/6688565",
  "properties": {
    "addr:full": "Jalan Undaan Wetan",
    "amenity": "hospital",
    "name": "Rumah Sakit Adi Husada Undaan Wetan",
    "operator:type": "private",
    "type": "multipolygon",
    "id": "relation/6688565"
  },
  "geometry": {
    "type": "Point",
    "coordinates": [
      112.7458467,
      -7.2514797
    ]
  }
},
{
  "type": "Feature",
  "id": "relation/6699714",
  "properties": {
    "addr:full": "Jalan KH Mas Mansyur",
    "amenity": "hospital",
    "name": "Rumah Sakit Al Irsyad",
    "operator:type": "private",
    "type": "multipolygon",
    "id": "relation/6699714"
  },
  "geometry": {
    "type": "Point",
    "coordinates": [
      112.7411216,
      -7.2281429
    ]
  }
},
{
  "type": "Feature",
  "id": "relation/6703135",
  "properties": {
    "addr:full": "Jalan Teluk Bayur",
    "amenity": "hospital",
    "building": "hospital",
    "building:condition": "good",
    "building:floor": "ceramics",
    "building:roof": "tile",
    "building:structure": "confined_masonry",
    "building:walls": "brick",
    "capacity:persons": "100-250",
    "name": "Rumah Sakit TNI AL Dr. Oepomo",
    "operator:type": "government",
    "type": "multipolygon",
    "id": "relation/6703135"
  },
  "geometry": {
    "type": "Point",
    "coordinates": [
      112.724599,
      -7.2119504
    ]
  }
},
{
  "type": "Feature",
  "id": "relation/6703219",
  "properties": {
    "amenity": "hospital",
    "name": "Rumah Sakit PKU Muhammadiyah Surabaya",
    "operator:type": "private",
    "type": "multipolygon",
    "id": "relation/6703219"
  },
  "geometry": {
    "type": "Point",
    "coordinates": [
      112.7412128,
      -7.2299251
    ]
  }
},
{
  "type": "Feature",
  "id": "relation/6703227",
  "properties": {
    "amenity": "hospital",
    "name": "Rumah Sakit Paru",
    "type": "multipolygon",
    "id": "relation/6703227"
  },
  "geometry": {
    "type": "Point",
    "coordinates": [
      112.7464745,
      -7.2240386
    ]
  }
},
{
  "type": "Feature",
  "id": "relation/6755214",
  "properties": {
    "addr:full": "Jalan Dupak Nomor 15 A",
    "amenity": "hospital",
    "backup_generator": "yes",
    "name": "Rumah Sakit Ibu dan Anak IBI Surabaya",
    "operator:type": "government",
    "type": "multipolygon",
    "id": "relation/6755214"
  },
  "geometry": {
    "type": "Point",
    "coordinates": [
      112.7277389,
      -7.2453469
    ]
  }
},
{
  "type": "Feature",
  "id": "relation/6792023",
  "properties": {
    "addr:full": "Jalan Golf I",
    "amenity": "hospital",
    "name": "Rumah Sakit Marinir Ewa Panggalila",
    "operator:type": "government",
    "type": "multipolygon",
    "id": "relation/6792023"
  },
  "geometry": {
    "type": "Point",
    "coordinates": [
      112.7081883,
      -7.3037338
    ]
  }
},
{
  "type": "Feature",
  "id": "relation/6814286",
  "properties": {
    "addr:full": "Jalan Raya Kendangsari Industri",
    "amenity": "hospital",
    "name": "Rumah Sakit Royal Surabaya",
    "operator:type": "private",
    "type": "multipolygon",
    "id": "relation/6814286"
  },
  "geometry": {
    "type": "Point",
    "coordinates": [
      112.7509576,
      -7.3287721
    ]
  }
},
{
  "type": "Feature",
  "id": "relation/6814609",
  "properties": {
    "amenity": "hospital",
    "name": "Rumah Sakit Tingkat III Kodam V Brawijaya",
    "type": "multipolygon",
    "id": "relation/6814609"
  },
  "geometry": {
    "type": "Point",
    "coordinates": [
      112.7230696,
      -7.2984603
    ]
  }
},
{
  "type": "Feature",
  "id": "relation/6833845",
  "properties": {
    "addr:city": "Surabaya",
    "addr:full": "Jalan Raya Manukan Wetan",
    "addr:housenumber": "68 - 68A",
    "addr:postcode": "60185",
    "addr:street": "Jl. Raya Manukan Wetan",
    "amenity": "hospital",
    "name": "Rumah Sakit Muji Rahayu",
    "operator": "Private",
    "type": "multipolygon",
    "id": "relation/6833845"
  },
  "geometry": {
    "type": "Point",
    "coordinates": [
      112.6708713,
      -7.2570063
    ]
  }
},
{
  "type": "Feature",
  "id": "relation/6833857",
  "properties": {
    "amenity": "hospital",
    "name": "Rumah Sakit Islam Surabaya",
    "type": "multipolygon",
    "id": "relation/6833857"
  },
  "geometry": {
    "type": "Point",
    "coordinates": [
      112.7347626,
      -7.3064252
    ]
  }
},
{
  "type": "Feature",
  "id": "relation/6833860",
  "properties": {
    "amenity": "hospital",
    "name": "Rumah Sakit Angkatan Laut Dr. Ramelan",
    "type": "multipolygon",
    "id": "relation/6833860"
  },
  "geometry": {
    "type": "Point",
    "coordinates": [
      112.7385233,
      -7.3096372
    ]
  }
},
{
  "type": "Feature",
  "id": "relation/6852426",
  "properties": {
    "addr:full": "Jalan Ketintang Madya I",
    "amenity": "hospital",
    "name": "RSU Bhakti Rahayu",
    "operator:type": "private",
    "type": "multipolygon",
    "id": "relation/6852426"
  },
  "geometry": {
    "type": "Point",
    "coordinates": [
      112.7229563,
      -7.3120132
    ]
  }
},
{
  "type": "Feature",
  "id": "relation/6868331",
  "properties": {
    "addr:full": "Jalan Serayu Nomor 17",
    "amenity": "hospital",
    "name": "RSAU SOEMITRO",
    "operator:type": "government",
    "type": "multipolygon",
    "id": "relation/6868331"
  },
  "geometry": {
    "type": "Point",
    "coordinates": [
      112.7409612,
      -7.2915348
    ]
  }
},
{
  "type": "Feature",
  "id": "relation/6868560",
  "properties": {
    "addr:full": "Jalan Raya Kendung",
    "amenity": "hospital",
    "backup_generator": "yes",
    "name": "RSUD Bhakti Dharma Husada",
    "operator:type": "government",
    "type": "multipolygon",
    "id": "relation/6868560"
  },
  "geometry": {
    "type": "Point",
    "coordinates": [
      112.636114,
      -7.2558516
    ]
  }
},
{
  "type": "Feature",
  "id": "relation/6873287",
  "properties": {
    "addr:city": "Ketintang, Gayungan, Surabaya, East Java",
    "addr:full": "Jalan Jenderal A. Yani No 115",
    "addr:housenumber": "No.116",
    "addr:postcode": "60231",
    "addr:street": "Jl. Jend. A. Yani",
    "amenity": "hospital",
    "name": "Rumah Sakit Bhayangkara H. Samsoeri Mertojoso POLDA Jawa Timur",
    "operator:type": "private",
    "type": "multipolygon",
    "id": "relation/6873287"
  },
  "geometry": {
    "type": "Point",
    "coordinates": [
      112.7305269,
      -7.3242343
    ]
  }
},
{
  "type": "Feature",
  "id": "relation/6873295",
  "properties": {
    "addr:city": "Surabaya",
    "addr:postcode": "60286",
    "addr:street": "Jalan Profesor Doktor Moestopo",
    "amenity": "hospital",
    "name": "Rumah Sakit Umum Daerah Dr. Soetomo",
    "operator": "Dinas Kesehatan Prov. Jatim",
    "type": "multipolygon",
    "id": "relation/6873295"
  },
  "geometry": {
    "type": "Point",
    "coordinates": [
      112.7582997,
      -7.2682107
    ]
  }
},
{
  "type": "Feature",
  "id": "relation/6889774",
  "properties": {
    "addr:full": "Jalan Gayungan Kebonsari Timur B",
    "amenity": "hospital",
    "name": "Rumah Sakit Mata Masyarakat Jawa Timur",
    "operator:type": "government",
    "type": "multipolygon",
    "id": "relation/6889774"
  },
  "geometry": {
    "type": "Point",
    "coordinates": [
      112.7255981,
      -7.3261478
    ]
  }
},
{
  "type": "Feature",
  "id": "relation/6892201",
  "properties": {
    "addr:city": "Gubeng, Surabaya, East Java",
    "addr:full": "Jalan Karimun Jawa nomor 6",
    "amenity": "hospital",
    "name": "Siloam Hospitals",
    "operator:type": "private",
    "type": "multipolygon",
    "id": "relation/6892201"
  },
  "geometry": {
    "type": "Point",
    "coordinates": [
      112.7463992,
      -7.2740186
    ]
  }
},
{
  "type": "Feature",
  "id": "relation/6908246",
  "properties": {
    "amenity": "hospital",
    "name": "Rumah Sakit Islam Darus Syifa'",
    "operator:type": "private",
    "type": "multipolygon",
    "id": "relation/6908246"
  },
  "geometry": {
    "type": "Point",
    "coordinates": [
      112.6125421,
      -7.2353495
    ]
  }
},
{
  "type": "Feature",
  "id": "relation/6913438",
  "properties": {
    "addr:city": "Surabaya",
    "addr:housenumber": "90",
    "addr:postcode": "60241",
    "addr:street": "Jalan Raya Darmo",
    "amenity": "hospital",
    "emergency": "yes",
    "name": "Rumah Sakit Darmo",
    "type": "multipolygon",
    "id": "relation/6913438"
  },
  "geometry": {
    "type": "Point",
    "coordinates": [
      112.7382644,
      -7.2873611
    ]
  }
},
{
  "type": "Feature",
  "id": "relation/6927280",
  "properties": {
    "access:roof": "no",
    "addr:full": "Jalan Raya Jemursari",
    "amenity": "hospital",
    "backup_generator": "yes",
    "building:floor": "ceramics",
    "name": "Rumah Sakit Islam Jemursari Surabaya",
    "operator:type": "private",
    "type": "multipolygon",
    "id": "relation/6927280"
  },
  "geometry": {
    "type": "Point",
    "coordinates": [
      112.7399267,
      -7.3225208
    ]
  }
},
{
  "type": "Feature",
  "id": "relation/6930342",
  "properties": {
    "addr:full": "Jalan Karangan PDAM 1-3",
    "amenity": "hospital",
    "name": "Rumah Sakit Wiyung Sejahtera",
    "operator:type": "government",
    "type": "multipolygon",
    "id": "relation/6930342"
  },
  "geometry": {
    "type": "Point",
    "coordinates": [
      112.6879189,
      -7.3112451
    ]
  }
},
{
  "type": "Feature",
  "id": "relation/6959280",
  "properties": {
    "amenity": "hospital",
    "name": "RSK St. Vincentius A Paulo",
    "type": "multipolygon",
    "id": "relation/6959280"
  },
  "geometry": {
    "type": "Point",
    "coordinates": [
      112.7354084,
      -7.2918576
    ]
  }
},
{
  "type": "Feature",
  "id": "relation/7154952",
  "properties": {
    "amenity": "hospital",
    "name": "RSIA Cempaka Putih Permata",
    "type": "multipolygon",
    "id": "relation/7154952"
  },
  "geometry": {
    "type": "Point",
    "coordinates": [
      112.7137283,
      -7.3215391
    ]
  }
},
{
  "type": "Feature",
  "id": "relation/7170040",
  "properties": {
    "addr:city": "Surabaya",
    "addr:housenumber": "34",
    "addr:postcode": "60241",
    "addr:street": "Jalan Diponegoro",
    "amenity": "hospital",
    "name": "Rumah Sakit William Booth",
    "type": "multipolygon",
    "id": "relation/7170040"
  },
  "geometry": {
    "type": "Point",
    "coordinates": [
      112.73728,
      -7.2912021
    ]
  }
},
{
  "type": "Feature",
  "id": "way/121862400",
  "properties": {
    "access:roof": "yes",
    "amenity": "hospital",
    "backup_generator": "yes",
    "building": "hospital",
    "building:condition": "good",
    "building:floor": "ceramics",
    "building:levels": "3",
    "building:roof": "concrete",
    "building:structure": "steel_frame",
    "building:use": "medical",
    "building:walls": "brick",
    "capacity:persons": "100-250",
    "name": "Rumah Sakit Onkologi",
    "operator:type": "private",
    "id": "way/121862400"
  },
  "geometry": {
    "type": "Point",
    "coordinates": [
      112.7892865,
      -7.2908864
    ]
  }
},
{
  "type": "Feature",
  "id": "way/185053556",
  "properties": {
    "access:roof": "no",
    "addr:city": "Surabaya",
    "addr:full": "TEGALSARI",
    "addr:postcode": "60261",
    "addr:street": "Jalan Tegalsari",
    "amenity": "hospital",
    "backup_generator": "yes",
    "building": "hospital",
    "building:condition": "good",
    "building:floor": "ceramics",
    "building:levels": "3",
    "building:roof": "concrete",
    "building:structure": "confined_masonry",
    "building:walls": "brick",
    "capacity:persons": "500",
    "ele": "12",
    "name": "RSIA PUSURA",
    "operator:type": "private",
    "id": "way/185053556"
  },
  "geometry": {
    "type": "Point",
    "coordinates": [
      112.7370451,
      -7.2661587
    ]
  }
},
{
  "type": "Feature",
  "id": "way/194433170",
  "properties": {
    "access:roof": "yes",
    "addr:city": "Klampis Ngasem, Sukolilo, Surabaya",
    "addr:postcode": "60117",
    "addr:street": "Jl. Manyar Kertoadi",
    "amenity": "hospital",
    "building": "hospital",
    "building:levels": "3",
    "building:roof": "tile",
    "building:structure": "reinforced_masonry",
    "building:walls": "brick",
    "name": "RSU Haji Surabaya",
    "operator:type": "government",
    "id": "way/194433170"
  },
  "geometry": {
    "type": "Point",
    "coordinates": [
      112.7798143,
      -7.2827461
    ]
  }
},
{
  "type": "Feature",
  "id": "way/257897278",
  "properties": {
    "addr:city": "Surabaya",
    "addr:postcode": "60115",
    "addr:street": "Jalan Dharmahusada Indah Utara",
    "amenity": "hospital",
    "building": "hospital",
    "emergency": "yes",
    "name": "Rumah Sakit Universitas Airlangga",
    "phone": "+62315916290",
    "id": "way/257897278"
  },
  "geometry": {
    "type": "Point",
    "coordinates": [
      112.7849217,
      -7.2697097
    ]
  }
},
{
  "type": "Feature",
  "id": "way/371514051",
  "properties": {
    "access:roof": "yes",
    "addr:full": "Jalan Nginden Intan Barat Blok B, Ngenden Jangkungan, Sukolilo",
    "addr:postcode": "60118",
    "addr:street": "Jalan Nginden Intan Barat",
    "amenity": "hospital",
    "backup_generator": "yes",
    "building": "hospital",
    "building:condition": "good",
    "building:floor": "ceramics",
    "building:levels": "3",
    "building:roof": "concrete",
    "building:structure": "confined_masonry",
    "building:walls": "concrete",
    "capacity:persons": "250-500",
    "name": "Rumah Sakit Premier Surabaya",
    "operator:type": "private",
    "id": "way/371514051"
  },
  "geometry": {
    "type": "Point",
    "coordinates": [
      112.7651728,
      -7.3048762
    ]
  }
},
{
  "type": "Feature",
  "id": "way/446537097",
  "properties": {
    "access:roof": "yes",
    "addr:city": "Surabaya",
    "addr:housenumber": "1",
    "addr:postcode": "60227",
    "addr:street": "Jalan Lingkar Dalam Barat",
    "amenity": "hospital",
    "backup_generator": "yes",
    "building": "hospital",
    "building:condition": "good",
    "building:floor": "ceramics",
    "building:levels": "7",
    "building:roof": "concrete",
    "building:structure": "confined_masonry",
    "building:walls": "brick",
    "capacity:persons": ">500",
    "email": "info@national-hospital.com",
    "name": "National Hospital",
    "operator:type": "private",
    "phone": "+62312975777",
    "website": "http://www.national-hospital.com/",
    "id": "way/446537097"
  },
  "geometry": {
    "type": "Point",
    "coordinates": [
      112.6764203,
      -7.2992938
    ]
  }
},
{
  "type": "Feature",
  "id": "way/447610406",
  "properties": {
    "access:roof": "yes",
    "addr:full": "Jalan Kapasari No. 97-101",
    "amenity": "hospital",
    "backup_generator": "yes",
    "building": "hospital",
    "building:condition": "good",
    "building:floor": "ceramics",
    "building:levels": "5",
    "building:roof": "concrete",
    "building:structure": "confined_masonry",
    "building:walls": "concrete",
    "capacity:persons": ">500",
    "name": "Rumah Sakit Adi Husada Kapasan",
    "operator:type": "government",
    "id": "way/447610406"
  },
  "geometry": {
    "type": "Point",
    "coordinates": [
      112.7519019,
      -7.2426787
    ]
  }
},
{
  "type": "Feature",
  "id": "way/447615916",
  "properties": {
    "access:roof": "no",
    "addr:full": "Jalan Kapuas",
    "amenity": "hospital",
    "backup_generator": "yes",
    "building": "hospital",
    "building:condition": "average",
    "building:floor": "ceramics",
    "building:levels": "2",
    "building:roof": "tile",
    "building:structure": "confined_masonry",
    "building:walls": "brick",
    "capacity:persons": ">500",
    "name": "Rumah Sakit Surabaya Medical Center",
    "operator:type": "private",
    "id": "way/447615916"
  },
  "geometry": {
    "type": "Point",
    "coordinates": [
      112.741385,
      -7.2889539
    ]
  }
},
{
  "type": "Feature",
  "id": "way/448112158",
  "properties": {
    "access:roof": "no",
    "addr:full": "Jalan Arief Rahman Hakim No.212",
    "amenity": "hospital",
    "backup_generator": "yes",
    "building": "hospital",
    "building:condition": "good",
    "building:floor": "ceramics",
    "building:levels": "3",
    "building:roof": "tile",
    "building:structure": "confined_masonry",
    "building:walls": "brick",
    "capacity:persons": "250-500",
    "name": "Rumah Sakit Ibu Anak Putri",
    "operator:type": "private",
    "id": "way/448112158"
  },
  "geometry": {
    "type": "Point",
    "coordinates": [
      112.7826956,
      -7.290849
    ]
  }
},
{
  "type": "Feature",
  "id": "way/448114210",
  "properties": {
    "access:roof": "yes",
    "addr:city": "Menur Pumpungan, Sukolilo, Surabaya, East Java",
    "addr:housenumber": "No.9",
    "addr:postcode": "60118",
    "addr:street": "Jl. Raya Manyar",
    "amenity": "hospital",
    "backup_generator": "yes",
    "building": "hospital",
    "building:condition": "good",
    "building:floor": "ceramics",
    "building:levels": "7",
    "building:roof": "concrete",
    "building:structure": "confined_masonry",
    "building:walls": "glass",
    "capacity:persons": "100-250",
    "name": "Rumah Sakit Bedah Surabaya",
    "operator:type": "private",
    "id": "way/448114210"
  },
  "geometry": {
    "type": "Point",
    "coordinates": [
      112.7635634,
      -7.2899849
    ]
  }
},
{
  "type": "Feature",
  "id": "way/449624602",
  "properties": {
    "access:roof": "yes",
    "addr:full": "Jalan Mayjen Prof.Dr.Moestopo",
    "amenity": "hospital",
    "backup_generator": "yes",
    "building": "hospital",
    "building:condition": "good",
    "building:floor": "ceramics",
    "building:levels": "7",
    "building:roof": "concrete",
    "building:structure": "steel_frame",
    "building:walls": "glass",
    "capacity:persons": ">500",
    "name": "Rumah Sakit Spesialis Husada Utama",
    "operator:type": "private",
    "id": "way/449624602"
  },
  "geometry": {
    "type": "Point",
    "coordinates": [
      112.7561908,
      -7.2648315
    ]
  }
},
{
  "type": "Feature",
  "id": "way/449903849",
  "properties": {
    "addr:city": "Kertajaya, Gubeng, Surabaya, East Java",
    "addr:housenumber": "No. 12-14",
    "addr:postcode": "60282",
    "addr:street": "JL. Pucang Adi",
    "amenity": "hospital",
    "building": "hospital",
    "name": "Rumah Sakit Pura Raharja",
    "id": "way/449903849"
  },
  "geometry": {
    "type": "Point",
    "coordinates": [
      112.7528757,
      -7.283108
    ]
  }
},
{
  "type": "Feature",
  "id": "way/450714496",
  "properties": {
    "access:roof": "yes",
    "addr:full": "Jalan Kenjeran Nomer 506",
    "amenity": "hospital",
    "backup_generator": "yes",
    "building": "hospital",
    "building:condition": "good",
    "building:floor": "ceramics",
    "building:levels": "14",
    "building:roof": "concrete",
    "building:structure": "confined_masonry",
    "building:walls": "brick",
    "capacity:persons": ">500",
    "name": "Rumah Sakit Mitra Keluarga",
    "operator:type": "private",
    "id": "way/450714496"
  },
  "geometry": {
    "type": "Point",
    "coordinates": [
      112.7850332,
      -7.251281
    ]
  }
},
{
  "type": "Feature",
  "id": "way/450772004",
  "properties": {
    "access:roof": "yes",
    "addr:full": "Jalan Dr. Ir. H. Soekarno Nomer 2",
    "amenity": "hospital",
    "backup_generator": "yes",
    "building": "hospital",
    "building:condition": "good",
    "building:floor": "ceramics",
    "building:levels": "5",
    "building:roof": "concrete",
    "building:structure": "confined_masonry",
    "building:walls": "brick",
    "capacity:persons": "250-500",
    "name": "RSIA Kendangsari Merr",
    "operator:type": "private",
    "id": "way/450772004"
  },
  "geometry": {
    "type": "Point",
    "coordinates": [
      112.7837895,
      -7.2504252
    ]
  }
},
{
  "type": "Feature",
  "id": "way/450988751",
  "properties": {
    "amenity": "hospital",
    "building": "hospital",
    "building:condition": "good",
    "building:floor": "ceramics",
    "building:levels": "1",
    "building:roof": "tile",
    "building:structure": "confined_masonry",
    "building:walls": "brick",
    "capacity:persons": "100-250",
    "name": "Klinik Estetika",
    "operator:type": "government",
    "id": "way/450988751"
  },
  "geometry": {
    "type": "Point",
    "coordinates": [
      112.7396657,
      -7.3085395
    ]
  }
},
{
  "type": "Feature",
  "id": "way/451670191",
  "properties": {
    "addr:full": "satelit indah vi",
    "amenity": "hospital",
    "building": "hospital",
    "building:condition": "good",
    "building:floor": "ceramics",
    "building:levels": "4",
    "building:roof": "concrete",
    "building:structure": "confined_masonry",
    "building:walls": "brick",
    "capacity:persons": "250-500",
    "name": "Rumah Sakit Mitra Keluarga",
    "operator:type": "private",
    "id": "way/451670191"
  },
  "geometry": {
    "type": "Point",
    "coordinates": [
      112.6912245,
      -7.2666317
    ]
  }
},
{
  "type": "Feature",
  "id": "way/451837669",
  "properties": {
    "addr:full": "Jalan Kalimas Baru",
    "amenity": "hospital",
    "backup_generator": "yes",
    "building": "hospital",
    "building:condition": "good",
    "building:levels": "6",
    "building:roof": "tile",
    "building:structure": "confined_masonry",
    "building:walls": "brick",
    "capacity:persons": "250-500",
    "name": "Rumah Sakit PHC Medical Centre",
    "operator:type": "private",
    "id": "way/451837669"
  },
  "geometry": {
    "type": "Point",
    "coordinates": [
      112.7361619,
      -7.2097364
    ]
  }
},
{
  "type": "Feature",
  "id": "way/453637971",
  "properties": {
    "access:roof": "yes",
    "addr:full": "Jalan Lontar Lidah Kulon",
    "amenity": "hospital",
    "backup_generator": "yes",
    "building": "hospital",
    "building:condition": "good",
    "building:floor": "ceramics",
    "building:levels": "4",
    "building:roof": "concrete",
    "building:structure": "steel_frame",
    "building:walls": "brick",
    "capacity:persons": "100-250",
    "name": "RS Orthopedi & Traumatologi",
    "operator:type": "private",
    "id": "way/453637971"
  },
  "geometry": {
    "type": "Point",
    "coordinates": [
      112.6620645,
      -7.2994323
    ]
  }
},
{
  "type": "Feature",
  "id": "way/454129371",
  "properties": {
    "access:roof": "no",
    "addr:full": "Jalan Raya Darmo Permai Selatan 109-111",
    "amenity": "hospital",
    "backup_generator": "yes",
    "building": "hospital",
    "building:condition": "good",
    "building:floor": "ceramics",
    "building:levels": "3",
    "building:roof": "tile",
    "building:structure": "confined_masonry",
    "building:walls": "brick",
    "capacity:persons": ">500",
    "name": "Rumah Sakit Marien",
    "operator:type": "private",
    "id": "way/454129371"
  },
  "geometry": {
    "type": "Point",
    "coordinates": [
      112.679649,
      -7.2756512
    ]
  }
},
{
  "type": "Feature",
  "id": "way/454131833",
  "properties": {
    "access:roof": "yes",
    "addr:full": "Jalan Raya Lontar 109",
    "amenity": "hospital",
    "backup_generator": "yes",
    "building": "hospital",
    "building:condition": "good",
    "building:floor": "ceramics",
    "building:levels": "3",
    "building:roof": "concrete",
    "building:structure": "confined_masonry",
    "building:walls": "brick",
    "capacity:persons": "250-500",
    "name": "Rumah Sakit Lombok Dua dua",
    "operator:type": "private",
    "id": "way/454131833"
  },
  "geometry": {
    "type": "Point",
    "coordinates": [
      112.6695017,
      -7.2845334
    ]
  }
},
{
  "type": "Feature",
  "id": "way/455658137",
  "properties": {
    "access:roof": "no",
    "addr:full": "Jalan Raya Menganti 398",
    "amenity": "hospital",
    "backup_generator": "no",
    "building": "hospital",
    "building:condition": "good",
    "building:floor": "ceramics",
    "building:levels": "1",
    "building:roof": "concrete",
    "building:structure": "confined_masonry",
    "building:walls": "brick",
    "capacity:persons": "50-100",
    "name": "Rumah Sakit Wijaya",
    "operator:type": "private",
    "id": "way/455658137"
  },
  "geometry": {
    "type": "Point",
    "coordinates": [
      112.6917019,
      -7.313098
    ]
  }
},
{
  "type": "Feature",
  "id": "way/458639570",
  "properties": {
    "access:roof": "yes",
    "addr:full": "Jalan Raya Kendangsari 38",
    "addr:postcode": "60292",
    "amenity": "hospital",
    "backup_generator": "yes",
    "building": "hospital",
    "building:condition": "good",
    "building:floor": "ceramics",
    "building:levels": "2",
    "building:roof": "asbestos",
    "building:structure": "confined_masonry",
    "building:walls": "brick",
    "capacity:persons": "50-100",
    "name": "Rumah Sakit Ibu dan Anak Kendangsari",
    "operator:type": "private",
    "id": "way/458639570"
  },
  "geometry": {
    "type": "Point",
    "coordinates": [
      112.7455018,
      -7.3253317
    ]
  }
},
{
  "type": "Feature",
  "id": "way/461277745",
  "properties": {
    "access:roof": "no",
    "addr:city": "Jalan Raya Kandangan",
    "amenity": "hospital",
    "backup_generator": "yes",
    "building": "hospital",
    "building:condition": "good",
    "building:floor": "ceramics",
    "building:levels": "4",
    "building:roof": "concrete",
    "building:structure": "confined_masonry",
    "building:walls": "brick",
    "capacity:persons": "250-500",
    "name": "Rumah Sakit Bunda",
    "operator:type": "private",
    "id": "way/461277745"
  },
  "geometry": {
    "type": "Point",
    "coordinates": [
      112.6502153,
      -7.251738
    ]
  }
},
{
  "type": "Feature",
  "id": "way/463561564",
  "properties": {
    "access:roof": "yes",
    "addr:full": "Jalan Lombok No. 22",
    "amenity": "hospital",
    "backup_generator": "yes",
    "building": "hospital",
    "building:condition": "good",
    "building:floor": "ceramics",
    "building:levels": "4-7",
    "building:roof": "concrete",
    "building:structure": "confined_masonry",
    "building:walls": "brick",
    "capacity:persons": "100-250",
    "name": "RSB Lombok Dua Dua",
    "operator:type": "private",
    "id": "way/463561564"
  },
  "geometry": {
    "type": "Point",
    "coordinates": [
      112.7489193,
      -7.2784836
    ]
  }
},
{
  "type": "Feature",
  "id": "way/472077907",
  "properties": {
    "addr:city": "Sedati",
    "amenity": "hospital",
    "name": "Almira Medika",
    "id": "way/472077907"
  },
  "geometry": {
    "type": "Point",
    "coordinates": [
      112.7621411,
      -7.3833358
    ]
  }
},
{
  "type": "Feature",
  "id": "node/1772619494",
  "properties": {
    "addr:city": "Sidoarjo",
    "amenity": "hospital",
    "name": "RS Mitra Keluarga",
    "id": "node/1772619494"
  },
  "geometry": {
    "type": "Point",
    "coordinates": [
      112.728626,
      -7.3627675
    ]
  }
},
{
  "type": "Feature",
  "id": "node/3268565055",
  "properties": {
    "amenity": "hospital",
    "emergency": "no",
    "name": "Puskesmas Gedangan",
    "id": "node/3268565055"
  },
  "geometry": {
    "type": "Point",
    "coordinates": [
      112.7282712,
      -7.3870658
    ]
  }
},
{
  "type": "Feature",
  "id": "node/3492540632",
  "properties": {
    "amenity": "hospital",
    "id": "node/3492540632"
  },
  "geometry": {
    "type": "Point",
    "coordinates": [
      112.6556651,
      -7.1777757
    ]
  }
},
{
  "type": "Feature",
  "id": "node/4189190497",
  "properties": {
    "addr:city": "Tebel, Gedangan, Kabupaten Sidoarjo, Jawa Timur, Indonesia",
    "addr:housenumber": "3",
    "addr:postcode": "61254",
    "addr:street": "Jl. Raya Tebel Barat",
    "amenity": "hospital",
    "name": "Klinik Bds Tebel",
    "id": "node/4189190497"
  },
  "geometry": {
    "type": "Point",
    "coordinates": [
      112.7267153,
      -7.4050624
    ]
  }
},
{
  "type": "Feature",
  "id": "node/4189205726",
  "properties": {
    "addr:city": "Kec. Sidoarjo, Indonesia",
    "addr:postcode": "61234",
    "addr:street": "JL. Balai Desa",
    "amenity": "hospital",
    "name": "KLINIK DR. TITUT HARNANIK",
    "id": "node/4189205726"
  },
  "geometry": {
    "type": "Point",
    "coordinates": [
      112.7178459,
      -7.3877756
    ]
  }
},
{
  "type": "Feature",
  "id": "node/4673984279",
  "properties": {
    "amenity": "hospital",
    "name": "RSIA Arafah Anwar Medika Sukodono",
    "id": "node/4673984279"
  },
  "geometry": {
    "type": "Point",
    "coordinates": [
      112.672984,
      -7.3940264
    ]
  }
},
{
  "type": "Feature",
  "id": "node/4735501967",
  "properties": {
    "amenity": "hospital",
    "id": "node/4735501967"
  },
  "geometry": {
    "type": "Point",
    "coordinates": [
      112.6378821,
      -7.1453871
    ]
  }
}
]
}
