{
"type": "FeatureCollection",
"features": [
{
  "type": "Feature",
  "id": "relation/6673476",
  "properties": {
    "amenity": "marketplace",
    "name": "Sentra Ikan Bulak",
    "type": "multipolygon",
    "id": "relation/6673476"
  },
  "geometry": {
    "type": "Point",
    "coordinates": [
      112.7869259,
      -7.2252865
    ]
  }
},
{
  "type": "Feature",
  "id": "relation/6690143",
  "properties": {
    "addr:full": "Jalan Nambangan",
    "amenity": "marketplace",
    "name": "Pasar Surya Kedinding",
    "type": "multipolygon",
    "id": "relation/6690143"
  },
  "geometry": {
    "type": "Point",
    "coordinates": [
      112.7770935,
      -7.2227477
    ]
  }
},
{
  "type": "Feature",
  "id": "relation/6755259",
  "properties": {
    "access:roof": "no",
    "amenity": "marketplace",
    "backup_generator": "no",
    "building": "marketplace",
    "name": "Pasar Gundih",
    "type": "multipolygon",
    "id": "relation/6755259"
  },
  "geometry": {
    "type": "Point",
    "coordinates": [
      112.7286967,
      -7.2494949
    ]
  }
},
{
  "type": "Feature",
  "id": "relation/6812383",
  "properties": {
    "addr:full": "simohilir utara iii",
    "amenity": "marketplace",
    "name": "Pasar Simo Hilir",
    "type": "multipolygon",
    "id": "relation/6812383"
  },
  "geometry": {
    "type": "Point",
    "coordinates": [
      112.7063033,
      -7.2715788
    ]
  }
},
{
  "type": "Feature",
  "id": "relation/6814334",
  "properties": {
    "addr:full": "Jalan Raya Kandangan",
    "amenity": "marketplace",
    "name": "Pasar Kandangan",
    "type": "multipolygon",
    "id": "relation/6814334"
  },
  "geometry": {
    "type": "Point",
    "coordinates": [
      112.6512881,
      -7.2518595
    ]
  }
},
{
  "type": "Feature",
  "id": "relation/6843809",
  "properties": {
    "addr:full": "Jalan Pagesangan Timur",
    "amenity": "marketplace",
    "name": "Pasar LKMK Pageasangan",
    "type": "multipolygon",
    "id": "relation/6843809"
  },
  "geometry": {
    "type": "Point",
    "coordinates": [
      112.7104958,
      -7.3334849
    ]
  }
},
{
  "type": "Feature",
  "id": "relation/6852234",
  "properties": {
    "addr:full": "Jalan Gunung Sari nomor 71",
    "amenity": "marketplace",
    "name": "Pasar Ikan Hias Gunung Sari",
    "type": "multipolygon",
    "id": "relation/6852234"
  },
  "geometry": {
    "type": "Point",
    "coordinates": [
      112.7243718,
      -7.3060063
    ]
  }
},
{
  "type": "Feature",
  "id": "relation/6852255",
  "properties": {
    "addr:full": "Jalan Bandarejo",
    "amenity": "marketplace",
    "name": "Pasar Bandarejo",
    "type": "multipolygon",
    "id": "relation/6852255"
  },
  "geometry": {
    "type": "Point",
    "coordinates": [
      112.6456519,
      -7.2512471
    ]
  }
},
{
  "type": "Feature",
  "id": "relation/6852323",
  "properties": {
    "addr:full": "Jalan Bendul Merisi",
    "amenity": "marketplace",
    "name": "Pasar Bendul Merisi",
    "type": "multipolygon",
    "id": "relation/6852323"
  },
  "geometry": {
    "type": "Point",
    "coordinates": [
      112.7364664,
      -7.3066236
    ]
  }
},
{
  "type": "Feature",
  "id": "relation/6852559",
  "properties": {
    "addr:full": "Jalan Tambakoso Wilangon XIV",
    "amenity": "marketplace",
    "name": "Pasar Induk Oso Wilangon",
    "type": "multipolygon",
    "id": "relation/6852559"
  },
  "geometry": {
    "type": "Point",
    "coordinates": [
      112.6541557,
      -7.2118123
    ]
  }
},
{
  "type": "Feature",
  "id": "relation/6868033",
  "properties": {
    "addr:full": "Jalan Gayungsari XI",
    "amenity": "marketplace",
    "name": "Pasar Surya Gayungsari",
    "type": "multipolygon",
    "id": "relation/6868033"
  },
  "geometry": {
    "type": "Point",
    "coordinates": [
      112.7208415,
      -7.3322047
    ]
  }
},
{
  "type": "Feature",
  "id": "relation/6873245",
  "properties": {
    "addr:full": "Jalan Raya Kedung Sememi",
    "amenity": "marketplace",
    "name": "Pasar Kendung",
    "type": "multipolygon",
    "id": "relation/6873245"
  },
  "geometry": {
    "type": "Point",
    "coordinates": [
      112.6353126,
      -7.2501127
    ]
  }
},
{
  "type": "Feature",
  "id": "relation/6873363",
  "properties": {
    "amenity": "marketplace",
    "name": "Pasar Permai",
    "type": "multipolygon",
    "id": "relation/6873363"
  },
  "geometry": {
    "type": "Point",
    "coordinates": [
      112.6838039,
      -7.2759452
    ]
  }
},
{
  "type": "Feature",
  "id": "relation/6892211",
  "properties": {
    "addr:full": "Jalan Siwalankerto Utara II",
    "amenity": "marketplace",
    "name": "Pasar Siwalankerto",
    "type": "multipolygon",
    "id": "relation/6892211"
  },
  "geometry": {
    "type": "Point",
    "coordinates": [
      112.7342474,
      -7.3331431
    ]
  }
},
{
  "type": "Feature",
  "id": "relation/6904945",
  "properties": {
    "amenity": "marketplace",
    "name": "Pasar Wiyung",
    "type": "multipolygon",
    "id": "relation/6904945"
  },
  "geometry": {
    "type": "Point",
    "coordinates": [
      112.6940919,
      -7.3141678
    ]
  }
},
{
  "type": "Feature",
  "id": "relation/6905403",
  "properties": {
    "addr:full": "Jalan Diponegoro",
    "amenity": "marketplace",
    "name": "Pasar Kupang",
    "type": "multipolygon",
    "id": "relation/6905403"
  },
  "geometry": {
    "type": "Point",
    "coordinates": [
      112.7271338,
      -7.2746784
    ]
  }
},
{
  "type": "Feature",
  "id": "relation/6905439",
  "properties": {
    "amenity": "marketplace",
    "name": "Pasar Pahing",
    "opening_hours": "Sa-Su 04:00-17:00",
    "type": "multipolygon",
    "id": "relation/6905439"
  },
  "geometry": {
    "type": "Point",
    "coordinates": [
      112.7709208,
      -7.3306478
    ]
  }
},
{
  "type": "Feature",
  "id": "relation/6908244",
  "properties": {
    "amenity": "marketplace",
    "name": "Pasar Tradisional Benowo",
    "type": "multipolygon",
    "id": "relation/6908244"
  },
  "geometry": {
    "type": "Point",
    "coordinates": [
      112.6110461,
      -7.2346081
    ]
  }
},
{
  "type": "Feature",
  "id": "relation/6938380",
  "properties": {
    "amenity": "marketplace",
    "name": "Pasar Burung Bratang",
    "type": "multipolygon",
    "id": "relation/6938380"
  },
  "geometry": {
    "type": "Point",
    "coordinates": [
      112.7607245,
      -7.2978135
    ]
  }
},
{
  "type": "Feature",
  "id": "relation/7152689",
  "properties": {
    "addr:full": "Jalan Dinoyo",
    "amenity": "marketplace",
    "name": "Pasar Keputran Selatan",
    "type": "multipolygon",
    "id": "relation/7152689"
  },
  "geometry": {
    "type": "Point",
    "coordinates": [
      112.7437499,
      -7.2778157
    ]
  }
},
{
  "type": "Feature",
  "id": "relation/7152690",
  "properties": {
    "amenity": "marketplace",
    "name": "Pasar Pabean",
    "type": "multipolygon",
    "id": "relation/7152690"
  },
  "geometry": {
    "type": "Point",
    "coordinates": [
      112.7407472,
      -7.2348251
    ]
  }
},
{
  "type": "Feature",
  "id": "way/215101231",
  "properties": {
    "amenity": "marketplace",
    "building": "marketplace",
    "name": "Pasar Surya",
    "id": "way/215101231"
  },
  "geometry": {
    "type": "Point",
    "coordinates": [
      112.7135024,
      -7.268732
    ]
  }
},
{
  "type": "Feature",
  "id": "way/219077459",
  "properties": {
    "addr:full": "Jalan Keputran",
    "amenity": "marketplace",
    "name": "Pasar Keputran",
    "id": "way/219077459"
  },
  "geometry": {
    "type": "Point",
    "coordinates": [
      112.7427259,
      -7.2748169
    ]
  }
},
{
  "type": "Feature",
  "id": "way/302536201",
  "properties": {
    "amenity": "marketplace",
    "building": "marketplace",
    "name": "Pasar Semolowaru",
    "id": "way/302536201"
  },
  "geometry": {
    "type": "Point",
    "coordinates": [
      112.7793331,
      -7.3025147
    ]
  }
},
{
  "type": "Feature",
  "id": "way/311980592",
  "properties": {
    "amenity": "marketplace",
    "building": "marketplace",
    "name": "Tempat Pelelangan Ikan",
    "id": "way/311980592"
  },
  "geometry": {
    "type": "Point",
    "coordinates": [
      112.6648548,
      -7.1986015
    ]
  }
},
{
  "type": "Feature",
  "id": "way/320356645",
  "properties": {
    "amenity": "marketplace",
    "name": "Pasar Gedangan",
    "id": "way/320356645"
  },
  "geometry": {
    "type": "Point",
    "coordinates": [
      112.7329772,
      -7.3883205
    ]
  }
},
{
  "type": "Feature",
  "id": "way/349650754",
  "properties": {
    "access:roof": "no",
    "addr:full": "Manukan Lor",
    "amenity": "marketplace",
    "backup_generator": "no",
    "building": "marketplace",
    "building:condition": "good",
    "building:floor": "cement",
    "building:levels": "1",
    "building:roof": "asbestos",
    "building:structure": "wood_frame",
    "building:walls": "wood",
    "capacity:persons": "100-250",
    "name": "Pasar Manukan Kulon",
    "id": "way/349650754"
  },
  "geometry": {
    "type": "Point",
    "coordinates": [
      112.662212,
      -7.2599552
    ]
  }
},
{
  "type": "Feature",
  "id": "way/446941410",
  "properties": {
    "access:roof": "no",
    "addr:full": "Jalan Raya Kedung Asem",
    "amenity": "marketplace",
    "building": "marketplace",
    "building:condition": "average",
    "building:floor": "cement",
    "building:levels": "2",
    "building:roof": "tile",
    "building:structure": "confined_masonry",
    "building:walls": "brick",
    "capacity:persons": "50-100",
    "name": "Pasar Sinar Baru",
    "id": "way/446941410"
  },
  "geometry": {
    "type": "Point",
    "coordinates": [
      112.7778748,
      -7.3218274
    ]
  }
},
{
  "type": "Feature",
  "id": "way/447608021",
  "properties": {
    "access:roof": "yes",
    "addr:full": "Jalan Gubeng masjid",
    "amenity": "marketplace",
    "backup_generator": "no",
    "building": "marketplace",
    "building:condition": "average",
    "building:floor": "ceramics",
    "building:levels": "2",
    "building:roof": "concrete",
    "building:structure": "confined_masonry",
    "building:walls": "brick",
    "capacity:persons": ">500",
    "name": "Pasar Gubeng Masjid",
    "id": "way/447608021"
  },
  "geometry": {
    "type": "Point",
    "coordinates": [
      112.7529323,
      -7.2677089
    ]
  }
},
{
  "type": "Feature",
  "id": "way/447623735",
  "properties": {
    "addr:full": "Jalan Pecindilan 2",
    "amenity": "marketplace",
    "building": "marketplace",
    "building:condition": "average",
    "building:floor": "ground",
    "building:levels": "1",
    "building:roof": "concrete",
    "building:structure": "wood_frame",
    "building:walls": "brick",
    "capacity:persons": "100-250",
    "name": "Pasar Pecindilan",
    "id": "way/447623735"
  },
  "geometry": {
    "type": "Point",
    "coordinates": [
      112.7492569,
      -7.2475354
    ]
  }
},
{
  "type": "Feature",
  "id": "way/447712076",
  "properties": {
    "access:roof": "no",
    "addr:full": "Jalan Dinoyo Baru",
    "amenity": "marketplace",
    "backup_generator": "no",
    "building": "marketplace",
    "building:condition": "average",
    "building:levels": "1",
    "building:roof": "tin",
    "building:structure": "wood_frame",
    "building:walls": "wood",
    "capacity:persons": "50-100",
    "name": "Pasar Dinoyo Tangsi",
    "id": "way/447712076"
  },
  "geometry": {
    "type": "Point",
    "coordinates": [
      112.7432218,
      -7.2863548
    ]
  }
},
{
  "type": "Feature",
  "id": "way/448271628",
  "properties": {
    "access:roof": "no",
    "addr:full": "Jalan Pasar Kembang",
    "amenity": "marketplace",
    "backup_generator": "no",
    "building": "marketplace",
    "building:condition": "average",
    "building:floor": "cement",
    "building:levels": "2",
    "building:roof": "tile",
    "building:structure": "confined_masonry",
    "building:walls": "brick",
    "capacity:persons": ">500",
    "name": "Pasar Kembang",
    "id": "way/448271628"
  },
  "geometry": {
    "type": "Point",
    "coordinates": [
      112.7294227,
      -7.2694952
    ]
  }
},
{
  "type": "Feature",
  "id": "way/449182769",
  "properties": {
    "access:roof": "no",
    "addr:full": "Jalan Kedungsari",
    "amenity": "marketplace",
    "backup_generator": "no",
    "building": "marketplace",
    "building:condition": "poor",
    "building:floor": "cement",
    "building:levels": "1",
    "building:roof": "asbestos",
    "building:structure": "wood_frame",
    "building:walls": "wood",
    "capacity:persons": "<50",
    "name": "Pasar Kedungsari",
    "id": "way/449182769"
  },
  "geometry": {
    "type": "Point",
    "coordinates": [
      112.7363881,
      -7.2678998
    ]
  }
},
{
  "type": "Feature",
  "id": "way/449294401",
  "properties": {
    "access:roof": "no",
    "addr:full": "Jalan Kaliasin VI",
    "amenity": "marketplace",
    "backup_generator": "no",
    "building": "marketplace",
    "building:condition": "poor",
    "building:levels": "1",
    "building:roof": "tile",
    "building:structure": "wood_frame",
    "building:walls": "wood",
    "capacity:persons": "50-100",
    "name": "Pasar Kaliasin",
    "id": "way/449294401"
  },
  "geometry": {
    "type": "Point",
    "coordinates": [
      112.7379294,
      -7.264318
    ]
  }
},
{
  "type": "Feature",
  "id": "way/449519092",
  "properties": {
    "access:roof": "no",
    "amenity": "marketplace",
    "building": "marketplace",
    "building:condition": "poor",
    "building:floor": "ground",
    "building:levels": "1",
    "building:roof": "tin",
    "building:structure": "wood_frame",
    "building:walls": "wood",
    "name": "Pasar Setro Makmur",
    "id": "way/449519092"
  },
  "geometry": {
    "type": "Point",
    "coordinates": [
      112.7786128,
      -7.2390892
    ]
  }
},
{
  "type": "Feature",
  "id": "way/449624547",
  "properties": {
    "access:roof": "yes",
    "addr:full": "Jalan Bulak Rukem Timur",
    "amenity": "marketplace",
    "backup_generator": "no",
    "building": "marketplace",
    "building:condition": "average",
    "building:floor": "cement",
    "building:levels": "2",
    "building:roof": "asbestos",
    "building:structure": "confined_masonry",
    "building:walls": "brick",
    "capacity:persons": "250-500",
    "name": "Pasar Rabardjo",
    "id": "way/449624547"
  },
  "geometry": {
    "type": "Point",
    "coordinates": [
      112.7734123,
      -7.2336631
    ]
  }
},
{
  "type": "Feature",
  "id": "way/449624585",
  "properties": {
    "access:roof": "no",
    "addr:full": "Jalan Pacar Keling",
    "amenity": "marketplace",
    "backup_generator": "no",
    "building": "marketplace",
    "building:condition": "poor",
    "building:floor": "ground",
    "building:levels": "1",
    "building:roof": "tin",
    "building:structure": "bamboo_frame",
    "building:walls": "brick",
    "capacity:persons": "100-250",
    "name": "Pasar Pacar Keling",
    "id": "way/449624585"
  },
  "geometry": {
    "type": "Point",
    "coordinates": [
      112.7583497,
      -7.2605644
    ]
  }
},
{
  "type": "Feature",
  "id": "way/449639964",
  "properties": {
    "access:roof": "yes",
    "addr:full": "Genteng Besar",
    "amenity": "marketplace",
    "backup_generator": "no",
    "building": "marketplace",
    "building:condition": "average",
    "building:floor": "tekhel",
    "building:levels": "3",
    "building:roof": "concrete",
    "building:structure": "confined_masonry",
    "building:walls": "brick",
    "capacity:persons": "250-500",
    "name": "Pasar Genteng",
    "id": "way/449639964"
  },
  "geometry": {
    "type": "Point",
    "coordinates": [
      112.7407698,
      -7.2585179
    ]
  }
},
{
  "type": "Feature",
  "id": "way/449650272",
  "properties": {
    "access:roof": "no",
    "addr:full": "Jalan Kramat Gantung",
    "amenity": "marketplace",
    "backup_generator": "no",
    "building": "marketplace",
    "building:condition": "poor",
    "building:floor": "cement",
    "building:roof": "tin",
    "building:structure": "confined_masonry",
    "building:walls": "brick",
    "capacity:persons": "250-500",
    "name": "Pasar Kepatihan",
    "id": "way/449650272"
  },
  "geometry": {
    "type": "Point",
    "coordinates": [
      112.7390015,
      -7.2493591
    ]
  }
},
{
  "type": "Feature",
  "id": "way/449652767",
  "properties": {
    "addr:full": "Jalan Bratang",
    "amenity": "marketplace",
    "name": "Pasar Bunga bratang",
    "id": "way/449652767"
  },
  "geometry": {
    "type": "Point",
    "coordinates": [
      112.760121,
      -7.2977451
    ]
  }
},
{
  "type": "Feature",
  "id": "way/449832222",
  "properties": {
    "access:roof": "yes",
    "amenity": "marketplace",
    "building": "marketplace",
    "building:condition": "good",
    "building:floor": "ceramics",
    "building:levels": "2",
    "building:roof": "asbestos",
    "building:structure": "confined_masonry",
    "building:walls": "brick",
    "capacity:persons": "lebih dari 500",
    "name": "Pasar Pegirian",
    "id": "way/449832222"
  },
  "geometry": {
    "type": "Point",
    "coordinates": [
      112.745577,
      -7.2270111
    ]
  }
},
{
  "type": "Feature",
  "id": "way/450294237",
  "properties": {
    "access:roof": "yes",
    "addr:full": "Jalan Kapas Krampumg",
    "amenity": "marketplace",
    "backup_generator": "no",
    "building": "marketplace",
    "building:condition": "good",
    "building:floor": "ceramics",
    "building:levels": "3",
    "building:roof": "concrete",
    "building:structure": "confined_masonry",
    "building:walls": "concrete",
    "capacity:persons": ">500",
    "name": "Pasar Kapasan",
    "id": "way/450294237"
  },
  "geometry": {
    "type": "Point",
    "coordinates": [
      112.7495085,
      -7.2392326
    ]
  }
},
{
  "type": "Feature",
  "id": "way/450509693",
  "properties": {
    "access:roof": "no",
    "addr:full": "Jalan Pucang Anom",
    "amenity": "marketplace",
    "building": "marketplace",
    "building:condition": "average",
    "building:floor": "ceramics",
    "building:levels": "2",
    "building:roof": "asbestos",
    "building:structure": "confined_masonry",
    "building:walls": "brick",
    "capacity:persons": "100-250",
    "name": "Pasar Pucang Anom",
    "id": "way/450509693"
  },
  "geometry": {
    "type": "Point",
    "coordinates": [
      112.7533897,
      -7.2840031
    ]
  }
},
{
  "type": "Feature",
  "id": "way/450521503",
  "properties": {
    "access:roof": "no",
    "addr:full": "Jalan Pogot No. 66-69",
    "amenity": "marketplace",
    "backup_generator": "no",
    "building": "marketplace",
    "building:condition": "average",
    "building:floor": "cement",
    "building:levels": "1",
    "building:roof": "asbestos",
    "building:structure": "confined_masonry",
    "building:walls": "wood",
    "name": "Pasar Pogot",
    "id": "way/450521503"
  },
  "geometry": {
    "type": "Point",
    "coordinates": [
      112.768445,
      -7.2323513
    ]
  }
},
{
  "type": "Feature",
  "id": "way/450537996",
  "properties": {
    "addr:city": "Surabaya",
    "addr:postcode": "60285",
    "addr:street": "Jalan Menur",
    "amenity": "marketplace",
    "building": "marketplace",
    "name": "Pasar Manyar Surabaya",
    "id": "way/450537996"
  },
  "geometry": {
    "type": "Point",
    "coordinates": [
      112.7623398,
      -7.2808317
    ]
  }
},
{
  "type": "Feature",
  "id": "way/450698653",
  "properties": {
    "access:roof": "no",
    "addr:full": "Jalan Tempurejo",
    "amenity": "marketplace",
    "backup_generator": "no",
    "building": "marketplace",
    "building:condition": "poor",
    "building:floor": "cement",
    "building:roof": "tile",
    "building:structure": "confined_masonry",
    "building:walls": "brick",
    "name": "Pasar Tradisional Tempurejo",
    "id": "way/450698653"
  },
  "geometry": {
    "type": "Point",
    "coordinates": [
      112.7953533,
      -7.2558368
    ]
  }
},
{
  "type": "Feature",
  "id": "way/450988776",
  "properties": {
    "addr:full": "Jalan Jagir Wonokromo",
    "amenity": "marketplace",
    "name": "Pasar Jagir",
    "id": "way/450988776"
  },
  "geometry": {
    "type": "Point",
    "coordinates": [
      112.7426904,
      -7.3029323
    ]
  }
},
{
  "type": "Feature",
  "id": "way/451492077",
  "properties": {
    "addr:full": "Jalan Krembangan Besar",
    "amenity": "marketplace",
    "building": "marketplace",
    "name": "Pasar Krembangan",
    "id": "way/451492077"
  },
  "geometry": {
    "type": "Point",
    "coordinates": [
      112.7325379,
      -7.2368075
    ]
  }
},
{
  "type": "Feature",
  "id": "way/451558997",
  "properties": {
    "access:roof": "no",
    "addr:full": "Jalan Rungkut Alang-Alang",
    "amenity": "marketplace",
    "building": "marketplace",
    "building:condition": "good",
    "building:floor": "cement",
    "building:levels": "2",
    "building:roof": "asbestos",
    "building:structure": "confined_masonry",
    "building:walls": "brick",
    "capacity:persons": "50-100",
    "name": "Pasar Rungkut Baru",
    "id": "way/451558997"
  },
  "geometry": {
    "type": "Point",
    "coordinates": [
      112.7722678,
      -7.323106
    ]
  }
},
{
  "type": "Feature",
  "id": "way/451558998",
  "properties": {
    "access:roof": "no",
    "addr:full": "Jalan Rungkut Alang-Alang",
    "amenity": "marketplace",
    "building": "marketplace",
    "building:condition": "good",
    "building:floor": "cement",
    "building:levels": "2",
    "building:roof": "asbestos",
    "building:structure": "confined_masonry",
    "building:walls": "brick",
    "capacity:persons": "100-250",
    "name": "Pasar Soponyono",
    "id": "way/451558998"
  },
  "geometry": {
    "type": "Point",
    "coordinates": [
      112.7716157,
      -7.3229964
    ]
  }
},
{
  "type": "Feature",
  "id": "way/451666790",
  "properties": {
    "amenity": "marketplace",
    "building": "marketplace",
    "name": "Pasar Tradisional Syariah Az Zaitun I Kutisari",
    "id": "way/451666790"
  },
  "geometry": {
    "type": "Point",
    "coordinates": [
      112.74593,
      -7.3375337
    ]
  }
},
{
  "type": "Feature",
  "id": "way/451826906",
  "properties": {
    "access:roof": "no",
    "addr:full": "Jalan Kebalen Timur",
    "amenity": "marketplace",
    "building": "marketplace",
    "building:condition": "good",
    "building:floor": "ceramics",
    "building:levels": "2",
    "building:roof": "concrete",
    "building:structure": "confined_masonry",
    "building:walls": "brick",
    "capacity:persons": "100-250",
    "name": "Pasar Baba'an Baru",
    "id": "way/451826906"
  },
  "geometry": {
    "type": "Point",
    "coordinates": [
      112.7354556,
      -7.2284193
    ]
  }
},
{
  "type": "Feature",
  "id": "way/451857622",
  "properties": {
    "addr:full": "Jalan Brawijaya",
    "amenity": "marketplace",
    "building": "marketplace",
    "building:condition": "average",
    "building:floor": "ground",
    "building:levels": "1",
    "building:roof": "asbestos",
    "building:structure": "confined_masonry",
    "building:walls": "brick",
    "capacity:persons": "100-250",
    "name": "Pasar Wonokitri",
    "id": "way/451857622"
  },
  "geometry": {
    "type": "Point",
    "coordinates": [
      112.7256896,
      -7.2945625
    ]
  }
},
{
  "type": "Feature",
  "id": "way/452173173",
  "properties": {
    "access:roof": "no",
    "addr:full": "Jalan Bulak Banteng",
    "amenity": "marketplace",
    "backup_generator": "no",
    "building": "marketplace",
    "building:condition": "poor",
    "building:floor": "cement",
    "building:levels": "1",
    "building:roof": "asbestos",
    "building:structure": "confined_masonry",
    "building:walls": "brick",
    "capacity:persons": "250-500",
    "name": "Pasar Bulak Banteng",
    "id": "way/452173173"
  },
  "geometry": {
    "type": "Point",
    "coordinates": [
      112.7610529,
      -7.2179311
    ]
  }
},
{
  "type": "Feature",
  "id": "way/452371764",
  "properties": {
    "access:roof": "no",
    "addr:full": "Jalan Bulak Banteng Bhineka Raya",
    "amenity": "marketplace",
    "backup_generator": "no",
    "building": "marketplace",
    "building:condition": "poor",
    "building:floor": "cement",
    "building:levels": "1",
    "building:roof": "asbestos",
    "building:structure": "confined_masonry",
    "building:walls": "brick",
    "capacity:persons": "250-500",
    "name": "Pasar Bulak Banteng",
    "id": "way/452371764"
  },
  "geometry": {
    "type": "Point",
    "coordinates": [
      112.765322,
      -7.2124181
    ]
  }
},
{
  "type": "Feature",
  "id": "way/452601173",
  "properties": {
    "addr:full": "Jalan Wonokusumo",
    "amenity": "marketplace",
    "building": "marketplace",
    "capacity:persons": "100-250",
    "name": "Pasar Buah Pegirian",
    "id": "way/452601173"
  },
  "geometry": {
    "type": "Point",
    "coordinates": [
      112.7519682,
      -7.2236596
    ]
  }
},
{
  "type": "Feature",
  "id": "way/453439341",
  "properties": {
    "access:roof": "no",
    "addr:full": "Jalan Bulak Banteng Sekolahan",
    "amenity": "marketplace",
    "backup_generator": "no",
    "building": "marketplace",
    "building:condition": "poor",
    "building:floor": "tekhel",
    "building:levels": "1",
    "building:roof": "asbestos",
    "building:structure": "confined_masonry",
    "building:walls": "brick",
    "capacity:persons": "250-500",
    "name": "Pasar Podomoro",
    "id": "way/453439341"
  },
  "geometry": {
    "type": "Point",
    "coordinates": [
      112.7667668,
      -7.2187068
    ]
  }
},
{
  "type": "Feature",
  "id": "way/453890072",
  "properties": {
    "amenity": "marketplace",
    "building": "marketplace",
    "name": "Pasar",
    "id": "way/453890072"
  },
  "geometry": {
    "type": "Point",
    "coordinates": [
      112.7148142,
      -7.2456174
    ]
  }
},
{
  "type": "Feature",
  "id": "way/454132663",
  "properties": {
    "access:roof": "no",
    "addr:full": "Jalan Babadan",
    "amenity": "marketplace",
    "backup_generator": "no",
    "building": "marketplace",
    "building:condition": "poor",
    "building:levels": "1",
    "building:roof": "asbestos",
    "building:structure": "confined_masonry",
    "building:walls": "brick",
    "capacity:persons": "50-100",
    "name": "Pasar",
    "id": "way/454132663"
  },
  "geometry": {
    "type": "Point",
    "coordinates": [
      112.7226284,
      -7.2436016
    ]
  }
},
{
  "type": "Feature",
  "id": "way/454182588",
  "properties": {
    "access:roof": "no",
    "addr:full": "Jalan Dupak Masigit VI",
    "amenity": "marketplace",
    "backup_generator": "no",
    "building": "marketplace",
    "building:condition": "poor",
    "building:floor": "tekhel",
    "building:levels": "1",
    "building:roof": "tin",
    "building:structure": "wood_frame",
    "building:walls": "wood",
    "capacity:persons": "50-100",
    "name": "Pasar Dupak Jaya",
    "id": "way/454182588"
  },
  "geometry": {
    "type": "Point",
    "coordinates": [
      112.7258328,
      -7.2427652
    ]
  }
},
{
  "type": "Feature",
  "id": "way/455037163",
  "properties": {
    "addr:full": "Jalan Kranggan",
    "amenity": "marketplace",
    "building": "marketplace",
    "name": "Pasar Blauran",
    "id": "way/455037163"
  },
  "geometry": {
    "type": "Point",
    "coordinates": [
      112.7335163,
      -7.2565646
    ]
  }
},
{
  "type": "Feature",
  "id": "way/455426669",
  "properties": {
    "access:roof": "no",
    "addr:full": "Jalan Alun alun Bangunsari utara",
    "amenity": "marketplace",
    "backup_generator": "no",
    "building": "marketplace",
    "building:condition": "good",
    "building:floor": "ceramics",
    "building:levels": "1",
    "building:roof": "tile",
    "building:structure": "confined_masonry",
    "building:walls": "brick",
    "capacity:persons": "250-500",
    "name": "Pasar Bangun Rejo",
    "id": "way/455426669"
  },
  "geometry": {
    "type": "Point",
    "coordinates": [
      112.7171834,
      -7.2390493
    ]
  }
},
{
  "type": "Feature",
  "id": "way/455437293",
  "properties": {
    "addr:full": "jalan darmo permai timur iii",
    "amenity": "marketplace",
    "building": "marketplace",
    "capacity:persons": "50-100",
    "name": "Pasar Tradisional Darmo Permai",
    "id": "way/455437293"
  },
  "geometry": {
    "type": "Point",
    "coordinates": [
      112.698861,
      -7.2841461
    ]
  }
},
{
  "type": "Feature",
  "id": "way/455599080",
  "properties": {
    "access:roof": "no",
    "addr:full": "Jalan Manukan",
    "amenity": "marketplace",
    "backup_generator": "no",
    "building": "marketplace",
    "building:condition": "poor",
    "building:floor": "cement",
    "building:roof": "asbestos",
    "building:structure": "confined_masonry",
    "building:walls": "wood",
    "capacity:persons": "50-100",
    "name": "Pasar Dorowati",
    "id": "way/455599080"
  },
  "geometry": {
    "type": "Point",
    "coordinates": [
      112.6689423,
      -7.2686518
    ]
  }
},
{
  "type": "Feature",
  "id": "way/455662485",
  "properties": {
    "access:roof": "no",
    "addr:full": "jalan putat jaya",
    "amenity": "marketplace",
    "backup_generator": "no",
    "building": "marketplace",
    "building:condition": "good",
    "building:floor": "ceramics",
    "building:structure": "confined_masonry",
    "building:walls": "brick",
    "capacity:persons": ">500",
    "name": "Pasar Kupang Gunung",
    "id": "way/455662485"
  },
  "geometry": {
    "type": "Point",
    "coordinates": [
      112.7221691,
      -7.2785928
    ]
  }
},
{
  "type": "Feature",
  "id": "way/456503375",
  "properties": {
    "access:roof": "no",
    "addr:full": "Jalan Kalibutuh",
    "amenity": "marketplace",
    "backup_generator": "no",
    "building": "marketplace",
    "building:condition": "poor",
    "building:floor": "cement",
    "building:levels": "1",
    "building:roof": "tile",
    "building:structure": "confined_masonry",
    "building:walls": "wood",
    "capacity:persons": "50-100",
    "name": "Pasar Tembok Dukuh",
    "id": "way/456503375"
  },
  "geometry": {
    "type": "Point",
    "coordinates": [
      112.7268083,
      -7.2555002
    ]
  }
},
{
  "type": "Feature",
  "id": "way/456691659",
  "properties": {
    "addr:full": "jalan raya mastrip",
    "amenity": "marketplace",
    "building": "marketplace",
    "building:condition": "good",
    "building:floor": "cement",
    "building:roof": "tile",
    "building:structure": "confined_masonry",
    "building:walls": "brick",
    "capacity:persons": "100-250",
    "name": "Pasar Karang Pilang",
    "id": "way/456691659"
  },
  "geometry": {
    "type": "Point",
    "coordinates": [
      112.695114,
      -7.3417828
    ]
  }
},
{
  "type": "Feature",
  "id": "way/457112884",
  "properties": {
    "addr:full": "Jalan Tanjungsari 26 a",
    "amenity": "marketplace",
    "building": "marketplace",
    "building:levels": "1",
    "building:structure": "confined_masonry",
    "capacity:persons": "50-100",
    "name": "Pasar Buah Tradisional",
    "id": "way/457112884"
  },
  "geometry": {
    "type": "Point",
    "coordinates": [
      112.7011782,
      -7.2560316
    ]
  }
},
{
  "type": "Feature",
  "id": "way/458603907",
  "properties": {
    "access:roof": "no",
    "amenity": "marketplace",
    "backup_generator": "no",
    "building": "marketplace",
    "building:condition": "good",
    "building:floor": "cement",
    "building:levels": "1",
    "building:roof": "tin",
    "building:structure": "wood_frame",
    "building:walls": "brick",
    "capacity:persons": "50-100",
    "name": "Pasar Surya Kendangsari",
    "id": "way/458603907"
  },
  "geometry": {
    "type": "Point",
    "coordinates": [
      112.7505321,
      -7.3247979
    ]
  }
},
{
  "type": "Feature",
  "id": "way/459701260",
  "properties": {
    "access:roof": "no",
    "addr:full": "banjar sugihan telaga",
    "amenity": "marketplace",
    "backup_generator": "no",
    "building": "marketplace",
    "building:condition": "good",
    "building:floor": "cement",
    "building:levels": "1",
    "building:roof": "asbestos",
    "building:structure": "wood_frame",
    "building:walls": "wood",
    "capacity:persons": "100-250",
    "name": "Pasar Banjar Sugihan",
    "id": "way/459701260"
  },
  "geometry": {
    "type": "Point",
    "coordinates": [
      112.6583737,
      -7.2552984
    ]
  }
},
{
  "type": "Feature",
  "id": "way/459921941",
  "properties": {
    "access:roof": "no",
    "addr:full": "Jalan Dukuh Kupang Barat",
    "amenity": "marketplace",
    "backup_generator": "no",
    "building": "marketplace",
    "building:condition": "good",
    "building:floor": "ceramics",
    "building:levels": "1",
    "building:roof": "tile",
    "building:structure": "confined_masonry",
    "building:walls": "brick",
    "capacity:persons": "250-500",
    "name": "Pasar Dukuh Kupang",
    "id": "way/459921941"
  },
  "geometry": {
    "type": "Point",
    "coordinates": [
      112.7112939,
      -7.2808954
    ]
  }
},
{
  "type": "Feature",
  "id": "way/459961189",
  "properties": {
    "access:roof": "no",
    "addr:full": "jalan balomgsari",
    "amenity": "marketplace",
    "backup_generator": "no",
    "building": "marketplace",
    "building:floor": "cement",
    "building:roof": "asbestos",
    "capacity:persons": "100-250",
    "name": "Pasar Surya Balongsari",
    "id": "way/459961189"
  },
  "geometry": {
    "type": "Point",
    "coordinates": [
      112.6791202,
      -7.2594087
    ]
  }
},
{
  "type": "Feature",
  "id": "way/461091820",
  "properties": {
    "access:roof": "no",
    "addr:full": "Jalan Sidosermo PDK V",
    "amenity": "marketplace",
    "backup_generator": "no",
    "building": "marketplace",
    "building:condition": "good",
    "building:floor": "cement",
    "building:levels": "1",
    "building:roof": "tin",
    "building:structure": "wood_frame",
    "building:walls": "wood",
    "capacity:persons": "<50",
    "name": "Pasar Krempyeng Sidosermo",
    "id": "way/461091820"
  },
  "geometry": {
    "type": "Point",
    "coordinates": [
      112.7519965,
      -7.3095612
    ]
  }
},
{
  "type": "Feature",
  "id": "way/466534433",
  "properties": {
    "amenity": "marketplace",
    "building": "yes",
    "name": "Pasar Sukodono",
    "id": "way/466534433"
  },
  "geometry": {
    "type": "Point",
    "coordinates": [
      112.6722655,
      -7.4041554
    ]
  }
},
{
  "type": "Feature",
  "id": "way/468664312",
  "properties": {
    "access:roof": "no",
    "addr:full": "Jalan Bambe Dukuh Menanggal",
    "amenity": "marketplace",
    "backup_generator": "no",
    "building": "marketplace",
    "building:condition": "good",
    "building:floor": "ceramics",
    "building:levels": "1",
    "building:roof": "asbestos",
    "building:structure": "steel_frame",
    "building:walls": "concrete",
    "capacity:persons": "50-100",
    "name": "Pasar Dukuh Menanggal",
    "id": "way/468664312"
  },
  "geometry": {
    "type": "Point",
    "coordinates": [
      112.7199113,
      -7.3423915
    ]
  }
},
{
  "type": "Feature",
  "id": "way/472077909",
  "properties": {
    "addr:city": "Sedati",
    "amenity": "marketplace",
    "building": "yes",
    "name": "Terminal dan Pertokoan Sedati",
    "id": "way/472077909"
  },
  "geometry": {
    "type": "Point",
    "coordinates": [
      112.7618985,
      -7.3845914
    ]
  }
},
{
  "type": "Feature",
  "id": "way/474313587",
  "properties": {
    "access:roof": "yes",
    "amenity": "marketplace",
    "backup_generator": "yes",
    "building": "marketplace",
    "building:condition": "good",
    "building:floor": "ceramics",
    "building:levels": "3",
    "building:roof": "concrete",
    "building:structure": "confined_masonry",
    "building:walls": "brick",
    "name": "Kantor Pusat PD Pasar Surya",
    "id": "way/474313587"
  },
  "geometry": {
    "type": "Point",
    "coordinates": [
      112.7647729,
      -7.278885
    ]
  }
},
{
  "type": "Feature",
  "id": "way/487357290",
  "properties": {
    "amenity": "marketplace",
    "building": "marketplace",
    "name": "Fresh Market Citraland",
    "opening_hours": "Mo-Su 05:30-15:00",
    "id": "way/487357290"
  },
  "geometry": {
    "type": "Point",
    "coordinates": [
      112.6456206,
      -7.2760321
    ]
  }
},
{
  "type": "Feature",
  "id": "node/2065700408",
  "properties": {
    "amenity": "marketplace",
    "designation": "Jl Raya Sepanjang No.97 Sepanjang Taman Sidoarjo",
    "name": "ISTANA MEBEL",
    "id": "node/2065700408"
  },
  "geometry": {
    "type": "Point",
    "coordinates": [
      112.6946879,
      -7.3443197
    ]
  }
},
{
  "type": "Feature",
  "id": "node/2803070820",
  "properties": {
    "addr:city": "Sidoarjo",
    "addr:housenumber": "177 â€“ 183",
    "addr:street": "Jl. Sawunggaling",
    "amenity": "marketplace",
    "name": "Komplek Pasar Induk Agro puspo",
    "name:en": "Agro puspo Central Market",
    "id": "node/2803070820"
  },
  "geometry": {
    "type": "Point",
    "coordinates": [
      112.6852808,
      -7.3719768
    ]
  }
},
{
  "type": "Feature",
  "id": "node/4461489614",
  "properties": {
    "amenity": "marketplace",
    "name": "Pasar Kedondong",
    "id": "node/4461489614"
  },
  "geometry": {
    "type": "Point",
    "coordinates": [
      112.7395668,
      -7.2721326
    ]
  }
},
{
  "type": "Feature",
  "id": "node/4580573991",
  "properties": {
    "addr:full": "jalan sikatan pasar",
    "amenity": "marketplace",
    "name": "Pasar Sikatan",
    "id": "node/4580573991"
  },
  "geometry": {
    "type": "Point",
    "coordinates": [
      112.6719081,
      -7.2594481
    ]
  }
},
{
  "type": "Feature",
  "id": "node/4620142013",
  "properties": {
    "addr:full": "manukan Yoso",
    "amenity": "marketplace",
    "name": "Pasar Darurat (Manukan Kulon)",
    "id": "node/4620142013"
  },
  "geometry": {
    "type": "Point",
    "coordinates": [
      112.6624319,
      -7.2620715
    ]
  }
}
]
}
