{
"type": "FeatureCollection",
"features": [
{
  "type": "Feature",
  "id": "way/155884101",
  "properties": {
    "addr:full": "j merto",
    "addr:housename": "Jalan Jimerto",
    "admin_level": "5",
    "amenity": "townhall",
    "building": "townhall",
    "building:condition": "good",
    "building:floor": "ceramics",
    "building:levels": "2",
    "building:roof": "concrete",
    "building:structure": "confined_masonry",
    "building:walls": "brick",
    "capacity:persons": ">500",
    "name": "Kantor Bappeko Surabaya",
    "office": "government",
    "id": "way/155884101"
  },
  "geometry": {
    "type": "Point",
    "coordinates": [
      112.747481,
      -7.2576937
    ]
  }
},
{
  "type": "Feature",
  "id": "way/155884166",
  "properties": {
    "addr:city": "Surabaya",
    "addr:full": "jalan sedap malam",
    "addr:street": "Jalan Sedap Malam",
    "admin_level": "5",
    "amenity": "townhall",
    "building": "townhall",
    "building:condition": "good",
    "building:floor": "ceramics",
    "building:levels": "2",
    "building:roof": "tile",
    "building:structure": "confined_masonry",
    "building:walls": "brick",
    "capacity:persons": "100-250",
    "name": "Balai Kota Surabaya",
    "office": "government",
    "official_name": "Kantor Pemerintah Kota Surabaya",
    "id": "way/155884166"
  },
  "geometry": {
    "type": "Point",
    "coordinates": [
      112.7470974,
      -7.2592138
    ]
  }
},
{
  "type": "Feature",
  "id": "way/307391957",
  "properties": {
    "addr:full": "Jalan Abdul Latif Nomor 1",
    "amenity": "townhall",
    "building": "yes",
    "name": "Graha Persatuan Purnawirawan Angkatan Laut",
    "id": "way/307391957"
  },
  "geometry": {
    "type": "Point",
    "coordinates": [
      112.7937057,
      -7.241606
    ]
  }
},
{
  "type": "Feature",
  "id": "way/448176177",
  "properties": {
    "addr:full": "Jalan Wiratno",
    "amenity": "townhall",
    "building": "yes",
    "name": "Pusdiklat Hanudnas",
    "id": "way/448176177"
  },
  "geometry": {
    "type": "Point",
    "coordinates": [
      112.7936924,
      -7.248952
    ]
  }
},
{
  "type": "Feature",
  "id": "way/459262749",
  "properties": {
    "access:roof": "no",
    "addr:full": "Jalan Medokan Ayu Utara VII",
    "amenity": "townhall",
    "building": "yes",
    "building:condition": "good",
    "building:floor": "ceramics",
    "building:levels": "2",
    "building:roof": "asbestos",
    "building:structure": "confined_masonry",
    "building:walls": "brick",
    "capacity:persons": "100-250",
    "name": "Gedung Serba Guna Medokan Ayu",
    "id": "way/459262749"
  },
  "geometry": {
    "type": "Point",
    "coordinates": [
      112.7952898,
      -7.3236797
    ]
  }
},
{
  "type": "Feature",
  "id": "way/472305195",
  "properties": {
    "amenity": "townhall",
    "building": "yes",
    "id": "way/472305195"
  },
  "geometry": {
    "type": "Point",
    "coordinates": [
      112.7337218,
      -7.3923147
    ]
  }
}
]
}
