{
"type": "FeatureCollection",
"features": [
{
  "type": "Feature",
  "id": "way/250948989",
  "properties": {
    "amenity": "marketplace",
    "building": "yes",
    "id": "way/250948989"
  },
  "geometry": {
    "type": "Point",
    "coordinates": [
      -5.8118097,
      35.7832573
    ]
  }
},
{
  "type": "Feature",
  "id": "way/250948990",
  "properties": {
    "amenity": "marketplace",
    "building": "yes",
    "id": "way/250948990"
  },
  "geometry": {
    "type": "Point",
    "coordinates": [
      -5.8121772,
      35.7846152
    ]
  }
},
{
  "type": "Feature",
  "id": "way/277666424",
  "properties": {
    "amenity": "marketplace",
    "name": "Souk Al-Hout",
    "name:fr": "Marché Central De Poissons",
    "id": "way/277666424"
  },
  "geometry": {
    "type": "Point",
    "coordinates": [
      -5.8115987,
      35.7840007
    ]
  }
},
{
  "type": "Feature",
  "id": "way/331931772",
  "properties": {
    "amenity": "marketplace",
    "building": "yes",
    "name": "Souq al-Jumla سوق الجملة",
    "name:ar": "سوق الجملة",
    "name:fr": "Souq al-Jumla",
    "shop": "greengrocer",
    "wholesale": "yes",
    "id": "way/331931772"
  },
  "geometry": {
    "type": "Point",
    "coordinates": [
      -5.796335,
      35.7485401
    ]
  }
},
{
  "type": "Feature",
  "id": "way/475605229",
  "properties": {
    "amenity": "marketplace",
    "building": "yes",
    "name": "Souq Souani",
    "id": "way/475605229"
  },
  "geometry": {
    "type": "Point",
    "coordinates": [
      -5.8244377,
      35.7713379
    ]
  }
},
{
  "type": "Feature",
  "id": "node/2849419569",
  "properties": {
    "amenity": "marketplace",
    "fixme": "resurvey",
    "name": "Place Jedida",
    "id": "node/2849419569"
  },
  "geometry": {
    "type": "Point",
    "coordinates": [
      -5.8138939,
      35.7784944
    ]
  }
},
{
  "type": "Feature",
  "id": "node/2849419583",
  "properties": {
    "amenity": "marketplace",
    "name": "Fish Sellers",
    "produce": "fish",
    "id": "node/2849419583"
  },
  "geometry": {
    "type": "Point",
    "coordinates": [
      -5.8044744,
      35.7862786
    ]
  }
}
]
}
