{
"type": "FeatureCollection",
"features": [
{
  "type": "Feature",
  "id": "relation/2907143",
  "properties": {
    "amenity": "university",
    "building": "yes",
    "name": "Faculté de Médecine",
    "source": "GeoCameroun",
    "type": "multipolygon",
    "id": "relation/2907143"
  },
  "geometry": {
    "type": "Point",
    "coordinates": [
      11.4958616,
      3.862526
    ]
  }
},
{
  "type": "Feature",
  "id": "way/188072747",
  "properties": {
    "amenity": "university",
    "name": "Université de Yaoundé I",
    "name:en": "Yaoundé I University",
    "phone": "+237 22 22 13 20",
    "website": "http://www.uy1.uninet.cm/",
    "wikipedia": "fr:Université de Yaoundé I",
    "id": "way/188072747"
  },
  "geometry": {
    "type": "Point",
    "coordinates": [
      11.4997916,
      3.8566837
    ]
  }
},
{
  "type": "Feature",
  "id": "way/188147076",
  "properties": {
    "amenity": "university",
    "name": "Université Catholique d'Afrique centrale",
    "short_name": "UCAC",
    "id": "way/188147076"
  },
  "geometry": {
    "type": "Point",
    "coordinates": [
      11.5212039,
      3.8439781
    ]
  }
},
{
  "type": "Feature",
  "id": "way/191158953",
  "properties": {
    "amenity": "university",
    "name": "École Nationale Supérieure Polytechnique",
    "short_name": "ENSP",
    "source": "GeoCameroun",
    "website": "http://www.polytechcm.org/",
    "id": "way/191158953"
  },
  "geometry": {
    "type": "Point",
    "coordinates": [
      11.4999825,
      3.8624211
    ]
  }
},
{
  "type": "Feature",
  "id": "way/191163685",
  "properties": {
    "amenity": "university",
    "id": "way/191163685"
  },
  "geometry": {
    "type": "Point",
    "coordinates": [
      11.4961091,
      3.8614366
    ]
  }
},
{
  "type": "Feature",
  "id": "way/191165078",
  "properties": {
    "amenity": "university",
    "barrier": "fence",
    "name": "Institut des Relations Internationales du Cameroun",
    "short_name": "IRIC",
    "id": "way/191165078"
  },
  "geometry": {
    "type": "Point",
    "coordinates": [
      11.4913432,
      3.8545528
    ]
  }
},
{
  "type": "Feature",
  "id": "way/191232426",
  "properties": {
    "amenity": "university",
    "name": "Université Yaoundé Sud Joseph Ndi Samba",
    "source": "GeoCameroun",
    "id": "way/191232426"
  },
  "geometry": {
    "type": "Point",
    "coordinates": [
      11.5222396,
      3.8118324
    ]
  }
},
{
  "type": "Feature",
  "id": "way/191632477",
  "properties": {
    "amenity": "university",
    "building": "yes",
    "name": "Institut Supérieur de Technologie Médical",
    "school:CM": "institut",
    "source": "geocameroun",
    "id": "way/191632477"
  },
  "geometry": {
    "type": "Point",
    "coordinates": [
      11.5093554,
      3.9527628
    ]
  }
},
{
  "type": "Feature",
  "id": "way/191648627",
  "properties": {
    "amenity": "university",
    "building": "school",
    "name": "Institut Moderne MBASSI",
    "school:CM": "institut",
    "source": "geocameroun",
    "id": "way/191648627"
  },
  "geometry": {
    "type": "Point",
    "coordinates": [
      11.5180768,
      3.9401174
    ]
  }
},
{
  "type": "Feature",
  "id": "way/192814206",
  "properties": {
    "amenity": "university",
    "building": "yes",
    "denomination": "protestant",
    "name": "Universite Protestante d'Afrique",
    "religion": "christian",
    "source": "GeoCameroun",
    "id": "way/192814206"
  },
  "geometry": {
    "type": "Point",
    "coordinates": [
      11.522087,
      3.8773319
    ]
  }
},
{
  "type": "Feature",
  "id": "way/192842322",
  "properties": {
    "amenity": "university",
    "building": "school",
    "name": "Départements sociologie et Histoire",
    "operator": "Université de Yaoundé I",
    "short_name": "AUF",
    "source": "GeoCameroun",
    "id": "way/192842322"
  },
  "geometry": {
    "type": "Point",
    "coordinates": [
      11.506924,
      3.8578584
    ]
  }
},
{
  "type": "Feature",
  "id": "way/192845364",
  "properties": {
    "amenity": "university",
    "building": "yes",
    "name": "Ecole Nationale d'Administration et de Magistrature",
    "short_name": "ENAM",
    "source": "sobzeros",
    "id": "way/192845364"
  },
  "geometry": {
    "type": "Point",
    "coordinates": [
      11.5112954,
      3.8606801
    ]
  }
},
{
  "type": "Feature",
  "id": "way/195414251",
  "properties": {
    "amenity": "university",
    "name": "Université de Yaoundé 2 - Soa",
    "id": "way/195414251"
  },
  "geometry": {
    "type": "Point",
    "coordinates": [
      11.5880135,
      3.9647368
    ]
  }
},
{
  "type": "Feature",
  "id": "way/219665338",
  "properties": {
    "alt_name": "la Catho",
    "amenity": "university",
    "denomination": "catholic",
    "name": "Université Catholique d'Afrique Centrale",
    "religion": "christian",
    "short_name": "UCAC",
    "source": "GeoCameroun",
    "id": "way/219665338"
  },
  "geometry": {
    "type": "Point",
    "coordinates": [
      11.4471176,
      3.8695312
    ]
  }
},
{
  "type": "Feature",
  "id": "way/219836594",
  "properties": {
    "amenity": "university",
    "name": "Institut Matamfen",
    "id": "way/219836594"
  },
  "geometry": {
    "type": "Point",
    "coordinates": [
      11.5192521,
      3.8828572
    ]
  }
},
{
  "type": "Feature",
  "id": "way/219988777",
  "properties": {
    "amenity": "university",
    "name": "ESIG Complexe Universitaire Siantou",
    "source": "GeoCameroun",
    "id": "way/219988777"
  },
  "geometry": {
    "type": "Point",
    "coordinates": [
      11.5646352,
      3.8486368
    ]
  }
},
{
  "type": "Feature",
  "id": "way/353842836",
  "properties": {
    "addr:city": "Yaoundé",
    "addr:postcode": "BP 8114 yde",
    "amenity": "university",
    "building": "educatif",
    "building:levels": "1",
    "contact:fax": "22228759",
    "contact:phone": "22239745",
    "contact:website": "www.afrique-centrale.auf.org",
    "ele": "789m",
    "name": "agence universitaire de la francophonie",
    "phone": "+237 222 23 97 45",
    "website": "http://www.auf.org/bureau-afrique-centrale-et-des-grands-lacs/",
    "id": "way/353842836"
  },
  "geometry": {
    "type": "Point",
    "coordinates": [
      11.5071028,
      3.8577751
    ]
  }
},
{
  "type": "Feature",
  "id": "node/1987163108",
  "properties": {
    "amenity": "university",
    "name": "Ecole Normale Supérieure",
    "id": "node/1987163108"
  },
  "geometry": {
    "type": "Point",
    "coordinates": [
      11.509741,
      3.8609372
    ]
  }
}
]
}
