{
  "version": 0.6,
  "generator": "Overpass API",
  "osm3s": {
    "timestamp_osm_base": "2017-05-15T14:35:19Z",
    "copyright": "The data included in this document is from www.openstreetmap.org. The data is made available under ODbL."
  },
  "elements": [

{
  "type": "node",
  "id": 2499528286,
  "lat": 6.3831567,
  "lon": 2.3948629,
  "tags": {
    "amenity": "hospital",
    "name": "Dispensaire DeSouza",
    "source": "GPS;survey"
  }
},
{
  "type": "node",
  "id": 3260703525,
  "lat": 6.3899961,
  "lon": 2.3652351,
  "tags": {
    "amenity": "hospital",
    "name": "Hôpital de Menontin",
    "source:name": "survey"
  }
},
{
  "type": "node",
  "id": 3592579493,
  "lat": 6.3920956,
  "lon": 2.3010582,
  "tags": {
    "amenity": "hospital",
    "name": "Centre Medical Nassira",
    "source": "gps;survey"
  }
},
{
  "type": "node",
  "id": 3900428339,
  "lat": 6.3893070,
  "lon": 2.3107980,
  "tags": {
    "amenity": "hospital",
    "name": "Hopital Humanity Frist",
    "operator": "Privée",
    "phone": "0022997216262"
  }
},
{
  "type": "node",
  "id": 3920702829,
  "lat": 6.3899938,
  "lon": 2.3239034,
  "tags": {
    "amenity": "hospital",
    "name": "Centre de santé Galilée",
    "operator": "ONG OVDH",
    "phone": "(+229) 97065593/ 95031840"
  }
},
{
  "type": "node",
  "id": 3949940791,
  "lat": 6.3918800,
  "lon": 2.3278447,
  "tags": {
    "amenity": "hospital",
    "name": "Hôpital Saint Augustin",
    "phone": "21037893"
  }
},
{
  "type": "node",
  "id": 3949957862,
  "lat": 6.3907425,
  "lon": 2.3290904,
  "tags": {
    "amenity": "hospital",
    "name": "Centre de santé Shalom",
    "phone": "95953316"
  }
},
{
  "type": "node",
  "id": 3969886224,
  "lat": 6.4484028,
  "lon": 2.3533443,
  "tags": {
    "amenity": "hospital",
    "name": "Centre de santé de la commune d’Abomey-Calavi"
  }
},
{
  "type": "node",
  "id": 3976417069,
  "lat": 6.4343656,
  "lon": 2.3443859,
  "tags": {
    "amenity": "hospital",
    "name": "Clinique pédiatrique d’Abomey-Calavi",
    "opening_hours": "24/7",
    "phone": "(+229)95372161/95863945"
  }
},
{
  "type": "node",
  "id": 3989796513,
  "lat": 6.4277418,
  "lon": 2.3018412,
  "tags": {
    "amenity": "hospital",
    "healthcare": "yes",
    "name": "Centre de santé public de Maria Gleta",
    "source": "Pleiade_2016"
  }
},
{
  "type": "node",
  "id": 3989799358,
  "lat": 6.4326386,
  "lon": 2.3497055,
  "tags": {
    "amenity": "hospital",
    "name": "Clinique centrale de Calavi",
    "phone": "(+229)66789301/95068743/99476827"
  }
},
{
  "type": "node",
  "id": 4016630242,
  "lat": 6.4635913,
  "lon": 2.3038475,
  "tags": {
    "amenity": "hospital",
    "name": "Centre de santé de Togba maternité"
  }
},
{
  "type": "node",
  "id": 4019451629,
  "lat": 6.4069524,
  "lon": 2.3429074,
  "tags": {
    "amenity": "hospital",
    "emergency": "no",
    "name": "Centre Médical Albert Schweitzer"
  }
},
{
  "type": "node",
  "id": 4029928434,
  "lat": 6.4730697,
  "lon": 2.3426891,
  "tags": {
    "amenity": "hospital",
    "name": "Hopital de zone d’Abomey-Calavi"
  }
},
{
  "type": "node",
  "id": 4161715092,
  "lat": 6.4148248,
  "lon": 2.3442712,
  "tags": {
    "amenity": "hospital",
    "name": "CNHU"
  }
},
{
  "type": "node",
  "id": 4172329288,
  "lat": 6.3819772,
  "lon": 2.4629357,
  "tags": {
    "amenity": "hospital",
    "name": "Hopital de Zone de SURU LERE"
  }
},
{
  "type": "node",
  "id": 4187858341,
  "lat": 6.4024688,
  "lon": 2.3274833,
  "tags": {
    "amenity": "hospital",
    "name": "Clinique St. Benjamin"
  }
},
{
  "type": "node",
  "id": 4208098202,
  "lat": 6.3706930,
  "lon": 2.4473709,
  "tags": {
    "amenity": "hospital",
    "name": "Hopital Misséssin"
  }
},
{
  "type": "node",
  "id": 4228452693,
  "lat": 6.3781288,
  "lon": 2.4498446,
  "tags": {
    "amenity": "hospital",
    "name": "Hopital de Zone Ayélawadjè"
  }
},
{
  "type": "node",
  "id": 4249997051,
  "lat": 6.3606694,
  "lon": 2.4258161,
  "tags": {
    "addr:housenumber": "1278",
    "amenity": "hospital",
    "description": "chirurgie générale et spécialités, imagerie et analyses biomédicales",
    "email": "sainteanned.afrique@gmail.com",
    "name": "Centre médico-social Sainte Anne d'Afrique",
    "phone": "21315850"
  }
},
{
  "type": "node",
  "id": 4254408220,
  "lat": 6.3860630,
  "lon": 2.4223591,
  "tags": {
    "amenity": "hospital",
    "name": "Centre d'isolement MVE"
  }
},
{
  "type": "node",
  "id": 4254408221,
  "lat": 6.3857765,
  "lon": 2.4219845,
  "tags": {
    "amenity": "hospital",
    "name": "Centre de santé d'Ahouansori-Agué"
  }
},
{
  "type": "node",
  "id": 4264120629,
  "lat": 6.3461326,
  "lon": 2.2062775,
  "tags": {
    "amenity": "hospital",
    "name": "Centre de Santé Avlékété",
    "source": "gps,survey"
  }
},
{
  "type": "node",
  "id": 4309638150,
  "lat": 6.3736833,
  "lon": 2.3225833,
  "tags": {
    "amenity": "hospital",
    "name": "Centre de santé d’arrondissement (CSA) de Dèkoungbé"
  }
},
{
  "type": "node",
  "id": 4309638152,
  "lat": 6.4570450,
  "lon": 2.2564900,
  "tags": {
    "amenity": "hospital",
    "name": "Centre de santé de Ouedo"
  }
},
{
  "type": "node",
  "id": 4309638154,
  "lat": 6.4108967,
  "lon": 2.2997300,
  "tags": {
    "amenity": "hospital",
    "name": "Centre de santé d’arrondissement (CSA) de Womey"
  }
},
{
  "type": "node",
  "id": 4309638912,
  "lat": 6.4031433,
  "lon": 2.3171933,
  "tags": {
    "amenity": "hospital",
    "name": "Centre de santé Eau-vive"
  }
},
{
  "type": "node",
  "id": 4309639320,
  "lat": 6.4045283,
  "lon": 2.3162433,
  "tags": {
    "amenity": "hospital",
    "name": "Centre de santé Eau-vive"
  }
},
{
  "type": "node",
  "id": 4309639542,
  "lat": 6.3837146,
  "lon": 2.2715231,
  "tags": {
    "amenity": "hospital",
    "name": "Centre de santé d’arrondissement (CSA) de Cococodji"
  }
},
{
  "type": "node",
  "id": 4309639543,
  "lat": 6.4406333,
  "lon": 2.2479683,
  "tags": {
    "FIXME": "position ?",
    "amenity": "hospital",
    "name": "Centre de santé de Hêvié"
  }
},
{
  "type": "node",
  "id": 4309639547,
  "lat": 6.3897357,
  "lon": 2.3458980,
  "tags": {
    "amenity": "hospital",
    "name": "Centre de Santé public de Godomey"
  }
},
{
  "type": "node",
  "id": 4310949928,
  "lat": 6.5579353,
  "lon": 2.3031905,
  "tags": {
    "amenity": "hospital",
    "name": "Centre de Santé de GOLO DJIGBE"
  }
},
{
  "type": "node",
  "id": 4311038853,
  "lat": 6.5083702,
  "lon": 2.3631655,
  "tags": {
    "amenity": "hospital",
    "name": "Centre de Santé de AKASSATO"
  }
},
{
  "type": "node",
  "id": 4312717843,
  "lat": 6.5015281,
  "lon": 2.3994746,
  "tags": {
    "addr:hamlet": "Dogodo",
    "amenity": "hospital",
    "name": "Centre de santé de So-Ava"
  }
},
{
  "type": "node",
  "id": 4312717844,
  "lat": 6.5311286,
  "lon": 2.4327999,
  "tags": {
    "addr:hamlet": "Houedo-Aguekon",
    "amenity": "hospital",
    "name": "Centre de Santé de Gbessou"
  }
},
{
  "type": "node",
  "id": 4312720579,
  "lat": 6.5834760,
  "lon": 2.4042746,
  "tags": {
    "addr:hamlet": "Ahomey Lokpo",
    "amenity": "hospital",
    "name": "Centre de santé Ahomey Lopko"
  }
},
{
  "type": "node",
  "id": 4312742170,
  "lat": 6.4982139,
  "lon": 2.4575849,
  "tags": {
    "addr:hamlet": "Houedo-Aguekon",
    "amenity": "hospital",
    "name": "Centre de santé de Houedo-Aguekon"
  }
},
{
  "type": "node",
  "id": 4313114200,
  "lat": 6.4747325,
  "lon": 2.3913296,
  "tags": {
    "addr:hamlet": "Ganvié",
    "amenity": "hospital",
    "name": "Centre de santé de Ganvié"
  }
},
{
  "type": "node",
  "id": 4313202182,
  "lat": 6.4742275,
  "lon": 2.4128787,
  "tags": {
    "addr:hamlet": "Sotchanhoué",
    "amenity": "hospital",
    "name": "Centre de santé saint Joseph"
  }
},
{
  "type": "node",
  "id": 4313209398,
  "lat": 6.4809755,
  "lon": 2.4171273,
  "tags": {
    "addr:hamlet": "Vekky",
    "amenity": "hospital",
    "name": "Centre de santé de Vekky"
  }
},
{
  "type": "node",
  "id": 4403019206,
  "lat": 6.3614434,
  "lon": 2.4383377,
  "tags": {
    "addr:housenumber": "274",
    "addr:street": "Rue ROI DAKO DONOU R. 5.132",
    "amenity": "hospital",
    "name": "Hôpital de l'enfant et de la mère lagune",
    "phone": "+22921317115"
  }
},
{
  "type": "node",
  "id": 4488813057,
  "lat": 6.3599010,
  "lon": 2.4380992,
  "tags": {
    "amenity": "hospital",
    "name": "CS Cotonou 1"
  }
},
{
  "type": "node",
  "id": 4709867091,
  "lat": 6.3536984,
  "lon": 2.3965650,
  "tags": {
    "amenity": "hospital",
    "name": "Doctors",
    "operator": "Hopital"
  }
},
{
  "type": "node",
  "id": 4711849512,
  "lat": 6.3639754,
  "lon": 2.4148459,
  "tags": {
    "amenity": "hospital",
    "name": "Centre Médical Saint Jean",
    "source": "gps,survey"
  }
},
{
  "type": "node",
  "id": 4716412133,
  "lat": 6.3639273,
  "lon": 2.4149590,
  "tags": {
    "amenity": "hospital",
    "name": "Centre médical Saint Jean"
  }
},
{
  "type": "way",
  "id": 272486188,
  "center": {
    "lat": 6.3547463,
    "lon": 2.4101343
  },
  "nodes": [
    2773988664,
    2773988661,
    4189880038,
    4183721176,
    4183721177,
    2773988663,
    2773988666,
    2773988664
  ],
  "tags": {
    "amenity": "hospital",
    "name": "Centre National Hospitalier Universitaire (CNHU)"
  }
},
{
  "type": "way",
  "id": 459613842,
  "center": {
    "lat": 6.3770580,
    "lon": 2.3828840
  },
  "nodes": [
    4554155052,
    4554155053,
    4554155054,
    4554155055,
    4554155052
  ],
  "tags": {
    "amenity": "hospital",
    "name": "Centre de Santé Houenoussou",
    "operator": "Etat"
  }
},
{
  "type": "way",
  "id": 272486188,
  "nodes": [
    2773988664,
    2773988661,
    4189880038,
    4183721176,
    4183721177,
    2773988663,
    2773988666,
    2773988664
  ],
  "tags": {
    "amenity": "hospital",
    "name": "Centre National Hospitalier Universitaire (CNHU)"
  }
},
{
  "type": "way",
  "id": 459613842,
  "nodes": [
    4554155052,
    4554155053,
    4554155054,
    4554155055,
    4554155052
  ],
  "tags": {
    "amenity": "hospital",
    "name": "Centre de Santé Houenoussou",
    "operator": "Etat"
  }
}

  ]
}
