{
  "version": 0.6,
  "generator": "Overpass API",
  "osm3s": {
    "timestamp_osm_base": "2017-05-15T14:42:18Z",
    "copyright": "The data included in this document is from www.openstreetmap.org. The data is made available under ODbL."
  },
  "elements": [

{
  "type": "node",
  "id": 2414270994,
  "lat": 8.4892882,
  "lon": -13.2378487,
  "tags": {
    "amenity": "marketplace",
    "name": "King Jimmy Market"
  }
},
{
  "type": "node",
  "id": 3341693145,
  "lat": 8.4836807,
  "lon": -13.2404303,
  "tags": {
    "amenity": "marketplace",
    "source": "MSF-CH"
  }
},
{
  "type": "node",
  "id": 3341886581,
  "lat": 8.4852542,
  "lon": -13.2504861,
  "tags": {
    "amenity": "marketplace",
    "name": "MARKET KOLLEH TOWN",
    "source": "MSF-CH"
  }
},
{
  "type": "node",
  "id": 3341987793,
  "lat": 8.4829133,
  "lon": -13.2570877,
  "tags": {
    "amenity": "marketplace",
    "name": "CONGO TOWN MARKET",
    "source": "MSF-CH"
  }
},
{
  "type": "node",
  "id": 3342063197,
  "lat": 8.4763466,
  "lon": -13.2078418,
  "tags": {
    "amenity": "marketplace",
    "name": "BUTTOM MANGO MARKET",
    "source": "MSF-CH"
  }
},
{
  "type": "node",
  "id": 3342157259,
  "lat": 8.4612018,
  "lon": -13.1767002,
  "tags": {
    "amenity": "marketplace",
    "name": "KUNTOLOR COMMUNITY MARKET",
    "source": "MSF-CH"
  }
},
{
  "type": "node",
  "id": 3342157260,
  "lat": 8.4634041,
  "lon": -13.1760635,
  "tags": {
    "amenity": "marketplace",
    "name": "PORTEE MARKET",
    "source": "MSF-CH"
  }
},
{
  "type": "node",
  "id": 3354381712,
  "lat": 8.4752063,
  "lon": -13.2553545,
  "tags": {
    "amenity": "marketplace",
    "source": "MSF-CH"
  }
},
{
  "type": "way",
  "id": 314305661,
  "center": {
    "lat": 8.4033935,
    "lon": -13.2640433
  },
  "nodes": [
    3203545210,
    3203545192,
    3203545189,
    3203545201,
    3203545210
  ],
  "tags": {
    "amenity": "marketplace",
    "building": "yes",
    "name": "Ogoo Farm Marketplace",
    "source": "MSF-CH"
  }
},
{
  "type": "way",
  "id": 310568327,
  "center": {
    "lat": 8.3677911,
    "lon": -13.0916476
  },
  "nodes": [
    3160094916,
    3160094896,
    3160094877,
    3160094893,
    3160094916
  ],
  "tags": {
    "amenity": "marketplace",
    "building": "yes",
    "source": "MSF-CH"
  }
},
{
  "type": "way",
  "id": 314076779,
  "center": {
    "lat": 8.4362440,
    "lon": -13.2823822
  },
  "nodes": [
    3201186694,
    3201186651,
    3201186677,
    3201186713,
    3201186738,
    3201186720,
    3201186694
  ],
  "tags": {
    "amenity": "marketplace",
    "building": "yes",
    "name": "market 3",
    "source": "MSF-CH"
  }
},
{
  "type": "way",
  "id": 314076788,
  "center": {
    "lat": 8.4364567,
    "lon": -13.2818988
  },
  "nodes": [
    3201186856,
    3201186857,
    3201186875,
    3201186877,
    3201186859,
    3201186860,
    3201186823,
    3201186822,
    3201186856
  ],
  "tags": {
    "amenity": "marketplace",
    "building": "yes",
    "source": "MSF-CH"
  }
},
{
  "type": "way",
  "id": 314076791,
  "center": {
    "lat": 8.4352444,
    "lon": -13.2816311
  },
  "nodes": [
    3201186169,
    3201186181,
    3201186179,
    3201186186,
    3201186167,
    3201186161,
    3201186162,
    3201185660,
    3201186169
  ],
  "tags": {
    "amenity": "marketplace",
    "building": "yes",
    "source": "MSF-CH"
  }
},
{
  "type": "way",
  "id": 314076795,
  "center": {
    "lat": 8.4364113,
    "lon": -13.2820892
  },
  "nodes": [
    3201186845,
    3201186848,
    3201186840,
    3201186842,
    3201186821,
    3201186819,
    3201186813,
    3201186810,
    3201186845
  ],
  "tags": {
    "amenity": "marketplace",
    "building": "yes",
    "name": "market 3",
    "source": "MSF-CH"
  }
},
{
  "type": "way",
  "id": 314699783,
  "center": {
    "lat": 8.4547488,
    "lon": -13.2722016
  },
  "nodes": [
    3207460562,
    3207460576,
    3207460571,
    3207460578,
    3207460573,
    3207460568,
    3207460563,
    3207460534,
    3207460562
  ],
  "tags": {
    "amenity": "marketplace",
    "building": "yes",
    "name": "Lumley Market",
    "source": "MSF-CH"
  }
},
{
  "type": "way",
  "id": 306842210,
  "center": {
    "lat": 8.4515104,
    "lon": -13.2618116
  },
  "nodes": [
    3118484186,
    3118484190,
    3118484198,
    3118484195,
    3118484210,
    3118484204,
    3118484211,
    3118484214,
    3118484218,
    3118484213,
    3118484231,
    3118484217,
    3118484203,
    3118484180,
    3118484176,
    3118484191,
    3118484187,
    3118484172,
    3118484165,
    3118484168,
    3118484169,
    3118484173,
    3118484170,
    3118484167,
    3118484134,
    3118484132,
    3118484182,
    3118484179,
    3118484160,
    3118484158,
    3118484174,
    3118484186
  ],
  "tags": {
    "amenity": "marketplace",
    "building": "yes",
    "name": "Regent Road Market",
    "source": "MSF-CH"
  }
},
{
  "type": "way",
  "id": 306307691,
  "center": {
    "lat": 8.4930649,
    "lon": -13.2814758
  },
  "nodes": [
    3111807537,
    3111807532,
    3111807123,
    3111807126,
    3111807537
  ],
  "tags": {
    "amenity": "marketplace",
    "building": "yes",
    "source": "MSF-CH"
  }
},
{
  "type": "way",
  "id": 306581592,
  "center": {
    "lat": 8.4877895,
    "lon": -13.2694525
  },
  "nodes": [
    3115449497,
    3115449498,
    3115449501,
    3115449504,
    3115449503,
    3115449502,
    3115449497
  ],
  "tags": {
    "amenity": "marketplace",
    "fixme": "Please confirm."
  }
},
{
  "type": "way",
  "id": 306188024,
  "center": {
    "lat": 8.4875107,
    "lon": -13.2691815
  },
  "nodes": [
    3110343328,
    3110343747,
    3110343730,
    3110343298,
    3110343328
  ],
  "tags": {
    "amenity": "marketplace",
    "building": "yes",
    "source": "MSF-CH"
  }
},
{
  "type": "way",
  "id": 306640111,
  "center": {
    "lat": 8.4739531,
    "lon": -13.2637417
  },
  "nodes": [
    3116123600,
    3116123552,
    3116123559,
    3116123608,
    3116123600
  ],
  "tags": {
    "amenity": "marketplace",
    "building": "yes",
    "name": "Lumley Road Market",
    "source": "MSF-CH"
  }
},
{
  "type": "way",
  "id": 306640009,
  "center": {
    "lat": 8.4740370,
    "lon": -13.2633950
  },
  "nodes": [
    3116123611,
    3116123590,
    3116123730,
    3116123753,
    3116123611
  ],
  "tags": {
    "amenity": "marketplace",
    "building": "yes",
    "name": "Wilberforce Market",
    "source": "MSF-CH"
  }
},
{
  "type": "way",
  "id": 306319524,
  "center": {
    "lat": 8.4708800,
    "lon": -13.2579606
  },
  "nodes": [
    3111898623,
    3111898625,
    3111898624,
    3111898622,
    3111898623
  ],
  "tags": {
    "amenity": "marketplace",
    "building": "yes",
    "name": "Wilberforce Market",
    "source": "MSF-CH"
  }
},
{
  "type": "way",
  "id": 173225236,
  "center": {
    "lat": 8.4829073,
    "lon": -13.2570842
  },
  "nodes": [
    1840735415,
    1840735567,
    1840735568,
    1840735581,
    1840735415
  ],
  "tags": {
    "amenity": "marketplace",
    "building": "yes"
  }
},
{
  "type": "way",
  "id": 307564767,
  "center": {
    "lat": 8.4749940,
    "lon": -13.2426655
  },
  "nodes": [
    3127579249,
    3127579199,
    3127579221,
    3127579226,
    3127579269,
    3127579296,
    3127579249
  ],
  "tags": {
    "amenity": "marketplace",
    "building": "yes",
    "name": "Brookfield Marketplace",
    "source": "MSF-CH"
  }
},
{
  "type": "way",
  "id": 307382849,
  "center": {
    "lat": 8.4774522,
    "lon": -13.2410053
  },
  "nodes": [
    3125037987,
    3125037980,
    3125037985,
    3125037994,
    3125037987
  ],
  "tags": {
    "amenity": "marketplace",
    "building": "yes",
    "name": "Congo Market",
    "source": "MSF-CH"
  }
},
{
  "type": "way",
  "id": 307508554,
  "center": {
    "lat": 8.4709715,
    "lon": -13.2367792
  },
  "nodes": [
    3126886116,
    3126886119,
    3126886113,
    3126886111,
    3126886116
  ],
  "tags": {
    "amenity": "marketplace",
    "building": "yes",
    "name": "Dwarzark Market 1",
    "source": "MSF-CH"
  }
},
{
  "type": "way",
  "id": 306331448,
  "center": {
    "lat": 8.4916128,
    "lon": -13.2446730
  },
  "nodes": [
    3111999555,
    3111999556,
    3111999557,
    3212373943,
    3111999558,
    3111999559,
    3111999560,
    3111999561,
    3111999555
  ],
  "tags": {
    "amenity": "marketplace",
    "fixme": "Confirm this is a market place."
  }
},
{
  "type": "way",
  "id": 306321768,
  "center": {
    "lat": 8.4923120,
    "lon": -13.2503056
  },
  "nodes": [
    3111918516,
    3111918515,
    3111918511,
    3111918510,
    3111918514,
    3111918513,
    3111918512,
    3111918508,
    3111918509,
    3111918518,
    3111918520,
    3111918519,
    3111918517,
    3111918516
  ],
  "tags": {
    "amenity": "marketplace",
    "fixme": "Confirm this is a market place."
  }
},
{
  "type": "way",
  "id": 306331343,
  "center": {
    "lat": 8.4925489,
    "lon": -13.2490838
  },
  "nodes": [
    3111998849,
    3111998850,
    3111998851,
    3111998852,
    3111998853,
    3111998854,
    3111998855,
    3111998856,
    3111998857,
    3111998858,
    3111998859,
    3111998849
  ],
  "tags": {
    "amenity": "marketplace",
    "fixme": "Confirm this is a market place."
  }
},
{
  "type": "way",
  "id": 173226206,
  "center": {
    "lat": 8.4898668,
    "lon": -13.2365005
  },
  "nodes": [
    1840743534,
    1840743536,
    1840743520,
    1840743497,
    1840743534
  ],
  "tags": {
    "amenity": "marketplace",
    "building": "yes",
    "name": "\"Big Market\""
  }
},
{
  "type": "way",
  "id": 307077397,
  "center": {
    "lat": 8.4886484,
    "lon": -13.2286754
  },
  "nodes": [
    3121322568,
    3121322602,
    3111875537,
    3121322578,
    3121322576,
    3121322568
  ],
  "tags": {
    "amenity": "marketplace",
    "building": "yes",
    "source": "MSF-CH"
  }
},
{
  "type": "way",
  "id": 308027655,
  "center": {
    "lat": 8.4766997,
    "lon": -13.2081729
  },
  "nodes": [
    3133111808,
    3133111809,
    3133111810,
    3137663884,
    3137663883,
    3137663886,
    3133111811,
    3133111812,
    3133111813,
    3137663880,
    3137663879,
    3137663878,
    3137663876,
    3137663874,
    3133111814,
    3137663873,
    3137663875,
    3137663877,
    3133111815,
    3137663881,
    3137663882,
    3137663889,
    3133111806,
    3133111807,
    3133111808
  ],
  "tags": {
    "amenity": "marketplace",
    "building": "yes",
    "name": "Market",
    "source": "MSF-CH"
  }
},
{
  "type": "way",
  "id": 314144677,
  "center": {
    "lat": 8.4664373,
    "lon": -13.1753826
  },
  "nodes": [
    3201912362,
    3201904857,
    3201904854,
    3201904852,
    3201904855,
    3201904851,
    3201904853,
    3201904856,
    3201904858,
    3201904859,
    3201904860,
    3201912361,
    3201912362
  ],
  "tags": {
    "amenity": "marketplace",
    "fixme": "confirm"
  }
},
{
  "type": "way",
  "id": 307686275,
  "center": {
    "lat": 8.4889558,
    "lon": -13.2102286
  },
  "nodes": [
    3128897391,
    3128897392,
    3128897393,
    3128897394,
    3128897395,
    3128897396,
    3128897391
  ],
  "tags": {
    "amenity": "marketplace",
    "building": "yes",
    "name": "Fay Fay Supermarket",
    "source": "MSF-CH"
  }
},
{
  "type": "way",
  "id": 314305661,
  "nodes": [
    3203545210,
    3203545192,
    3203545189,
    3203545201,
    3203545210
  ],
  "tags": {
    "amenity": "marketplace",
    "building": "yes",
    "name": "Ogoo Farm Marketplace",
    "source": "MSF-CH"
  }
},
{
  "type": "way",
  "id": 310568327,
  "nodes": [
    3160094916,
    3160094896,
    3160094877,
    3160094893,
    3160094916
  ],
  "tags": {
    "amenity": "marketplace",
    "building": "yes",
    "source": "MSF-CH"
  }
},
{
  "type": "way",
  "id": 314076779,
  "nodes": [
    3201186694,
    3201186651,
    3201186677,
    3201186713,
    3201186738,
    3201186720,
    3201186694
  ],
  "tags": {
    "amenity": "marketplace",
    "building": "yes",
    "name": "market 3",
    "source": "MSF-CH"
  }
},
{
  "type": "way",
  "id": 314076788,
  "nodes": [
    3201186856,
    3201186857,
    3201186875,
    3201186877,
    3201186859,
    3201186860,
    3201186823,
    3201186822,
    3201186856
  ],
  "tags": {
    "amenity": "marketplace",
    "building": "yes",
    "source": "MSF-CH"
  }
},
{
  "type": "way",
  "id": 314076791,
  "nodes": [
    3201186169,
    3201186181,
    3201186179,
    3201186186,
    3201186167,
    3201186161,
    3201186162,
    3201185660,
    3201186169
  ],
  "tags": {
    "amenity": "marketplace",
    "building": "yes",
    "source": "MSF-CH"
  }
},
{
  "type": "way",
  "id": 314076795,
  "nodes": [
    3201186845,
    3201186848,
    3201186840,
    3201186842,
    3201186821,
    3201186819,
    3201186813,
    3201186810,
    3201186845
  ],
  "tags": {
    "amenity": "marketplace",
    "building": "yes",
    "name": "market 3",
    "source": "MSF-CH"
  }
},
{
  "type": "way",
  "id": 314699783,
  "nodes": [
    3207460562,
    3207460576,
    3207460571,
    3207460578,
    3207460573,
    3207460568,
    3207460563,
    3207460534,
    3207460562
  ],
  "tags": {
    "amenity": "marketplace",
    "building": "yes",
    "name": "Lumley Market",
    "source": "MSF-CH"
  }
},
{
  "type": "way",
  "id": 306842210,
  "nodes": [
    3118484186,
    3118484190,
    3118484198,
    3118484195,
    3118484210,
    3118484204,
    3118484211,
    3118484214,
    3118484218,
    3118484213,
    3118484231,
    3118484217,
    3118484203,
    3118484180,
    3118484176,
    3118484191,
    3118484187,
    3118484172,
    3118484165,
    3118484168,
    3118484169,
    3118484173,
    3118484170,
    3118484167,
    3118484134,
    3118484132,
    3118484182,
    3118484179,
    3118484160,
    3118484158,
    3118484174,
    3118484186
  ],
  "tags": {
    "amenity": "marketplace",
    "building": "yes",
    "name": "Regent Road Market",
    "source": "MSF-CH"
  }
},
{
  "type": "way",
  "id": 306307691,
  "nodes": [
    3111807537,
    3111807532,
    3111807123,
    3111807126,
    3111807537
  ],
  "tags": {
    "amenity": "marketplace",
    "building": "yes",
    "source": "MSF-CH"
  }
},
{
  "type": "way",
  "id": 306581592,
  "nodes": [
    3115449497,
    3115449498,
    3115449501,
    3115449504,
    3115449503,
    3115449502,
    3115449497
  ],
  "tags": {
    "amenity": "marketplace",
    "fixme": "Please confirm."
  }
},
{
  "type": "way",
  "id": 306188024,
  "nodes": [
    3110343328,
    3110343747,
    3110343730,
    3110343298,
    3110343328
  ],
  "tags": {
    "amenity": "marketplace",
    "building": "yes",
    "source": "MSF-CH"
  }
},
{
  "type": "way",
  "id": 306640111,
  "nodes": [
    3116123600,
    3116123552,
    3116123559,
    3116123608,
    3116123600
  ],
  "tags": {
    "amenity": "marketplace",
    "building": "yes",
    "name": "Lumley Road Market",
    "source": "MSF-CH"
  }
},
{
  "type": "way",
  "id": 306640009,
  "nodes": [
    3116123611,
    3116123590,
    3116123730,
    3116123753,
    3116123611
  ],
  "tags": {
    "amenity": "marketplace",
    "building": "yes",
    "name": "Wilberforce Market",
    "source": "MSF-CH"
  }
},
{
  "type": "way",
  "id": 306319524,
  "nodes": [
    3111898623,
    3111898625,
    3111898624,
    3111898622,
    3111898623
  ],
  "tags": {
    "amenity": "marketplace",
    "building": "yes",
    "name": "Wilberforce Market",
    "source": "MSF-CH"
  }
},
{
  "type": "way",
  "id": 173225236,
  "nodes": [
    1840735415,
    1840735567,
    1840735568,
    1840735581,
    1840735415
  ],
  "tags": {
    "amenity": "marketplace",
    "building": "yes"
  }
},
{
  "type": "way",
  "id": 307564767,
  "nodes": [
    3127579249,
    3127579199,
    3127579221,
    3127579226,
    3127579269,
    3127579296,
    3127579249
  ],
  "tags": {
    "amenity": "marketplace",
    "building": "yes",
    "name": "Brookfield Marketplace",
    "source": "MSF-CH"
  }
},
{
  "type": "way",
  "id": 307382849,
  "nodes": [
    3125037987,
    3125037980,
    3125037985,
    3125037994,
    3125037987
  ],
  "tags": {
    "amenity": "marketplace",
    "building": "yes",
    "name": "Congo Market",
    "source": "MSF-CH"
  }
},
{
  "type": "way",
  "id": 307508554,
  "nodes": [
    3126886116,
    3126886119,
    3126886113,
    3126886111,
    3126886116
  ],
  "tags": {
    "amenity": "marketplace",
    "building": "yes",
    "name": "Dwarzark Market 1",
    "source": "MSF-CH"
  }
},
{
  "type": "way",
  "id": 306331448,
  "nodes": [
    3111999555,
    3111999556,
    3111999557,
    3212373943,
    3111999558,
    3111999559,
    3111999560,
    3111999561,
    3111999555
  ],
  "tags": {
    "amenity": "marketplace",
    "fixme": "Confirm this is a market place."
  }
},
{
  "type": "way",
  "id": 306321768,
  "nodes": [
    3111918516,
    3111918515,
    3111918511,
    3111918510,
    3111918514,
    3111918513,
    3111918512,
    3111918508,
    3111918509,
    3111918518,
    3111918520,
    3111918519,
    3111918517,
    3111918516
  ],
  "tags": {
    "amenity": "marketplace",
    "fixme": "Confirm this is a market place."
  }
},
{
  "type": "way",
  "id": 306331343,
  "nodes": [
    3111998849,
    3111998850,
    3111998851,
    3111998852,
    3111998853,
    3111998854,
    3111998855,
    3111998856,
    3111998857,
    3111998858,
    3111998859,
    3111998849
  ],
  "tags": {
    "amenity": "marketplace",
    "fixme": "Confirm this is a market place."
  }
},
{
  "type": "way",
  "id": 173226206,
  "nodes": [
    1840743534,
    1840743536,
    1840743520,
    1840743497,
    1840743534
  ],
  "tags": {
    "amenity": "marketplace",
    "building": "yes",
    "name": "\"Big Market\""
  }
},
{
  "type": "way",
  "id": 307077397,
  "nodes": [
    3121322568,
    3121322602,
    3111875537,
    3121322578,
    3121322576,
    3121322568
  ],
  "tags": {
    "amenity": "marketplace",
    "building": "yes",
    "source": "MSF-CH"
  }
},
{
  "type": "way",
  "id": 308027655,
  "nodes": [
    3133111808,
    3133111809,
    3133111810,
    3137663884,
    3137663883,
    3137663886,
    3133111811,
    3133111812,
    3133111813,
    3137663880,
    3137663879,
    3137663878,
    3137663876,
    3137663874,
    3133111814,
    3137663873,
    3137663875,
    3137663877,
    3133111815,
    3137663881,
    3137663882,
    3137663889,
    3133111806,
    3133111807,
    3133111808
  ],
  "tags": {
    "amenity": "marketplace",
    "building": "yes",
    "name": "Market",
    "source": "MSF-CH"
  }
},
{
  "type": "way",
  "id": 314144677,
  "nodes": [
    3201912362,
    3201904857,
    3201904854,
    3201904852,
    3201904855,
    3201904851,
    3201904853,
    3201904856,
    3201904858,
    3201904859,
    3201904860,
    3201912361,
    3201912362
  ],
  "tags": {
    "amenity": "marketplace",
    "fixme": "confirm"
  }
},
{
  "type": "way",
  "id": 307686275,
  "nodes": [
    3128897391,
    3128897392,
    3128897393,
    3128897394,
    3128897395,
    3128897396,
    3128897391
  ],
  "tags": {
    "amenity": "marketplace",
    "building": "yes",
    "name": "Fay Fay Supermarket",
    "source": "MSF-CH"
  }
}

  ]
}
