{
  "version": 0.6,
  "generator": "Overpass API",
  "osm3s": {
    "timestamp_osm_base": "2017-05-15T14:48:18Z",
    "copyright": "The data included in this document is from www.openstreetmap.org. The data is made available under ODbL."
  },
  "elements": [

{
  "type": "node",
  "id": 105457855,
  "lat": 5.5627012,
  "lon": -0.1820774,
  "tags": {
    "amenity": "hospital",
    "name": "SSNIT"
  }
},
{
  "type": "node",
  "id": 107552545,
  "lat": 5.5882767,
  "lon": -0.1833756,
  "tags": {
    "amenity": "hospital",
    "name": "37 Military Hospital"
  }
},
{
  "type": "node",
  "id": 1251736952,
  "lat": 5.6150814,
  "lon": -0.1980820,
  "tags": {
    "amenity": "hospital",
    "name": "Valley View Clinic"
  }
},
{
  "type": "node",
  "id": 1405374096,
  "lat": 5.5627373,
  "lon": -0.2049878,
  "tags": {
    "amenity": "hospital",
    "name": "Accra Psychiatric Hospital"
  }
},
{
  "type": "node",
  "id": 1574153164,
  "lat": 5.6124124,
  "lon": -0.2143020,
  "tags": {
    "amenity": "hospital",
    "name": "German Egon Clinic"
  }
},
{
  "type": "node",
  "id": 1590950043,
  "lat": 5.5733758,
  "lon": -0.1125237,
  "tags": {
    "amenity": "hospital",
    "name": "Family Health Hospital"
  }
},
{
  "type": "node",
  "id": 1590950091,
  "lat": 5.6029471,
  "lon": -0.1200350,
  "tags": {
    "amenity": "hospital",
    "name": "Lekma Hospital"
  }
},
{
  "type": "node",
  "id": 1590950115,
  "lat": 5.6194939,
  "lon": -0.1460652,
  "tags": {
    "amenity": "hospital",
    "name": "Lister Hospital"
  }
},
{
  "type": "node",
  "id": 1801870288,
  "lat": 5.5538992,
  "lon": -0.1807934,
  "tags": {
    "amenity": "hospital",
    "name": "VRA Hospital & Pharmacy"
  }
},
{
  "type": "node",
  "id": 2148020755,
  "lat": 5.5615681,
  "lon": -0.2046342,
  "tags": {
    "amenity": "hospital",
    "name": "Adabraka Polyclinic"
  }
},
{
  "type": "node",
  "id": 2148020822,
  "lat": 5.7184825,
  "lon": -0.1741432,
  "tags": {
    "amenity": "hospital",
    "name": "Greater Grace Hospital"
  }
},
{
  "type": "node",
  "id": 2148020834,
  "lat": 5.5864145,
  "lon": -0.2351065,
  "tags": {
    "amenity": "hospital",
    "name": "Holy Trinity Clinic"
  }
},
{
  "type": "node",
  "id": 2154259317,
  "lat": 5.7173175,
  "lon": -0.1890739,
  "tags": {
    "amenity": "hospital",
    "name": "Pantang Hospital"
  }
},
{
  "type": "node",
  "id": 3039439316,
  "lat": 5.6310501,
  "lon": -0.1686563,
  "tags": {
    "amenity": "hospital",
    "name": "Obaatan Pa Womens Hospital"
  }
},
{
  "type": "node",
  "id": 3073583822,
  "lat": 5.5718826,
  "lon": -0.2359563,
  "tags": {
    "amenity": "hospital",
    "name": "Cocoa Clinic"
  }
},
{
  "type": "node",
  "id": 3621871511,
  "lat": 5.6691313,
  "lon": -0.1822897,
  "tags": {
    "amenity": "hospital",
    "name": "North Legon Hospital"
  }
},
{
  "type": "node",
  "id": 3740288017,
  "lat": 5.5493681,
  "lon": -0.2411218,
  "tags": {
    "amenity": "hospital",
    "name": "Barnor Hospital",
    "source": "locals knowledge"
  }
},
{
  "type": "node",
  "id": 3872176339,
  "lat": 5.6745022,
  "lon": -0.0251795,
  "tags": {
    "amenity": "hospital",
    "name": "Tema General Hospital"
  }
},
{
  "type": "node",
  "id": 3961469675,
  "lat": 5.5936808,
  "lon": -0.2113957,
  "tags": {
    "amenity": "hospital",
    "name": "Anthon Memorial Hospital"
  }
},
{
  "type": "node",
  "id": 4104600479,
  "lat": 5.5686748,
  "lon": -0.1860572,
  "tags": {
    "amenity": "hospital",
    "name": "Accra Medical Centre",
    "operator": "Accra Medical Centre"
  }
},
{
  "type": "node",
  "id": 4286159109,
  "lat": 5.6574049,
  "lon": -0.0107327,
  "tags": {
    "amenity": "hospital",
    "name": "Narh-Bita Hospital"
  }
},
{
  "type": "node",
  "id": 4311879592,
  "lat": 5.6240883,
  "lon": -0.0696843,
  "tags": {
    "amenity": "hospital",
    "name": "C & J Medicare"
  }
},
{
  "type": "node",
  "id": 4311941089,
  "lat": 5.6223697,
  "lon": -0.0628674,
  "tags": {
    "amenity": "hospital",
    "name": "Sakumono Community Hospital"
  }
},
{
  "type": "node",
  "id": 4349951489,
  "lat": 5.6520807,
  "lon": -0.0188053,
  "tags": {
    "amenity": "hospital",
    "name": "Pro Vita Specialist Hospital"
  }
},
{
  "type": "node",
  "id": 4350177512,
  "lat": 5.6723181,
  "lon": -0.0195889,
  "tags": {
    "amenity": "hospital",
    "name": "Bethel Hospital"
  }
},
{
  "type": "node",
  "id": 4350187523,
  "lat": 5.6696048,
  "lon": 0.0338969,
  "tags": {
    "amenity": "hospital",
    "name": "Valco Hospital"
  }
},
{
  "type": "node",
  "id": 4350212050,
  "lat": 5.7186710,
  "lon": 0.0085894,
  "tags": {
    "amenity": "hospital",
    "name": "Atlantis Hospital"
  }
},
{
  "type": "node",
  "id": 4366728290,
  "lat": 5.6853523,
  "lon": -0.2315804,
  "tags": {
    "amenity": "hospital",
    "name": "The community hospital ashongman"
  }
},
{
  "type": "node",
  "id": 4369634545,
  "lat": 5.5613800,
  "lon": -0.1987446,
  "tags": {
    "amenity": "hospital",
    "name": "The Greater Accra Regional Hospital"
  }
},
{
  "type": "node",
  "id": 4400510890,
  "lat": 5.7104424,
  "lon": -0.0507497,
  "tags": {
    "amenity": "hospital",
    "name": "Mother of God"
  }
},
{
  "type": "node",
  "id": 4400511298,
  "lat": 5.6654302,
  "lon": -0.0189960,
  "tags": {
    "amenity": "hospital",
    "name": "Tema Women's Hospital"
  }
},
{
  "type": "node",
  "id": 4799957391,
  "lat": 5.6356516,
  "lon": -0.1610568,
  "tags": {
    "amenity": "hospital",
    "name": "International Homeopatic Clinic"
  }
},
{
  "type": "way",
  "id": 298258033,
  "center": {
    "lat": 5.5378670,
    "lon": -0.2234721
  },
  "nodes": [
    3021673456,
    3021673457,
    3021673458,
    3021673459,
    3021673460,
    3021673461,
    3021673462,
    3021673456
  ],
  "tags": {
    "amenity": "hospital",
    "name": "Korle Bu Policlinic"
  }
},
{
  "type": "way",
  "id": 303162760,
  "center": {
    "lat": 5.5381024,
    "lon": -0.2270257
  },
  "nodes": [
    3074848548,
    3074848571,
    3074848582,
    3074849671,
    3074849389,
    3074848567,
    3074848548
  ],
  "tags": {
    "amenity": "hospital",
    "name": "Korlebu Teaching Hospital",
    "wikidata": "Q6432357"
  }
},
{
  "type": "way",
  "id": 316141751,
  "center": {
    "lat": 5.5446829,
    "lon": -0.2132290
  },
  "nodes": [
    3222494788,
    3222494789,
    3222494790,
    3222494791,
    3222494792,
    3222494788
  ],
  "tags": {
    "amenity": "hospital",
    "name": "Princess Marie Louie Children's Hospital"
  }
},
{
  "type": "way",
  "id": 356767423,
  "center": {
    "lat": 5.5746166,
    "lon": -0.2308019
  },
  "nodes": [
    3621727940,
    3621727941,
    3621727942,
    3621727943,
    3621727940
  ],
  "tags": {
    "amenity": "hospital",
    "name": "Kaneshie Polyclinic",
    "operator": "Government"
  }
},
{
  "type": "way",
  "id": 277028141,
  "center": {
    "lat": 5.6013089,
    "lon": -0.2568056
  },
  "nodes": [
    2815804289,
    2815804284,
    2815804291,
    2815804286,
    2815804289
  ],
  "tags": {
    "amenity": "hospital",
    "name": "MBA Hospital"
  }
},
{
  "type": "way",
  "id": 310088363,
  "center": {
    "lat": 5.6089811,
    "lon": -0.2536846
  },
  "nodes": [
    3154409149,
    3154409153,
    3154409150,
    3154409151,
    3154409152,
    3154409149
  ],
  "tags": {
    "amenity": "hospital",
    "designation": "Community Hospital",
    "emergency": "yes",
    "name": "Lapaz Community Hospital"
  }
},
{
  "type": "way",
  "id": 437380195,
  "center": {
    "lat": 5.6298307,
    "lon": -0.2171964
  },
  "nodes": [
    4351837964,
    4351837959,
    4351837912,
    4351837924,
    4351837964
  ],
  "tags": {
    "amenity": "hospital",
    "name": "Achimota Hospital"
  }
},
{
  "type": "way",
  "id": 439346942,
  "center": {
    "lat": 5.5510399,
    "lon": -0.1960103
  },
  "nodes": [
    4369643090,
    4369643089,
    4369634585,
    4369634588,
    4369634583,
    4369634586,
    4369643090
  ],
  "tags": {
    "amenity": "hospital",
    "building": "yes",
    "name": "Civil Service Polyclinic"
  }
},
{
  "type": "way",
  "id": 298260306,
  "center": {
    "lat": 5.5623081,
    "lon": -0.1993621
  },
  "nodes": [
    3069907462,
    3069906810,
    3069906809,
    3069906808,
    1442872041,
    3069907434,
    3069907460,
    3021715352,
    3021715356,
    3021715358,
    3069907490,
    3069907462
  ],
  "tags": {
    "amenity": "hospital",
    "emergency": "yes",
    "name": "Ridge Hospital"
  }
},
{
  "type": "way",
  "id": 255511063,
  "center": {
    "lat": 5.5684386,
    "lon": -0.1817110
  },
  "nodes": [
    2611938376,
    2611938377,
    2611938375,
    2611938378,
    2611938379,
    2611938384,
    2611938382,
    2611938386,
    2611938381,
    2611938385,
    2611938383,
    2611938380,
    2611938376
  ],
  "tags": {
    "amenity": "hospital",
    "name": "Police Hospital"
  }
},
{
  "type": "way",
  "id": 391750854,
  "center": {
    "lat": 5.5913638,
    "lon": -0.1990858
  },
  "nodes": [
    3950017312,
    3950017311,
    3950017309,
    3950017310,
    3950017312
  ],
  "tags": {
    "amenity": "hospital",
    "name": "Maamobi General Hospital"
  }
},
{
  "type": "way",
  "id": 299668118,
  "center": {
    "lat": 5.6145561,
    "lon": -0.1849937
  },
  "nodes": [
    3037049052,
    3037048815,
    3037048791,
    3037048810,
    3037049038,
    3037049046,
    3037049052
  ],
  "tags": {
    "amenity": "hospital",
    "name": "Nyaho Clinic"
  }
},
{
  "type": "way",
  "id": 205221630,
  "center": {
    "lat": 5.6059721,
    "lon": -0.1086759
  },
  "nodes": [
    2151945300,
    2151945299,
    2151945303,
    2151945305,
    2151945300
  ],
  "tags": {
    "amenity": "hospital",
    "name": "Manna Mission",
    "source": "Bing"
  }
},
{
  "type": "way",
  "id": 464683570,
  "center": {
    "lat": 5.6326743,
    "lon": -0.1858583
  },
  "nodes": [
    4597669633,
    4597669631,
    4597669630,
    4597669632,
    4597669633
  ],
  "tags": {
    "addr:city": "Legon, Accra",
    "addr:housenumber": "P.O. Box lg 25",
    "amenity": "hospital",
    "landuse": "construction",
    "name": "University of Ghana Teaching Hospital",
    "operator": "University of Ghana"
  }
},
{
  "type": "way",
  "id": 278268702,
  "center": {
    "lat": 5.6517246,
    "lon": -0.1781069
  },
  "nodes": [
    2826655093,
    2826655090,
    2826655091,
    2826655094,
    2826655093
  ],
  "tags": {
    "amenity": "hospital",
    "name": "University of Ghana Hospital"
  }
},
{
  "type": "way",
  "id": 481195130,
  "center": {
    "lat": 5.6458791,
    "lon": -0.1567972
  },
  "nodes": [
    4741326754,
    4741326757,
    4741326756,
    4741326755,
    4741326754
  ],
  "tags": {
    "amenity": "hospital",
    "name": "Bemuah Royal Hospital"
  }
},
{
  "type": "way",
  "id": 443765697,
  "center": {
    "lat": 5.6356521,
    "lon": -0.0067991
  },
  "nodes": [
    4413035486,
    4413035890,
    4413035889,
    4413035475,
    4413035473,
    4413035476,
    4413035483,
    4413035486
  ],
  "tags": {
    "amenity": "hospital",
    "name": "Tema Polyclinic"
  }
},
{
  "type": "way",
  "id": 358337142,
  "center": {
    "lat": 5.6740992,
    "lon": -0.0248940
  },
  "nodes": [
    3256279974,
    3632729389,
    3632729390,
    3632729391,
    3632729392,
    3632732693,
    3632732694,
    3256279974
  ],
  "tags": {
    "amenity": "hospital",
    "name": "Tema General Hospital"
  }
},
{
  "type": "way",
  "id": 298258033,
  "nodes": [
    3021673456,
    3021673457,
    3021673458,
    3021673459,
    3021673460,
    3021673461,
    3021673462,
    3021673456
  ],
  "tags": {
    "amenity": "hospital",
    "name": "Korle Bu Policlinic"
  }
},
{
  "type": "way",
  "id": 303162760,
  "nodes": [
    3074848548,
    3074848571,
    3074848582,
    3074849671,
    3074849389,
    3074848567,
    3074848548
  ],
  "tags": {
    "amenity": "hospital",
    "name": "Korlebu Teaching Hospital",
    "wikidata": "Q6432357"
  }
},
{
  "type": "way",
  "id": 316141751,
  "nodes": [
    3222494788,
    3222494789,
    3222494790,
    3222494791,
    3222494792,
    3222494788
  ],
  "tags": {
    "amenity": "hospital",
    "name": "Princess Marie Louie Children's Hospital"
  }
},
{
  "type": "way",
  "id": 356767423,
  "nodes": [
    3621727940,
    3621727941,
    3621727942,
    3621727943,
    3621727940
  ],
  "tags": {
    "amenity": "hospital",
    "name": "Kaneshie Polyclinic",
    "operator": "Government"
  }
},
{
  "type": "way",
  "id": 277028141,
  "nodes": [
    2815804289,
    2815804284,
    2815804291,
    2815804286,
    2815804289
  ],
  "tags": {
    "amenity": "hospital",
    "name": "MBA Hospital"
  }
},
{
  "type": "way",
  "id": 310088363,
  "nodes": [
    3154409149,
    3154409153,
    3154409150,
    3154409151,
    3154409152,
    3154409149
  ],
  "tags": {
    "amenity": "hospital",
    "designation": "Community Hospital",
    "emergency": "yes",
    "name": "Lapaz Community Hospital"
  }
},
{
  "type": "way",
  "id": 437380195,
  "nodes": [
    4351837964,
    4351837959,
    4351837912,
    4351837924,
    4351837964
  ],
  "tags": {
    "amenity": "hospital",
    "name": "Achimota Hospital"
  }
},
{
  "type": "way",
  "id": 439346942,
  "nodes": [
    4369643090,
    4369643089,
    4369634585,
    4369634588,
    4369634583,
    4369634586,
    4369643090
  ],
  "tags": {
    "amenity": "hospital",
    "building": "yes",
    "name": "Civil Service Polyclinic"
  }
},
{
  "type": "way",
  "id": 298260306,
  "nodes": [
    3069907462,
    3069906810,
    3069906809,
    3069906808,
    1442872041,
    3069907434,
    3069907460,
    3021715352,
    3021715356,
    3021715358,
    3069907490,
    3069907462
  ],
  "tags": {
    "amenity": "hospital",
    "emergency": "yes",
    "name": "Ridge Hospital"
  }
},
{
  "type": "way",
  "id": 255511063,
  "nodes": [
    2611938376,
    2611938377,
    2611938375,
    2611938378,
    2611938379,
    2611938384,
    2611938382,
    2611938386,
    2611938381,
    2611938385,
    2611938383,
    2611938380,
    2611938376
  ],
  "tags": {
    "amenity": "hospital",
    "name": "Police Hospital"
  }
},
{
  "type": "way",
  "id": 391750854,
  "nodes": [
    3950017312,
    3950017311,
    3950017309,
    3950017310,
    3950017312
  ],
  "tags": {
    "amenity": "hospital",
    "name": "Maamobi General Hospital"
  }
},
{
  "type": "way",
  "id": 299668118,
  "nodes": [
    3037049052,
    3037048815,
    3037048791,
    3037048810,
    3037049038,
    3037049046,
    3037049052
  ],
  "tags": {
    "amenity": "hospital",
    "name": "Nyaho Clinic"
  }
},
{
  "type": "way",
  "id": 205221630,
  "nodes": [
    2151945300,
    2151945299,
    2151945303,
    2151945305,
    2151945300
  ],
  "tags": {
    "amenity": "hospital",
    "name": "Manna Mission",
    "source": "Bing"
  }
},
{
  "type": "way",
  "id": 464683570,
  "nodes": [
    4597669633,
    4597669631,
    4597669630,
    4597669632,
    4597669633
  ],
  "tags": {
    "addr:city": "Legon, Accra",
    "addr:housenumber": "P.O. Box lg 25",
    "amenity": "hospital",
    "landuse": "construction",
    "name": "University of Ghana Teaching Hospital",
    "operator": "University of Ghana"
  }
},
{
  "type": "way",
  "id": 278268702,
  "nodes": [
    2826655093,
    2826655090,
    2826655091,
    2826655094,
    2826655093
  ],
  "tags": {
    "amenity": "hospital",
    "name": "University of Ghana Hospital"
  }
},
{
  "type": "way",
  "id": 481195130,
  "nodes": [
    4741326754,
    4741326757,
    4741326756,
    4741326755,
    4741326754
  ],
  "tags": {
    "amenity": "hospital",
    "name": "Bemuah Royal Hospital"
  }
},
{
  "type": "way",
  "id": 443765697,
  "nodes": [
    4413035486,
    4413035890,
    4413035889,
    4413035475,
    4413035473,
    4413035476,
    4413035483,
    4413035486
  ],
  "tags": {
    "amenity": "hospital",
    "name": "Tema Polyclinic"
  }
},
{
  "type": "way",
  "id": 358337142,
  "nodes": [
    3256279974,
    3632729389,
    3632729390,
    3632729391,
    3632729392,
    3632732693,
    3632732694,
    3256279974
  ],
  "tags": {
    "amenity": "hospital",
    "name": "Tema General Hospital"
  }
}

  ]
}
