{
"type": "FeatureCollection",
"features": [
{
  "type": "Feature",
  "id": "way/91274323",
  "properties": {
    "amenity": "hospital",
    "barrier": "wall",
    "leisure": "garden",
    "name": "Centre Hospitalier Universitaire de Treichville",
    "short_name": "CHU de Treichville",
    "id": "way/91274323"
  },
  "geometry": {
    "type": "Point",
    "coordinates": [
      -4.0035691,
      5.2915831
    ]
  }
},
{
  "type": "Feature",
  "id": "way/123439289",
  "properties": {
    "addr:city": "Treichville",
    "addr:country": "CI",
    "addr:state": "Abidjan",
    "addr:street": "Avenue Clouzet",
    "amenity": "hospital",
    "building": "yes",
    "emergency": "no",
    "name": "Centre Hospitalier d'Arras 3",
    "id": "way/123439289"
  },
  "geometry": {
    "type": "Point",
    "coordinates": [
      -3.9996691,
      5.3020571
    ]
  }
},
{
  "type": "Feature",
  "id": "way/185201535",
  "properties": {
    "addr:city": "Marcory",
    "addr:country": "CI",
    "addr:state": "Abidjan",
    "amenity": "hospital",
    "name": "Hôpital général de Marcory(Ex PMI)",
    "id": "way/185201535"
  },
  "geometry": {
    "type": "Point",
    "coordinates": [
      -3.983179,
      5.3006843
    ]
  }
},
{
  "type": "Feature",
  "id": "way/236144501",
  "properties": {
    "amenity": "hospital",
    "barrier": "wall",
    "leisure": "garden",
    "name": "Formation Urbaine d'Anoumabo",
    "id": "way/236144501"
  },
  "geometry": {
    "type": "Point",
    "coordinates": [
      -3.9742066,
      5.3103925
    ]
  }
},
{
  "type": "Feature",
  "id": "way/237862810",
  "properties": {
    "amenity": "hospital",
    "building": "yes",
    "emergency": "no",
    "name": "Centre Asapsu",
    "id": "way/237862810"
  },
  "geometry": {
    "type": "Point",
    "coordinates": [
      -3.9671121,
      5.3097281
    ]
  }
},
{
  "type": "Feature",
  "id": "way/237899323",
  "properties": {
    "amenity": "hospital",
    "building": "yes",
    "id": "way/237899323"
  },
  "geometry": {
    "type": "Point",
    "coordinates": [
      -3.9610028,
      5.309767
    ]
  }
},
{
  "type": "Feature",
  "id": "way/271270193",
  "properties": {
    "amenity": "hospital",
    "name": "Centre de Santé Aklomiabla",
    "id": "way/271270193"
  },
  "geometry": {
    "type": "Point",
    "coordinates": [
      -3.9425323,
      5.3143497
    ]
  }
},
{
  "type": "Feature",
  "id": "way/286247735",
  "properties": {
    "amenity": "hospital",
    "name": "Clinique les Grâces",
    "id": "way/286247735"
  },
  "geometry": {
    "type": "Point",
    "coordinates": [
      -3.9778971,
      5.2875928
    ]
  }
},
{
  "type": "Feature",
  "id": "way/310209320",
  "properties": {
    "addr:city": "Adjamé",
    "addr:country": "CI",
    "addr:state": "Abidjan",
    "addr:street": "Rue C16",
    "amenity": "hospital",
    "barrier": "wall",
    "name": "Hôpital général d'Adjamé",
    "id": "way/310209320"
  },
  "geometry": {
    "type": "Point",
    "coordinates": [
      -4.024689,
      5.348867
    ]
  }
},
{
  "type": "Feature",
  "id": "way/326163566",
  "properties": {
    "addr:city": "Cocody",
    "addr:country": "CI",
    "addr:housename": "Polyclinique Internationale Sainte Anne-Marie (PISAM)",
    "addr:state": "Abidjan",
    "addr:street": "Avenue Joseph Blohorn",
    "addr:suburb": "Vieux Cocody",
    "amenity": "hospital",
    "barrier": "wall",
    "emergency": "yes",
    "internet_access": "wlan",
    "is_in": "Vieux Cocody;Cocody;Abidjan;Côte d'Ivoire",
    "name": "Polyclinique Internationale Sainte Anne-Marie (PISAM)",
    "phone": "+225-22.48.31.31",
    "short_name": "PISAM",
    "website": "http://www.pisam.ci/",
    "id": "way/326163566"
  },
  "geometry": {
    "type": "Point",
    "coordinates": [
      -4.0133509,
      5.3368409
    ]
  }
},
{
  "type": "Feature",
  "id": "way/327402561",
  "properties": {
    "addr:city": "Cocody",
    "addr:country": "CI",
    "addr:state": "Abidjan",
    "addr:street": "Boulevard de l'Université",
    "addr:suburb": "RTI",
    "amenity": "hospital",
    "emergency": "yes",
    "is_in": "RTI;Cocody;Abidjan;Côte d'Ivoire",
    "name": "Centre hospitalier universitaire de Cocody (CHU de Cocody)",
    "name:en": "University Hospital of Cocody (CHU de Cocody)",
    "name:fr": "Centre hospitalier universitaire de Cocody (CHU de Cocody)",
    "id": "way/327402561"
  },
  "geometry": {
    "type": "Point",
    "coordinates": [
      -3.9938504,
      5.3423413
    ]
  }
},
{
  "type": "Feature",
  "id": "way/355534059",
  "properties": {
    "amenity": "hospital",
    "building": "university",
    "name": "centre medical social",
    "operator": "UNA",
    "id": "way/355534059"
  },
  "geometry": {
    "type": "Point",
    "coordinates": [
      -4.0165433,
      5.3904096
    ]
  }
},
{
  "type": "Feature",
  "id": "way/397380212",
  "properties": {
    "amenity": "hospital",
    "barrier": "wall",
    "name": "Hôpital Général d'Angré",
    "id": "way/397380212"
  },
  "geometry": {
    "type": "Point",
    "coordinates": [
      -3.9575588,
      5.4008898
    ]
  }
},
{
  "type": "Feature",
  "id": "way/426830439",
  "properties": {
    "addr:city": "Plateau",
    "addr:housenumber": "26",
    "addr:street": "Avenue Chardy",
    "amenity": "hospital",
    "elevator": "2ème étage",
    "name": "Centre Médical Chardy",
    "note": "centremedicalchardy@hotmail.fr",
    "operator": "Dr Hussein Chalhoub",
    "phone": "+225 20 33 90 00",
    "id": "way/426830439"
  },
  "geometry": {
    "type": "Point",
    "coordinates": [
      -4.0159116,
      5.3238666
    ]
  }
},
{
  "type": "Feature",
  "id": "way/430269309",
  "properties": {
    "amenity": "hospital",
    "building": "yes",
    "id": "way/430269309"
  },
  "geometry": {
    "type": "Point",
    "coordinates": [
      -3.9844688,
      5.3449951
    ]
  }
},
{
  "type": "Feature",
  "id": "way/447285100",
  "properties": {
    "addr:city": "Marcory",
    "addr:country": "CI",
    "addr:state": "Abidjan",
    "addr:street": "Rue des Azobés",
    "amenity": "hospital",
    "name": "Nouvelle Clinique Farah",
    "phone": "+225-21 26 00 93",
    "website": "http://www.cliniquefarah.com/",
    "id": "way/447285100"
  },
  "geometry": {
    "type": "Point",
    "coordinates": [
      -3.9862356,
      5.3110434
    ]
  }
},
{
  "type": "Feature",
  "id": "way/447285101",
  "properties": {
    "addr:city": "Marcory",
    "addr:country": "CI",
    "addr:state": "Abidjan",
    "amenity": "hospital",
    "landuse": "construction",
    "name": "Nouvelle Clinique Farah",
    "phone": "+225-21 26 00 93",
    "website": "http://www.cliniquefarah.com/",
    "id": "way/447285101"
  },
  "geometry": {
    "type": "Point",
    "coordinates": [
      -3.9865886,
      5.3107226
    ]
  }
},
{
  "type": "Feature",
  "id": "node/452867581",
  "properties": {
    "amenity": "hospital",
    "name": "Polyclinique Le Panthéon Médical",
    "id": "node/452867581"
  },
  "geometry": {
    "type": "Point",
    "coordinates": [
      -3.957518,
      5.353641
    ]
  }
},
{
  "type": "Feature",
  "id": "node/454153807",
  "properties": {
    "amenity": "hospital",
    "emergency": "no",
    "name": "Centre médical Victoria de la Riviera",
    "id": "node/454153807"
  },
  "geometry": {
    "type": "Point",
    "coordinates": [
      -3.9654195,
      5.3573151
    ]
  }
},
{
  "type": "Feature",
  "id": "node/454166819",
  "properties": {
    "amenity": "hospital",
    "name": "Centre Médical Joëlle C",
    "id": "node/454166819"
  },
  "geometry": {
    "type": "Point",
    "coordinates": [
      -3.9537051,
      5.3539965
    ]
  }
},
{
  "type": "Feature",
  "id": "node/454167530",
  "properties": {
    "amenity": "hospital",
    "name": "Centre d'Acumpuncture Chinois",
    "id": "node/454167530"
  },
  "geometry": {
    "type": "Point",
    "coordinates": [
      -3.9565789,
      5.3540375
    ]
  }
},
{
  "type": "Feature",
  "id": "node/775786939",
  "properties": {
    "amenity": "hospital",
    "emergency": "no",
    "name": "Centre de santé communautaire",
    "id": "node/775786939"
  },
  "geometry": {
    "type": "Point",
    "coordinates": [
      -3.9623644,
      5.3633032
    ]
  }
},
{
  "type": "Feature",
  "id": "node/1225061670",
  "properties": {
    "amenity": "hospital",
    "name": "Hôpital Militaire d'Abidjan",
    "source": "http://www.abidjandirect.net/index2.php?page=actualite&id=797",
    "id": "node/1225061670"
  },
  "geometry": {
    "type": "Point",
    "coordinates": [
      -4.0076459,
      5.3808261
    ]
  }
},
{
  "type": "Feature",
  "id": "node/1236320723",
  "properties": {
    "amenity": "hospital",
    "name": "Polyclinique Avicennes",
    "id": "node/1236320723"
  },
  "geometry": {
    "type": "Point",
    "coordinates": [
      -3.9966411,
      5.3162
    ]
  }
},
{
  "type": "Feature",
  "id": "node/1363721586",
  "properties": {
    "amenity": "hospital",
    "emergency": "no",
    "name": "Centre de santé communautaire d'Akouedo-Attie",
    "id": "node/1363721586"
  },
  "geometry": {
    "type": "Point",
    "coordinates": [
      -3.9265239,
      5.3568479
    ]
  }
},
{
  "type": "Feature",
  "id": "node/1951165098",
  "properties": {
    "amenity": "hospital",
    "name": "Hôpital de Port-Bouët",
    "id": "node/1951165098"
  },
  "geometry": {
    "type": "Point",
    "coordinates": [
      -3.9622511,
      5.2623425
    ]
  }
},
{
  "type": "Feature",
  "id": "node/1951724361",
  "properties": {
    "amenity": "hospital",
    "name": "Hopital général de Koumassi",
    "id": "node/1951724361"
  },
  "geometry": {
    "type": "Point",
    "coordinates": [
      -3.9694052,
      5.2872334
    ]
  }
},
{
  "type": "Feature",
  "id": "node/2381546282",
  "properties": {
    "amenity": "hospital",
    "emergency": "no",
    "name": "Croix Bleue",
    "id": "node/2381546282"
  },
  "geometry": {
    "type": "Point",
    "coordinates": [
      -4.0178162,
      5.3632813
    ]
  }
},
{
  "type": "Feature",
  "id": "node/2382090539",
  "properties": {
    "amenity": "hospital",
    "emergency": "no",
    "name": "Maternité Urbaine de Williamsville",
    "id": "node/2382090539"
  },
  "geometry": {
    "type": "Point",
    "coordinates": [
      -4.0232747,
      5.3672232
    ]
  }
},
{
  "type": "Feature",
  "id": "node/2427130119",
  "properties": {
    "addr:city": "Attécoubé",
    "addr:country": "CI",
    "addr:state": "Abidjan",
    "amenity": "hospital",
    "name": "PMI",
    "id": "node/2427130119"
  },
  "geometry": {
    "type": "Point",
    "coordinates": [
      -4.0332404,
      5.3496529
    ]
  }
},
{
  "type": "Feature",
  "id": "node/2440400044",
  "properties": {
    "amenity": "hospital",
    "name": "Laboratoire du Cmb Fleming",
    "id": "node/2440400044"
  },
  "geometry": {
    "type": "Point",
    "coordinates": [
      -3.9821776,
      5.2930608
    ]
  }
},
{
  "type": "Feature",
  "id": "node/2443095363",
  "properties": {
    "amenity": "hospital",
    "emergency": "yes",
    "name": "Hopital general d'Abobo",
    "id": "node/2443095363"
  },
  "geometry": {
    "type": "Point",
    "coordinates": [
      -4.016503,
      5.4237341
    ]
  }
},
{
  "type": "Feature",
  "id": "node/2452125558",
  "properties": {
    "amenity": "hospital",
    "emergency": "no",
    "name": "Cabinet dentaire",
    "phone": "20372431",
    "id": "node/2452125558"
  },
  "geometry": {
    "type": "Point",
    "coordinates": [
      -4.0168178,
      5.3487426
    ]
  }
},
{
  "type": "Feature",
  "id": "node/2461273777",
  "properties": {
    "addr:city": "Marcory",
    "addr:country": "CI",
    "addr:state": "Abidjan",
    "addr:street": "Rue E 7",
    "amenity": "hospital",
    "emergency": "no",
    "name": "Clinique médicale Koko",
    "id": "node/2461273777"
  },
  "geometry": {
    "type": "Point",
    "coordinates": [
      -3.9734755,
      5.3114387
    ]
  }
},
{
  "type": "Feature",
  "id": "node/2463107744",
  "properties": {
    "addr:city": "Yopougon",
    "addr:country": "CI",
    "addr:state": "Abidjan",
    "addr:street": "Avenue Marie-Thérèse-Houphouët-Boigny",
    "amenity": "hospital",
    "name": "Hôpital général de Yopougon-Attié",
    "old_name": "PMI de Yopougon",
    "operator": "Ministère de la Santé et de la lutte contre le sida",
    "phone": "+225 23454390",
    "id": "node/2463107744"
  },
  "geometry": {
    "type": "Point",
    "coordinates": [
      -4.0800624,
      5.3419518
    ]
  }
},
{
  "type": "Feature",
  "id": "node/2489420736",
  "properties": {
    "addr:city": "Cocody",
    "addr:country": "CI",
    "addr:pobox": "01 BP 1224 Abidjan 01",
    "addr:postcode": "01",
    "addr:state": "Abidjan",
    "addr:street": "Rue L130",
    "addr:suburb": "Angré",
    "amenity": "hospital",
    "name": "Centre Medical Nimatoullah",
    "operator": "Fondation Dr. Javad Nurbakhsh",
    "phone": "+225 22427182",
    "id": "node/2489420736"
  },
  "geometry": {
    "type": "Point",
    "coordinates": [
      -3.9939118,
      5.3987428
    ]
  }
},
{
  "type": "Feature",
  "id": "node/2493219528",
  "properties": {
    "addr:city": "Adjamé",
    "addr:country": "CI",
    "addr:state": "Abidjan",
    "addr:street": "Boulevard Nangui Abrogroua",
    "amenity": "hospital",
    "emergency": "no",
    "name": "Centre Medico-social",
    "phone": "+225 20224433",
    "id": "node/2493219528"
  },
  "geometry": {
    "type": "Point",
    "coordinates": [
      -4.0260969,
      5.3412228
    ]
  }
},
{
  "type": "Feature",
  "id": "node/2493737349",
  "properties": {
    "amenity": "hospital",
    "name": "Clinique Axe optique",
    "id": "node/2493737349"
  },
  "geometry": {
    "type": "Point",
    "coordinates": [
      -3.9558489,
      5.2939016
    ]
  }
},
{
  "type": "Feature",
  "id": "node/2604141815",
  "properties": {
    "amenity": "hospital",
    "name": "Clinique Liring",
    "id": "node/2604141815"
  },
  "geometry": {
    "type": "Point",
    "coordinates": [
      -3.9707658,
      5.2981314
    ]
  }
},
{
  "type": "Feature",
  "id": "node/2760759391",
  "properties": {
    "amenity": "hospital",
    "name": "Centre Médico Social",
    "id": "node/2760759391"
  },
  "geometry": {
    "type": "Point",
    "coordinates": [
      -3.9477124,
      5.3101063
    ]
  }
},
{
  "type": "Feature",
  "id": "node/3015620997",
  "properties": {
    "amenity": "hospital",
    "name": "La Rosette Laboratoire",
    "id": "node/3015620997"
  },
  "geometry": {
    "type": "Point",
    "coordinates": [
      -4.0032332,
      5.3013838
    ]
  }
},
{
  "type": "Feature",
  "id": "node/3017000111",
  "properties": {
    "amenity": "hospital",
    "name": "centre medical de la cite de l'enfance croix rouge",
    "id": "node/3017000111"
  },
  "geometry": {
    "type": "Point",
    "coordinates": [
      -4.0186874,
      5.3491924
    ]
  }
},
{
  "type": "Feature",
  "id": "node/3017000124",
  "properties": {
    "addr:pobox": "08 BP 2450 Abidjan 08",
    "addr:postcode": "08 BP 2450 Abidjan 08",
    "amenity": "hospital",
    "description": "consultation opthamologie orl gynecologie dermatologie fibroendescopie imagerie medicale dentaire ...",
    "email": "hallmedinri@aviso.ci",
    "name": "Hall médical INRI de la fraternité",
    "phone": "20383418 20390065",
    "id": "node/3017000124"
  },
  "geometry": {
    "type": "Point",
    "coordinates": [
      -4.0220272,
      5.3491343
    ]
  }
},
{
  "type": "Feature",
  "id": "node/3144241936",
  "properties": {
    "amenity": "hospital",
    "name": "Clinique Médicale Sainte-Philomène",
    "id": "node/3144241936"
  },
  "geometry": {
    "type": "Point",
    "coordinates": [
      -3.9795361,
      5.3569692
    ]
  }
},
{
  "type": "Feature",
  "id": "node/3149011613",
  "properties": {
    "amenity": "hospital",
    "name": "Centre National de Transfusion Sanguine",
    "id": "node/3149011613"
  },
  "geometry": {
    "type": "Point",
    "coordinates": [
      -3.9966532,
      5.2916283
    ]
  }
},
{
  "type": "Feature",
  "id": "node/3193990990",
  "properties": {
    "amenity": "hospital",
    "emergency": "yes",
    "fixme": "nom?? / name??",
    "id": "node/3193990990"
  },
  "geometry": {
    "type": "Point",
    "coordinates": [
      -4.0248754,
      5.3440088
    ]
  }
},
{
  "type": "Feature",
  "id": "node/3194527904",
  "properties": {
    "amenity": "hospital",
    "id": "node/3194527904"
  },
  "geometry": {
    "type": "Point",
    "coordinates": [
      -4.0063383,
      5.3938983
    ]
  }
},
{
  "type": "Feature",
  "id": "node/3194527905",
  "properties": {
    "amenity": "hospital",
    "id": "node/3194527905"
  },
  "geometry": {
    "type": "Point",
    "coordinates": [
      -4.0059563,
      5.3915916
    ]
  }
},
{
  "type": "Feature",
  "id": "node/3282137848",
  "properties": {
    "amenity": "hospital",
    "id": "node/3282137848"
  },
  "geometry": {
    "type": "Point",
    "coordinates": [
      -4.0318186,
      5.4162938
    ]
  }
},
{
  "type": "Feature",
  "id": "node/3282170098",
  "properties": {
    "amenity": "hospital",
    "id": "node/3282170098"
  },
  "geometry": {
    "type": "Point",
    "coordinates": [
      -3.9955778,
      5.4130137
    ]
  }
},
{
  "type": "Feature",
  "id": "node/3282322584",
  "properties": {
    "amenity": "hospital",
    "id": "node/3282322584"
  },
  "geometry": {
    "type": "Point",
    "coordinates": [
      -3.9898318,
      5.4230333
    ]
  }
},
{
  "type": "Feature",
  "id": "node/3282370688",
  "properties": {
    "amenity": "hospital",
    "name": "Hopital Houphouët Boigny",
    "id": "node/3282370688"
  },
  "geometry": {
    "type": "Point",
    "coordinates": [
      -4.0080635,
      5.4430109
    ]
  }
},
{
  "type": "Feature",
  "id": "node/3369247647",
  "properties": {
    "amenity": "hospital",
    "name": "centre de Santé Communautaire de la Cité Houphouet Boigny",
    "id": "node/3369247647"
  },
  "geometry": {
    "type": "Point",
    "coordinates": [
      -3.9357264,
      5.3099955
    ]
  }
},
{
  "type": "Feature",
  "id": "node/3767112013",
  "properties": {
    "amenity": "hospital",
    "name": "Hôpital Mère-Enfant de Bingerville",
    "id": "node/3767112013"
  },
  "geometry": {
    "type": "Point",
    "coordinates": [
      -3.8841499,
      5.3606488
    ]
  }
},
{
  "type": "Feature",
  "id": "node/3784306923",
  "properties": {
    "amenity": "hospital",
    "name": "Clinique externat saint paul",
    "id": "node/3784306923"
  },
  "geometry": {
    "type": "Point",
    "coordinates": [
      -4.0214181,
      5.3258684
    ]
  }
},
{
  "type": "Feature",
  "id": "node/3784306925",
  "properties": {
    "amenity": "hospital",
    "name": "Pharmacie des finances",
    "id": "node/3784306925"
  },
  "geometry": {
    "type": "Point",
    "coordinates": [
      -4.0203882,
      5.325871
    ]
  }
},
{
  "type": "Feature",
  "id": "node/3978718027",
  "properties": {
    "addr:city": "Cocody",
    "addr:country": "CI",
    "addr:pobox": "28 BP 1138 Abidjan 28",
    "addr:postcode": "28",
    "addr:state": "Abidjan",
    "addr:street": "Rue L237",
    "addr:suburb": "Angré",
    "amenity": "hospital",
    "name": "Centre de santé urbain d'Angré",
    "phone": "00225 22525542",
    "id": "node/3978718027"
  },
  "geometry": {
    "type": "Point",
    "coordinates": [
      -3.9846254,
      5.405196
    ]
  }
},
{
  "type": "Feature",
  "id": "node/3978739725",
  "properties": {
    "addr:city": "Cocody",
    "addr:country": "CI",
    "addr:postcode": "BP 51 Cidex 3 Abidjan",
    "addr:state": "Abidjan",
    "addr:street": "Rue I145",
    "addr:suburb": "Riviera Palmeraie",
    "amenity": "hospital",
    "name": "Centre médical Mère Maria Elisa Adreoli",
    "phone": "+225 22490348",
    "id": "node/3978739725"
  },
  "geometry": {
    "type": "Point",
    "coordinates": [
      -3.9590557,
      5.3648561
    ]
  }
},
{
  "type": "Feature",
  "id": "node/3982237902",
  "properties": {
    "addr:city": "Cocody",
    "addr:country": "CI",
    "addr:state": "Abidjan",
    "addr:street": "Rue K126",
    "addr:suburb": "Gendarmerie Agban",
    "amenity": "hospital",
    "name": "Centre de Santé",
    "id": "node/3982237902"
  },
  "geometry": {
    "type": "Point",
    "coordinates": [
      -4.0060247,
      5.3748913
    ]
  }
},
{
  "type": "Feature",
  "id": "node/4019798767",
  "properties": {
    "addr:city": "Le Plateau",
    "addr:housenumber": "4",
    "addr:street": "Boulevard de L'indénié",
    "amenity": "hospital",
    "emergency": "yes",
    "name": "Polyclinique de l'Indenié",
    "website": "http://www.polycliniqueindenie.ci/",
    "id": "node/4019798767"
  },
  "geometry": {
    "type": "Point",
    "coordinates": [
      -4.0190773,
      5.3384806
    ]
  }
},
{
  "type": "Feature",
  "id": "node/4019811761",
  "properties": {
    "amenity": "hospital",
    "name": "centremedical de la mairie",
    "id": "node/4019811761"
  },
  "geometry": {
    "type": "Point",
    "coordinates": [
      -3.9695626,
      5.2896778
    ]
  }
},
{
  "type": "Feature",
  "id": "node/4019858299",
  "properties": {
    "amenity": "hospital",
    "designation": "Centre Hospitalier Universitaire de Yopougon",
    "emergency": "yes",
    "name": "Centre Hospitalier Universitaire de Yopougon",
    "short_name": "CHU de Yopougon",
    "id": "node/4019858299"
  },
  "geometry": {
    "type": "Point",
    "coordinates": [
      -4.089517,
      5.3576504
    ]
  }
},
{
  "type": "Feature",
  "id": "node/4019888798",
  "properties": {
    "amenity": "hospital",
    "name": "Centre de Santé El Rapha",
    "id": "node/4019888798"
  },
  "geometry": {
    "type": "Point",
    "coordinates": [
      -4.0198537,
      5.404256
    ]
  }
},
{
  "type": "Feature",
  "id": "node/4019911996",
  "properties": {
    "amenity": "hospital",
    "name": "Dispensaire de M’Badon",
    "id": "node/4019911996"
  },
  "geometry": {
    "type": "Point",
    "coordinates": [
      -3.9349913,
      5.3310283
    ]
  }
},
{
  "type": "Feature",
  "id": "node/4019925584",
  "properties": {
    "amenity": "hospital",
    "name": "Hôpital général de Bingerville",
    "id": "node/4019925584"
  },
  "geometry": {
    "type": "Point",
    "coordinates": [
      -3.8859607,
      5.359723
    ]
  }
},
{
  "type": "Feature",
  "id": "node/4019925585",
  "properties": {
    "amenity": "hospital",
    "name": "Hôpital psychiatrique de Bingerville",
    "id": "node/4019925585"
  },
  "geometry": {
    "type": "Point",
    "coordinates": [
      -3.8839226,
      5.3597809
    ]
  }
},
{
  "type": "Feature",
  "id": "node/4247072824",
  "properties": {
    "amenity": "hospital",
    "name": "Centre de Sante Communautaire Doukoure",
    "id": "node/4247072824"
  },
  "geometry": {
    "type": "Point",
    "coordinates": [
      -4.073555,
      5.3346465
    ]
  }
},
{
  "type": "Feature",
  "id": "node/4249745831",
  "properties": {
    "amenity": "hospital",
    "name": "Pharmacie Christ Stella",
    "id": "node/4249745831"
  },
  "geometry": {
    "type": "Point",
    "coordinates": [
      -4.0343327,
      5.3572007
    ]
  }
},
{
  "type": "Feature",
  "id": "node/4344227839",
  "properties": {
    "amenity": "hospital",
    "name": "Clinique Béatitudes",
    "id": "node/4344227839"
  },
  "geometry": {
    "type": "Point",
    "coordinates": [
      -3.9958218,
      5.3488038
    ]
  }
},
{
  "type": "Feature",
  "id": "node/4485187391",
  "properties": {
    "addr:street": "Boulevard Felix Houphouët Boigny",
    "amenity": "hospital",
    "name": "Maternité d’Attecoubé",
    "id": "node/4485187391"
  },
  "geometry": {
    "type": "Point",
    "coordinates": [
      -4.0347417,
      5.3530094
    ]
  }
},
{
  "type": "Feature",
  "id": "node/4791767109",
  "properties": {
    "amenity": "hospital",
    "name": "CHA",
    "id": "node/4791767109"
  },
  "geometry": {
    "type": "Point",
    "coordinates": [
      -4.0066722,
      5.3988835
    ]
  }
}
]
}
