{
"type": "FeatureCollection",
"features": [
{
  "type": "Feature",
  "id": "way/424953417",
  "properties": {
    "amenity": "university",
    "building": "yes",
    "name": "INSSAS",
    "id": "way/424953417"
  },
  "geometry": {
    "type": "Point",
    "coordinates": [
      10.4280023,
      5.4615822
    ]
  }
},
{
  "type": "Feature",
  "id": "way/424953418",
  "properties": {
    "amenity": "university",
    "building": "yes",
    "name": "ISSTECO",
    "id": "way/424953418"
  },
  "geometry": {
    "type": "Point",
    "coordinates": [
      10.4271556,
      5.4620089
    ]
  }
},
{
  "type": "Feature",
  "id": "way/425061004",
  "properties": {
    "amenity": "university",
    "building": "yes",
    "name": "Institu Nanfah",
    "id": "way/425061004"
  },
  "geometry": {
    "type": "Point",
    "coordinates": [
      10.430644,
      5.4702365
    ]
  }
},
{
  "type": "Feature",
  "id": "way/425061005",
  "properties": {
    "amenity": "university",
    "building": "yes",
    "name": "Institut Money Keng",
    "id": "way/425061005"
  },
  "geometry": {
    "type": "Point",
    "coordinates": [
      10.4304943,
      5.4702383
    ]
  }
},
{
  "type": "Feature",
  "id": "way/425070172",
  "properties": {
    "amenity": "university",
    "name": "Complexe 3i Santé",
    "id": "way/425070172"
  },
  "geometry": {
    "type": "Point",
    "coordinates": [
      10.4445353,
      5.4786883
    ]
  }
},
{
  "type": "Feature",
  "id": "way/425076238",
  "properties": {
    "amenity": "university",
    "building": "yes",
    "name": "INSAM",
    "id": "way/425076238"
  },
  "geometry": {
    "type": "Point",
    "coordinates": [
      10.4496985,
      5.4743035
    ]
  }
},
{
  "type": "Feature",
  "id": "way/425302882",
  "properties": {
    "amenity": "university",
    "name": "ENIEG Saint Andre",
    "id": "way/425302882"
  },
  "geometry": {
    "type": "Point",
    "coordinates": [
      10.4051215,
      5.5013383
    ]
  }
},
{
  "type": "Feature",
  "id": "node/4404320254",
  "properties": {
    "amenity": "university",
    "name": "Université Evangélique du Cameroun (UEC)",
    "website": "http://www.uecam.org",
    "id": "node/4404320254"
  },
  "geometry": {
    "type": "Point",
    "coordinates": [
      10.4149959,
      5.4380528
    ]
  }
}
]
}
