{
"type": "FeatureCollection",
"features": [
{
  "type": "Feature",
  "id": "relation/4421035",
  "properties": {
    "amenity": "bus_station",
    "name": "Terminal Wisata Grafika Cikole",
    "type": "multipolygon",
    "id": "relation/4421035"
  },
  "geometry": {
    "type": "Point",
    "coordinates": [
      107.6517617,
      -6.7852548
    ]
  }
},
{
  "type": "Feature",
  "id": "node/29391345",
  "properties": {
    "amenity": "bus_station",
    "name": "Terminal Karang Setra",
    "id": "node/29391345"
  },
  "geometry": {
    "type": "Point",
    "coordinates": [
      107.5958964,
      -6.8781826
    ]
  }
},
{
  "type": "Feature",
  "id": "node/29392015",
  "properties": {
    "amenity": "bus_station",
    "bus": "yes",
    "name": "Terminal Sederhana",
    "route_ref": "11A;15;23;24",
    "id": "node/29392015"
  },
  "geometry": {
    "type": "Point",
    "coordinates": [
      107.5993151,
      -6.8904837
    ]
  }
},
{
  "type": "Feature",
  "id": "way/155190115",
  "properties": {
    "amenity": "bus_station",
    "name": "Terminal Ledeng",
    "id": "way/155190115"
  },
  "geometry": {
    "type": "Point",
    "coordinates": [
      107.5951232,
      -6.8591457
    ]
  }
},
{
  "type": "Feature",
  "id": "way/182987706",
  "properties": {
    "amenity": "bus_station",
    "name": "Terminal Lembang",
    "id": "way/182987706"
  },
  "geometry": {
    "type": "Point",
    "coordinates": [
      107.6239115,
      -6.8168725
    ]
  }
},
{
  "type": "Feature",
  "id": "way/217843186",
  "properties": {
    "amenity": "bus_station",
    "name": "Terminal Antapani",
    "id": "way/217843186"
  },
  "geometry": {
    "type": "Point",
    "coordinates": [
      107.6657905,
      -6.9154683
    ]
  }
},
{
  "type": "Feature",
  "id": "way/299060309",
  "properties": {
    "amenity": "bus_station",
    "id": "way/299060309"
  },
  "geometry": {
    "type": "Point",
    "coordinates": [
      107.6168084,
      -6.8908939
    ]
  }
},
{
  "type": "Feature",
  "id": "way/319068173",
  "properties": {
    "amenity": "bus_station",
    "building": "yes",
    "name": "Terminal Ciumbeuleuit",
    "id": "way/319068173"
  },
  "geometry": {
    "type": "Point",
    "coordinates": [
      107.6048171,
      -6.8626711
    ]
  }
},
{
  "type": "Feature",
  "id": "way/320604754",
  "properties": {
    "amenity": "bus_station",
    "area": "yes",
    "name": "Terminal Bus dan Angkot Cicaheum",
    "parking": "park_and_ride",
    "id": "way/320604754"
  },
  "geometry": {
    "type": "Point",
    "coordinates": [
      107.6567229,
      -6.9028032
    ]
  }
},
{
  "type": "Feature",
  "id": "way/321073551",
  "properties": {
    "amenity": "bus_station",
    "building": "yes",
    "name": "Terminal Bis Leuwipanjang",
    "id": "way/321073551"
  },
  "geometry": {
    "type": "Point",
    "coordinates": [
      107.5940179,
      -6.9459874
    ]
  }
},
{
  "type": "Feature",
  "id": "way/383052677",
  "properties": {
    "amenity": "bus_station",
    "building": "yes",
    "name": "Terminal Angkot Margahayu Raya",
    "operator": "Kobanter Baru",
    "id": "way/383052677"
  },
  "geometry": {
    "type": "Point",
    "coordinates": [
      107.6624886,
      -6.9465381
    ]
  }
},
{
  "type": "Feature",
  "id": "node/1107504893",
  "properties": {
    "amenity": "bus_station",
    "bus": "yes",
    "highway": "bus_stop",
    "name": "Politeknik Bandung (Polban)",
    "public_transport": "stop_position",
    "ref": "Politeknik Bandung (Polban)",
    "id": "node/1107504893"
  },
  "geometry": {
    "type": "Point",
    "coordinates": [
      107.5744599,
      -6.8721357
    ]
  }
},
{
  "type": "Feature",
  "id": "node/1662376687",
  "properties": {
    "amenity": "bus_station",
    "name": "Terminal Dago",
    "id": "node/1662376687"
  },
  "geometry": {
    "type": "Point",
    "coordinates": [
      107.6210686,
      -6.8670564
    ]
  }
},
{
  "type": "Feature",
  "id": "node/1879505409",
  "properties": {
    "amenity": "bus_station",
    "name": "Terminal Pasar Antri Cimahi",
    "id": "node/1879505409"
  },
  "geometry": {
    "type": "Point",
    "coordinates": [
      107.5379058,
      -6.8806713
    ]
  }
},
{
  "type": "Feature",
  "id": "node/2352378157",
  "properties": {
    "amenity": "bus_station",
    "description": "Buses to Pandangaran",
    "name": "Terminal Bus Cicaheum",
    "id": "node/2352378157"
  },
  "geometry": {
    "type": "Point",
    "coordinates": [
      107.6567526,
      -6.9026125
    ]
  }
},
{
  "type": "Feature",
  "id": "node/2352381520",
  "properties": {
    "amenity": "bus_station",
    "name": "Terminal Kebon Kelapa",
    "id": "node/2352381520"
  },
  "geometry": {
    "type": "Point",
    "coordinates": [
      107.6060519,
      -6.9275002
    ]
  }
},
{
  "type": "Feature",
  "id": "node/2352383137",
  "properties": {
    "amenity": "bus_station",
    "name": "Terminal Elang",
    "id": "node/2352383137"
  },
  "geometry": {
    "type": "Point",
    "coordinates": [
      107.5756497,
      -6.9132924
    ]
  }
},
{
  "type": "Feature",
  "id": "node/2500443118",
  "properties": {
    "amenity": "bus_station",
    "name": "Primajasa",
    "id": "node/2500443118"
  },
  "geometry": {
    "type": "Point",
    "coordinates": [
      107.624656,
      -6.9614072
    ]
  }
},
{
  "type": "Feature",
  "id": "node/3029967052",
  "properties": {
    "addr:city": "Bandung, Jawa Barat",
    "addr:housenumber": "107",
    "addr:postcode": "40132",
    "addr:street": "Jalan Dipatiukur",
    "amenity": "bus_station",
    "name": "DayTrans Dipatiukur",
    "shelter": "yes",
    "id": "node/3029967052"
  },
  "geometry": {
    "type": "Point",
    "coordinates": [
      107.6142058,
      -6.8855429
    ]
  }
},
{
  "type": "Feature",
  "id": "node/3244745031",
  "properties": {
    "amenity": "bus_station",
    "name": "Terminal Parongpong",
    "id": "node/3244745031"
  },
  "geometry": {
    "type": "Point",
    "coordinates": [
      107.5818041,
      -6.8032279
    ]
  }
},
{
  "type": "Feature",
  "id": "node/3244745033",
  "properties": {
    "amenity": "bus_station",
    "bus": "yes",
    "highway": "bus_stop",
    "name": "Terminal Ciroyom",
    "public_transport": "stop_position",
    "ref": "Terminal Ciroyom",
    "id": "node/3244745033"
  },
  "geometry": {
    "type": "Point",
    "coordinates": [
      107.5886438,
      -6.9142008
    ]
  }
},
{
  "type": "Feature",
  "id": "node/3244754744",
  "properties": {
    "amenity": "bus_station",
    "bus": "yes",
    "name": "Terminal Bus Cicaheum",
    "public_transport": "stop_position",
    "ref": "Terminal Bus Cicaheum",
    "id": "node/3244754744"
  },
  "geometry": {
    "type": "Point",
    "coordinates": [
      107.6568463,
      -6.9021374
    ]
  }
},
{
  "type": "Feature",
  "id": "node/3249461528",
  "properties": {
    "amenity": "bus_station",
    "name": "Cimindi",
    "public_transport": "platform",
    "id": "node/3249461528"
  },
  "geometry": {
    "type": "Point",
    "coordinates": [
      107.5599316,
      -6.8954481
    ]
  }
},
{
  "type": "Feature",
  "id": "node/3250474887",
  "properties": {
    "amenity": "bus_station",
    "name": "Terminal Cisarua (Curug Cimahi)",
    "source": "https://angkotbandung.wordpress.com/category/terminal-cisarua/",
    "id": "node/3250474887"
  },
  "geometry": {
    "type": "Point",
    "coordinates": [
      107.5757309,
      -6.7987153
    ]
  }
},
{
  "type": "Feature",
  "id": "node/3251041603",
  "properties": {
    "amenity": "bus_station",
    "name": "Terminal Cileunyi",
    "id": "node/3251041603"
  },
  "geometry": {
    "type": "Point",
    "coordinates": [
      107.7535783,
      -6.9397765
    ]
  }
},
{
  "type": "Feature",
  "id": "node/3256049561",
  "properties": {
    "amenity": "bus_station",
    "name": "Ciburial",
    "id": "node/3256049561"
  },
  "geometry": {
    "type": "Point",
    "coordinates": [
      107.6436942,
      -6.858136
    ]
  }
},
{
  "type": "Feature",
  "id": "node/3256092261",
  "properties": {
    "amenity": "bus_station",
    "name": "Alun-alun",
    "id": "node/3256092261"
  },
  "geometry": {
    "type": "Point",
    "coordinates": [
      107.6064433,
      -6.9210723
    ]
  }
},
{
  "type": "Feature",
  "id": "node/3374033509",
  "properties": {
    "amenity": "bus_station",
    "bus": "yes",
    "highway": "bus_stop",
    "name": "Terminal Abdul Muis/Kebon Kalapa",
    "public_transport": "stop_position",
    "ref": "Terminal Abdul Muis/Kebon Kalapa",
    "id": "node/3374033509"
  },
  "geometry": {
    "type": "Point",
    "coordinates": [
      107.6059072,
      -6.9273998
    ]
  }
},
{
  "type": "Feature",
  "id": "node/4058092945",
  "properties": {
    "amenity": "bus_station",
    "name": "Bus station",
    "id": "node/4058092945"
  },
  "geometry": {
    "type": "Point",
    "coordinates": [
      107.7162767,
      -6.934955
    ]
  }
},
{
  "type": "Feature",
  "id": "node/4099275953",
  "properties": {
    "amenity": "bus_station",
    "name": "CitiTrans",
    "id": "node/4099275953"
  },
  "geometry": {
    "type": "Point",
    "coordinates": [
      107.58633,
      -6.8939183
    ]
  }
},
{
  "type": "Feature",
  "id": "node/4243841169",
  "properties": {
    "amenity": "bus_station",
    "name": "Primajasa",
    "id": "node/4243841169"
  },
  "geometry": {
    "type": "Point",
    "coordinates": [
      107.5817925,
      -6.9402494
    ]
  }
},
{
  "type": "Feature",
  "id": "node/4327237840",
  "properties": {
    "addr:city": "Bandung",
    "addr:housenumber": "35",
    "addr:street": "Jalan Pasteur, Pamoyanan, Cicendo",
    "amenity": "bus_station",
    "name": "Xtrans - Pasteur",
    "id": "node/4327237840"
  },
  "geometry": {
    "type": "Point",
    "coordinates": [
      107.5929335,
      -6.898017
    ]
  }
},
{
  "type": "Feature",
  "id": "node/4366522973",
  "properties": {
    "addr:city": "Bandung",
    "addr:housenumber": "210",
    "addr:postcode": "40131",
    "addr:street": "Jalan Cihampelas",
    "amenity": "bus_station",
    "name": "DayTrans Cihampelas",
    "id": "node/4366522973"
  },
  "geometry": {
    "type": "Point",
    "coordinates": [
      107.6042797,
      -6.8907645
    ]
  }
},
{
  "type": "Feature",
  "id": "node/4373194455",
  "properties": {
    "amenity": "bus_station",
    "name": "Geulis Indonesia Travel",
    "id": "node/4373194455"
  },
  "geometry": {
    "type": "Point",
    "coordinates": [
      107.6166774,
      -6.8905218
    ]
  }
},
{
  "type": "Feature",
  "id": "node/4375049547",
  "properties": {
    "addr:city": "Bandung",
    "addr:housenumber": "55B",
    "addr:postcode": "40173",
    "addr:street": "Jalan Doktor Djunjunan",
    "amenity": "bus_station",
    "name": "DayTrans Dr. Djunjunan",
    "id": "node/4375049547"
  },
  "geometry": {
    "type": "Point",
    "coordinates": [
      107.5917373,
      -6.897206
    ]
  }
},
{
  "type": "Feature",
  "id": "node/4424651193",
  "properties": {
    "amenity": "bus_station",
    "name:en": "Bandung Expres Paket",
    "id": "node/4424651193"
  },
  "geometry": {
    "type": "Point",
    "coordinates": [
      107.599296,
      -6.9063449
    ]
  }
}
]
}
