{
"type": "FeatureCollection",
"features": [
{
  "type": "Feature",
  "id": "way/357506526",
  "properties": {
    "amenity": "bus_station",
    "name": "Transport Sana Rasmané",
    "short_name": "TSR",
    "source": "bing;survey",
    "id": "way/357506526"
  },
  "geometry": {
    "type": "Point",
    "coordinates": [
      -4.3140635,
      11.1632496
    ]
  }
},
{
  "type": "Feature",
  "id": "node/647225514",
  "properties": {
    "amenity": "bus_station",
    "description": "la meilleure compagnie de cars nationale",
    "name": "Gare routière TCV",
    "operator": "TCV",
    "id": "node/647225514"
  },
  "geometry": {
    "type": "Point",
    "coordinates": [
      -4.2991977,
      11.1793441
    ]
  }
},
{
  "type": "Feature",
  "id": "node/3743424430",
  "properties": {
    "amenity": "bus_station",
    "name": "Gare Rakieta",
    "source": "survey",
    "id": "node/3743424430"
  },
  "geometry": {
    "type": "Point",
    "coordinates": [
      -4.3034316,
      11.1768477
    ]
  }
},
{
  "type": "Feature",
  "id": "node/4465438289",
  "properties": {
    "amenity": "bus_station",
    "name": "GARE RAHIMO",
    "name:fr": "GARE RAHIMO",
    "phone": "79745939",
    "id": "node/4465438289"
  },
  "geometry": {
    "type": "Point",
    "coordinates": [
      -4.3068561,
      11.1692668
    ]
  }
}
]
}
