{
"type": "FeatureCollection",
"features": [
{
  "type": "Feature",
  "id": "way/230089937",
  "properties": {
    "amenity": "marketplace",
    "landuse": "retail",
    "name": "Marché New Deïdo",
    "id": "way/230089937"
  },
  "geometry": {
    "type": "Point",
    "coordinates": [
      9.7156619,
      4.0571379
    ]
  }
},
{
  "type": "Feature",
  "id": "way/230105347",
  "properties": {
    "alt_name": "Marché Lagos",
    "amenity": "marketplace",
    "landuse": "retail",
    "name": "Marché Central de Douala",
    "id": "way/230105347"
  },
  "geometry": {
    "type": "Point",
    "coordinates": [
      9.705583,
      4.035814
    ]
  }
},
{
  "type": "Feature",
  "id": "way/230105349",
  "properties": {
    "amenity": "marketplace",
    "landuse": "retail",
    "name": "Marché Nkololoun",
    "id": "way/230105349"
  },
  "geometry": {
    "type": "Point",
    "coordinates": [
      9.7117104,
      4.0364676
    ]
  }
},
{
  "type": "Feature",
  "id": "way/303167259",
  "properties": {
    "amenity": "marketplace",
    "landuse": "retail",
    "id": "way/303167259"
  },
  "geometry": {
    "type": "Point",
    "coordinates": [
      9.6645193,
      4.070446
    ]
  }
},
{
  "type": "Feature",
  "id": "way/335380660",
  "properties": {
    "amenity": "marketplace",
    "id": "way/335380660"
  },
  "geometry": {
    "type": "Point",
    "coordinates": [
      9.7462229,
      4.0155277
    ]
  }
},
{
  "type": "Feature",
  "id": "way/369080520",
  "properties": {
    "amenity": "marketplace",
    "name": "Marche de Bomono",
    "id": "way/369080520"
  },
  "geometry": {
    "type": "Point",
    "coordinates": [
      9.5978319,
      4.1685577
    ]
  }
},
{
  "type": "Feature",
  "id": "way/369080798",
  "properties": {
    "amenity": "marketplace",
    "name": "Marche de Dibombari-Centre",
    "id": "way/369080798"
  },
  "geometry": {
    "type": "Point",
    "coordinates": [
      9.6502513,
      4.1770236
    ]
  }
},
{
  "type": "Feature",
  "id": "way/449371638",
  "properties": {
    "addr:city": "Bonaberi",
    "amenity": "marketplace",
    "landuse": "retail",
    "name": "Marché Tanko",
    "id": "way/449371638"
  },
  "geometry": {
    "type": "Point",
    "coordinates": [
      9.6527903,
      4.0970263
    ]
  }
},
{
  "type": "Feature",
  "id": "way/449433298",
  "properties": {
    "amenity": "marketplace",
    "landuse": "retail",
    "name": "Marché Ndogpassi",
    "id": "way/449433298"
  },
  "geometry": {
    "type": "Point",
    "coordinates": [
      9.7576035,
      4.0038671
    ]
  }
},
{
  "type": "Feature",
  "id": "way/450614579",
  "properties": {
    "amenity": "marketplace",
    "landuse": "retail",
    "name": "Marché de Bonamoussadi",
    "id": "way/450614579"
  },
  "geometry": {
    "type": "Point",
    "coordinates": [
      9.7378966,
      4.0933329
    ]
  }
},
{
  "type": "Feature",
  "id": "way/451411193",
  "properties": {
    "amenity": "marketplace",
    "landuse": "retail",
    "name": "Marché Sandaga",
    "id": "way/451411193"
  },
  "geometry": {
    "type": "Point",
    "coordinates": [
      9.702547,
      4.0615389
    ]
  }
},
{
  "type": "Feature",
  "id": "way/454390361",
  "properties": {
    "amenity": "marketplace",
    "landuse": "retail",
    "name": "Marché Grand Hangar",
    "id": "way/454390361"
  },
  "geometry": {
    "type": "Point",
    "coordinates": [
      9.66106,
      4.0834715
    ]
  }
},
{
  "type": "Feature",
  "id": "way/454405514",
  "properties": {
    "amenity": "marketplace",
    "landuse": "retail",
    "name": "Marché Madagascar",
    "id": "way/454405514"
  },
  "geometry": {
    "type": "Point",
    "coordinates": [
      9.734242,
      4.0275348
    ]
  }
},
{
  "type": "Feature",
  "id": "way/454505941",
  "properties": {
    "amenity": "marketplace",
    "landuse": "retail",
    "name": "Marché de Bonassama",
    "id": "way/454505941"
  },
  "geometry": {
    "type": "Point",
    "coordinates": [
      9.6870095,
      4.0719488
    ]
  }
},
{
  "type": "Feature",
  "id": "way/454516520",
  "properties": {
    "amenity": "marketplace",
    "landuse": "retail",
    "name": "Marché Mboppi",
    "id": "way/454516520"
  },
  "geometry": {
    "type": "Point",
    "coordinates": [
      9.7148621,
      4.0467959
    ]
  }
},
{
  "type": "Feature",
  "id": "way/454527118",
  "properties": {
    "amenity": "marketplace",
    "landuse": "retail",
    "name": "Marché Monkam de Ndokoti",
    "id": "way/454527118"
  },
  "geometry": {
    "type": "Point",
    "coordinates": [
      9.7442102,
      4.0446197
    ]
  }
},
{
  "type": "Feature",
  "id": "way/454557578",
  "properties": {
    "amenity": "marketplace",
    "landuse": "retail",
    "name": "Marché Cité des Palmiers",
    "id": "way/454557578"
  },
  "geometry": {
    "type": "Point",
    "coordinates": [
      9.7641123,
      4.0523887
    ]
  }
},
{
  "type": "Feature",
  "id": "way/455805288",
  "properties": {
    "amenity": "marketplace",
    "landuse": "retail",
    "name": "Marché Oignon",
    "id": "way/455805288"
  },
  "geometry": {
    "type": "Point",
    "coordinates": [
      9.7177059,
      4.0310264
    ]
  }
},
{
  "type": "Feature",
  "id": "way/455844761",
  "properties": {
    "amenity": "marketplace",
    "landuse": "retail",
    "name": "Marché Congo",
    "note": "Le marché occupe la rue de manière provisoire suite à un incendie en juillet 2012",
    "id": "way/455844761"
  },
  "geometry": {
    "type": "Point",
    "coordinates": [
      9.7036576,
      4.0405134
    ]
  }
},
{
  "type": "Feature",
  "id": "way/456102684",
  "properties": {
    "amenity": "marketplace",
    "landuse": "retail",
    "name": "Marché du rail Ngwele",
    "source": "Plan polyvalent Douala",
    "id": "way/456102684"
  },
  "geometry": {
    "type": "Point",
    "coordinates": [
      9.6471293,
      4.0944553
    ]
  }
},
{
  "type": "Feature",
  "id": "way/456185279",
  "properties": {
    "amenity": "marketplace",
    "landuse": "retail",
    "name": "Marché Ancien Dalip",
    "id": "way/456185279"
  },
  "geometry": {
    "type": "Point",
    "coordinates": [
      9.6980795,
      4.045765
    ]
  }
},
{
  "type": "Feature",
  "id": "way/457411419",
  "properties": {
    "amenity": "marketplace",
    "landuse": "retail",
    "name": "Marché Logpom",
    "id": "way/457411419"
  },
  "geometry": {
    "type": "Point",
    "coordinates": [
      9.7649594,
      4.0853807
    ]
  }
},
{
  "type": "Feature",
  "id": "node/4393873431",
  "properties": {
    "amenity": "marketplace",
    "name": "Petit Marché Akwa Nord",
    "id": "node/4393873431"
  },
  "geometry": {
    "type": "Point",
    "coordinates": [
      9.718884,
      4.0825175
    ]
  }
},
{
  "type": "Feature",
  "id": "node/4413360071",
  "properties": {
    "amenity": "marketplace",
    "name": "Marché pk10",
    "id": "node/4413360071"
  },
  "geometry": {
    "type": "Point",
    "coordinates": [
      9.7729887,
      4.0490184
    ]
  }
},
{
  "type": "Feature",
  "id": "node/4413360079",
  "properties": {
    "amenity": "marketplace",
    "name": "Marché pk12",
    "id": "node/4413360079"
  },
  "geometry": {
    "type": "Point",
    "coordinates": [
      9.7862998,
      4.0627582
    ]
  }
},
{
  "type": "Feature",
  "id": "node/4447581364",
  "properties": {
    "amenity": "marketplace",
    "name": "petit marché nyalla",
    "id": "node/4447581364"
  },
  "geometry": {
    "type": "Point",
    "coordinates": [
      9.7888874,
      4.0321646
    ]
  }
},
{
  "type": "Feature",
  "id": "node/4540317364",
  "properties": {
    "amenity": "marketplace",
    "name": "Petit marché Logbaba",
    "id": "node/4540317364"
  },
  "geometry": {
    "type": "Point",
    "coordinates": [
      9.7588885,
      4.0372655
    ]
  }
}
]
}
