{
"type": "FeatureCollection",
"features": [
{
  "type": "Feature",
  "id": "way/119777111",
  "properties": {
    "addr:city": "East Jakarta",
    "addr:full": "Jalan Otto Iskandardinata",
    "addr:postcode": "13320",
    "addr:street": "Jl. Jatinegara Barat Raya",
    "amenity": "bus_station",
    "name": "Terminal Bus Kampung Melayu",
    "source": "HOT_InAWARESurvey_2017",
    "id": "way/119777111"
  },
  "geometry": {
    "type": "Point",
    "coordinates": [
      106.8670027,
      -6.224872
    ]
  }
},
{
  "type": "Feature",
  "id": "way/119784641",
  "properties": {
    "amenity": "bus_station",
    "area": "yes",
    "building": "yes",
    "name": "Terminal Senen",
    "id": "way/119784641"
  },
  "geometry": {
    "type": "Point",
    "coordinates": [
      106.8420712,
      -6.1741496
    ]
  }
},
{
  "type": "Feature",
  "id": "way/120161346",
  "properties": {
    "amenity": "bus_station",
    "area": "yes",
    "name": "Pool Bis Mayasari Bakti",
    "id": "way/120161346"
  },
  "geometry": {
    "type": "Point",
    "coordinates": [
      106.8653255,
      -6.3180042
    ]
  }
},
{
  "type": "Feature",
  "id": "way/126541926",
  "properties": {
    "amenity": "bus_station",
    "id": "way/126541926"
  },
  "geometry": {
    "type": "Point",
    "coordinates": [
      106.9086148,
      -6.1832604
    ]
  }
},
{
  "type": "Feature",
  "id": "way/126546821",
  "properties": {
    "amenity": "bus_station",
    "name": "Terminal Kampung Rambutan",
    "id": "way/126546821"
  },
  "geometry": {
    "type": "Point",
    "coordinates": [
      106.8830717,
      -6.3108163
    ]
  }
},
{
  "type": "Feature",
  "id": "way/155930203",
  "properties": {
    "amenity": "bus_station",
    "name": "TERMINAL BIS PINANG RANTI",
    "id": "way/155930203"
  },
  "geometry": {
    "type": "Point",
    "coordinates": [
      106.8866702,
      -6.2919786
    ]
  }
},
{
  "type": "Feature",
  "id": "way/155954024",
  "properties": {
    "amenity": "bus_station",
    "name": "Terminal modern Pulo Gebang",
    "id": "way/155954024"
  },
  "geometry": {
    "type": "Point",
    "coordinates": [
      106.952467,
      -6.2120234
    ]
  }
},
{
  "type": "Feature",
  "id": "way/156270925",
  "properties": {
    "amenity": "bus_station",
    "man_made": "works",
    "name": "Kantor Terminal Muara Angke",
    "id": "way/156270925"
  },
  "geometry": {
    "type": "Point",
    "coordinates": [
      106.7734593,
      -6.1087203
    ]
  }
},
{
  "type": "Feature",
  "id": "way/156271009",
  "properties": {
    "amenity": "bus_station",
    "name": "Terminal Muara Angke",
    "id": "way/156271009"
  },
  "geometry": {
    "type": "Point",
    "coordinates": [
      106.7733651,
      -6.1090568
    ]
  }
},
{
  "type": "Feature",
  "id": "way/157363152",
  "properties": {
    "amenity": "bus_station",
    "name": "Terminal Lebak Bulus",
    "id": "way/157363152"
  },
  "geometry": {
    "type": "Point",
    "coordinates": [
      106.7739768,
      -6.2899423
    ]
  }
},
{
  "type": "Feature",
  "id": "way/188727020",
  "properties": {
    "amenity": "bus_station",
    "building": "yes",
    "id": "way/188727020"
  },
  "geometry": {
    "type": "Point",
    "coordinates": [
      106.8520979,
      -6.24302
    ]
  }
},
{
  "type": "Feature",
  "id": "way/188728074",
  "properties": {
    "amenity": "bus_station",
    "building": "yes",
    "id": "way/188728074"
  },
  "geometry": {
    "type": "Point",
    "coordinates": [
      106.8579754,
      -6.2430612
    ]
  }
},
{
  "type": "Feature",
  "id": "way/188728075",
  "properties": {
    "amenity": "bus_station",
    "building": "yes",
    "id": "way/188728075"
  },
  "geometry": {
    "type": "Point",
    "coordinates": [
      106.8579304,
      -6.2433702
    ]
  }
},
{
  "type": "Feature",
  "id": "way/364865974",
  "properties": {
    "amenity": "bus_station",
    "building": "garages",
    "name": "Terminal Feeder Busway Trans BSD",
    "id": "way/364865974"
  },
  "geometry": {
    "type": "Point",
    "coordinates": [
      106.679887,
      -6.3057553
    ]
  }
},
{
  "type": "Feature",
  "id": "way/436537359",
  "properties": {
    "amenity": "bus_station",
    "building": "yes",
    "name": "Halte Busway S. Parman Podomoro City (Arah PGC)",
    "operator": "PT. Transportasi Jakarta (Transjakarta)",
    "id": "way/436537359"
  },
  "geometry": {
    "type": "Point",
    "coordinates": [
      106.7931095,
      -6.1758231
    ]
  }
},
{
  "type": "Feature",
  "id": "way/436537360",
  "properties": {
    "amenity": "bus_station",
    "building": "yes",
    "name": "Halte Busway S. Parman Podomoro City (Arah Pluit)",
    "operator": "PT. Transportasi Jakarta (Transjakarta)",
    "id": "way/436537360"
  },
  "geometry": {
    "type": "Point",
    "coordinates": [
      106.7922098,
      -6.1754886
    ]
  }
},
{
  "type": "Feature",
  "id": "way/436695369",
  "properties": {
    "amenity": "bus_station",
    "building": "yes",
    "name": "Halte Busway Slipi Kemanggisan (Arah Pluit)",
    "operator": "PT. Transportasi Jakarta (Transjakarta)",
    "id": "way/436695369"
  },
  "geometry": {
    "type": "Point",
    "coordinates": [
      106.796979,
      -6.1898478
    ]
  }
},
{
  "type": "Feature",
  "id": "way/436695370",
  "properties": {
    "amenity": "bus_station",
    "building": "yes",
    "name": "Halte Busway Slipi Kemanggisan (Arah PGC)",
    "operator": "PT. Transportasi Jakarta (Transjakarta)",
    "id": "way/436695370"
  },
  "geometry": {
    "type": "Point",
    "coordinates": [
      106.7972616,
      -6.1898384
    ]
  }
},
{
  "type": "Feature",
  "id": "way/436716807",
  "properties": {
    "amenity": "bus_station",
    "building": "yes",
    "name": "Halte Busway Jelambar (Arah Kalideres dan Pasar Baru)",
    "operator": "PT. Transportasi Jakarta (Transjakarta)",
    "id": "way/436716807"
  },
  "geometry": {
    "type": "Point",
    "coordinates": [
      106.7867204,
      -6.1665685
    ]
  }
},
{
  "type": "Feature",
  "id": "way/436716808",
  "properties": {
    "amenity": "bus_station",
    "building": "yes",
    "name": "Halte Busway Bendungan Hilir (Arah Kota dan Blok M)",
    "operator": "PT. Transportasi Jakarta (Transjakarta)",
    "id": "way/436716808"
  },
  "geometry": {
    "type": "Point",
    "coordinates": [
      106.8152731,
      -6.2171414
    ]
  }
},
{
  "type": "Feature",
  "id": "way/436726857",
  "properties": {
    "addr:city": "South Jakarta",
    "addr:postcode": "12930",
    "addr:street": "Jl. Jend. Gatot Subroto, RT.1/RW.4, Karet Semanggi, Kecamatan Setiabudi",
    "amenity": "bus_station",
    "building": "yes",
    "corridor9": "yes",
    "highway": "bus_stop",
    "name": "Semanggi",
    "network": "Transjakarta",
    "operator": "Transjakarta",
    "service": "TransJakarta",
    "shelter": "yes",
    "shelter_tj": "yes",
    "id": "way/436726857"
  },
  "geometry": {
    "type": "Point",
    "coordinates": [
      106.813258,
      -6.2204563
    ]
  }
},
{
  "type": "Feature",
  "id": "way/436726858",
  "properties": {
    "amenity": "bus_station",
    "building": "yes",
    "name": "Halte Busway Semanggi (Arah Pluit)",
    "operator": "PT. Transportasi Jakarta (Transjakarta)",
    "id": "way/436726858"
  },
  "geometry": {
    "type": "Point",
    "coordinates": [
      106.813024,
      -6.2206275
    ]
  }
},
{
  "type": "Feature",
  "id": "node/1272931997",
  "properties": {
    "amenity": "bus_station",
    "name": "halte pelumpang pertamina",
    "id": "node/1272931997"
  },
  "geometry": {
    "type": "Point",
    "coordinates": [
      106.893841,
      -6.1266847
    ]
  }
},
{
  "type": "Feature",
  "id": "node/1272932569",
  "properties": {
    "amenity": "bus_station",
    "name": "halte walikota jakarta utara",
    "id": "node/1272932569"
  },
  "geometry": {
    "type": "Point",
    "coordinates": [
      106.8931124,
      -6.1205868
    ]
  }
},
{
  "type": "Feature",
  "id": "node/1282441011",
  "properties": {
    "amenity": "bus_station",
    "name": "halte Busway Senen",
    "id": "node/1282441011"
  },
  "geometry": {
    "type": "Point",
    "coordinates": [
      106.8535906,
      -6.1743333
    ]
  }
},
{
  "type": "Feature",
  "id": "node/1402564088",
  "properties": {
    "addr:city": "east jakarta",
    "addr:postcode": "13260",
    "addr:street": "Pulo Gadung",
    "amenity": "bus_station",
    "name": "Terminal Pulo Gadung",
    "id": "node/1402564088"
  },
  "geometry": {
    "type": "Point",
    "coordinates": [
      106.9085516,
      -6.1830245
    ]
  }
},
{
  "type": "Feature",
  "id": "node/1691620906",
  "properties": {
    "amenity": "bus_station",
    "name": "Terminal Rawa Buaya",
    "id": "node/1691620906"
  },
  "geometry": {
    "type": "Point",
    "coordinates": [
      106.7248225,
      -6.1601013
    ]
  }
},
{
  "type": "Feature",
  "id": "node/2111399048",
  "properties": {
    "amenity": "bus_station",
    "name": "Terminal Bis Gambir",
    "note": "Bus Damri to Airport",
    "operator": "Damri",
    "id": "node/2111399048"
  },
  "geometry": {
    "type": "Point",
    "coordinates": [
      106.8301367,
      -6.1764373
    ]
  }
},
{
  "type": "Feature",
  "id": "node/2323138582",
  "properties": {
    "amenity": "bus_station",
    "name": "Trans Galaxi",
    "id": "node/2323138582"
  },
  "geometry": {
    "type": "Point",
    "coordinates": [
      106.9716251,
      -6.2690755
    ]
  }
},
{
  "type": "Feature",
  "id": "node/2372055093",
  "properties": {
    "amenity": "bus_station",
    "name": "Arinda",
    "id": "node/2372055093"
  },
  "geometry": {
    "type": "Point",
    "coordinates": [
      106.7102725,
      -6.2605311
    ]
  }
},
{
  "type": "Feature",
  "id": "node/2372055097",
  "properties": {
    "amenity": "bus_station",
    "name": "Ceger",
    "id": "node/2372055097"
  },
  "geometry": {
    "type": "Point",
    "coordinates": [
      106.7209725,
      -6.2623596
    ]
  }
},
{
  "type": "Feature",
  "id": "node/3249167275",
  "properties": {
    "amenity": "bus_station",
    "name": "Halte Busway Buaran",
    "id": "node/3249167275"
  },
  "geometry": {
    "type": "Point",
    "coordinates": [
      106.9310233,
      -6.2167424
    ]
  }
},
{
  "type": "Feature",
  "id": "node/3415431380",
  "properties": {
    "amenity": "bus_station",
    "bench": "yes",
    "corridor9": "yes",
    "covered": "yes",
    "name": "Halte Busway TransJakarta Slipi Petamburan",
    "network": "Transjakarta",
    "operator": "PT. Transportasi Jakarta",
    "service": "TransJakarta",
    "shelter": "yes",
    "shelter_tj": "yes",
    "id": "node/3415431380"
  },
  "geometry": {
    "type": "Point",
    "coordinates": [
      106.7997412,
      -6.2018216
    ]
  }
},
{
  "type": "Feature",
  "id": "node/3910151496",
  "properties": {
    "addr:city": "West Jakarta",
    "addr:postcode": "11450",
    "addr:street": "Jalan Kyai Tapa",
    "amenity": "bus_station",
    "name": "Halte Sumber Waras",
    "id": "node/3910151496"
  },
  "geometry": {
    "type": "Point",
    "coordinates": [
      106.7933001,
      -6.1665428
    ]
  }
},
{
  "type": "Feature",
  "id": "node/4146157406",
  "properties": {
    "addr:city": "East Jakarta",
    "addr:housenumber": "32",
    "addr:postcode": "13630",
    "addr:street": "Jalan Mayjend. Sutoyo",
    "amenity": "bus_station",
    "name": "Pool Bis Primajasa Cililitan",
    "operator": "Primajasa",
    "phone": "021-8009547",
    "id": "node/4146157406"
  },
  "geometry": {
    "type": "Point",
    "coordinates": [
      106.8694609,
      -6.2580929
    ]
  }
},
{
  "type": "Feature",
  "id": "node/4150482218",
  "properties": {
    "amenity": "bus_station",
    "name": "Terminal Bus Blok M",
    "id": "node/4150482218"
  },
  "geometry": {
    "type": "Point",
    "coordinates": [
      106.8009032,
      -6.243702
    ]
  }
},
{
  "type": "Feature",
  "id": "node/4150488749",
  "properties": {
    "addr:city": "Grogol, Petamburan, West Jakarta",
    "addr:postcode": "11450",
    "addr:street": "Kelurahan Grogol No.1",
    "amenity": "bus_station",
    "name": "Terminal Bus Grogol",
    "id": "node/4150488749"
  },
  "geometry": {
    "type": "Point",
    "coordinates": [
      106.7902784,
      -6.1666461
    ]
  }
},
{
  "type": "Feature",
  "id": "node/4150491503",
  "properties": {
    "addr:city": "west jakarta",
    "addr:postcode": "11820",
    "addr:street": "Daan Mogot",
    "amenity": "bus_station",
    "id": "node/4150491503"
  },
  "geometry": {
    "type": "Point",
    "coordinates": [
      106.70586,
      -6.1545208
    ]
  }
},
{
  "type": "Feature",
  "id": "node/4150507511",
  "properties": {
    "amenity": "bus_station",
    "name": "Terminal Lebak Bulus",
    "id": "node/4150507511"
  },
  "geometry": {
    "type": "Point",
    "coordinates": [
      106.7742161,
      -6.2894489
    ]
  }
},
{
  "type": "Feature",
  "id": "node/4150519000",
  "properties": {
    "amenity": "bus_station",
    "name": "Terminal Bus Senen",
    "id": "node/4150519000"
  },
  "geometry": {
    "type": "Point",
    "coordinates": [
      106.8412754,
      -6.1736915
    ]
  }
},
{
  "type": "Feature",
  "id": "node/4152579289",
  "properties": {
    "amenity": "bus_station",
    "id": "node/4152579289"
  },
  "geometry": {
    "type": "Point",
    "coordinates": [
      106.8221221,
      -6.2946705
    ]
  }
},
{
  "type": "Feature",
  "id": "node/4153062588",
  "properties": {
    "addr:city": "East Jakarta",
    "addr:housenumber": "RT.14/RW.2",
    "addr:postcode": "13560",
    "addr:street": "Jalan Raya Pondok Gede",
    "amenity": "bus_station",
    "name": "Terminal Pinang Ranti",
    "id": "node/4153062588"
  },
  "geometry": {
    "type": "Point",
    "coordinates": [
      106.8857791,
      -6.2911917
    ]
  }
},
{
  "type": "Feature",
  "id": "node/4153124157",
  "properties": {
    "addr:city": "East Jakarta",
    "addr:housenumber": "RT.5/RW.11",
    "addr:postcode": "11470",
    "addr:street": "Cawang, Kramatjati",
    "amenity": "bus_station",
    "name": "Halte Busway Cawang Uki Arah Tanjung Priuk",
    "id": "node/4153124157"
  },
  "geometry": {
    "type": "Point",
    "coordinates": [
      106.8772087,
      -6.2503653
    ]
  }
},
{
  "type": "Feature",
  "id": "node/4168497289",
  "properties": {
    "addr:street": "Jalan Mayjend. Sutoyo",
    "amenity": "bus_station",
    "name": "Pool Primajasa",
    "id": "node/4168497289"
  },
  "geometry": {
    "type": "Point",
    "coordinates": [
      106.8691803,
      -6.2577817
    ]
  }
},
{
  "type": "Feature",
  "id": "node/4235133190",
  "properties": {
    "addr:city": "East Jakarta",
    "addr:postcode": "13930",
    "addr:street": "Kp. Melayu, Jatinegara",
    "amenity": "bus_station",
    "name": "Halte Bidara Cina",
    "id": "node/4235133190"
  },
  "geometry": {
    "type": "Point",
    "coordinates": [
      106.86723,
      -6.2299026
    ]
  }
},
{
  "type": "Feature",
  "id": "node/4235135320",
  "properties": {
    "addr:city": "South Jakarta",
    "addr:postcode": "12190",
    "addr:street": "Senayan, Kby. Baru",
    "amenity": "bus_station",
    "name": "Halte BEI",
    "id": "node/4235135320"
  },
  "geometry": {
    "type": "Point",
    "coordinates": [
      106.8093561,
      -6.2231832
    ]
  }
},
{
  "type": "Feature",
  "id": "node/4235139419",
  "properties": {
    "addr:city": "South Jakarta",
    "addr:postcode": "12920",
    "addr:street": "Jalan Haji R. Rasuna Said",
    "amenity": "bus_station",
    "name": "Halte Karet Kuningan",
    "id": "node/4235139419"
  },
  "geometry": {
    "type": "Point",
    "coordinates": [
      106.8308448,
      -6.2172115
    ]
  }
},
{
  "type": "Feature",
  "id": "node/4235139589",
  "properties": {
    "addr:city": "Central Jakarta",
    "addr:postcode": "10220",
    "addr:street": "Jl. Kh. Mas Mansyur",
    "amenity": "bus_station",
    "name": "Halte London School",
    "id": "node/4235139589"
  },
  "geometry": {
    "type": "Point",
    "coordinates": [
      106.8167213,
      -6.2053487
    ]
  }
},
{
  "type": "Feature",
  "id": "node/4235143060",
  "properties": {
    "addr:city": "North Jakarta",
    "addr:postcode": "14250",
    "addr:street": "Klp. Gading Bar., Klp. Gading",
    "amenity": "bus_station",
    "name": "Halte Asmi",
    "id": "node/4235143060"
  },
  "geometry": {
    "type": "Point",
    "coordinates": [
      106.8888413,
      -6.171789
    ]
  }
},
{
  "type": "Feature",
  "id": "node/4235146807",
  "properties": {
    "addr:city": "South Jakarta",
    "addr:postcode": "12160",
    "addr:street": "Jalan Sultan Iskandarsyah",
    "amenity": "bus_station",
    "name": "Halte Busway Blok M",
    "id": "node/4235146807"
  },
  "geometry": {
    "type": "Point",
    "coordinates": [
      106.8033007,
      -6.2438404
    ]
  }
},
{
  "type": "Feature",
  "id": "node/4235169895",
  "properties": {
    "addr:city": "West Jakarta",
    "addr:postcode": "11470",
    "addr:street": "Daan Mogot",
    "amenity": "bus_station",
    "name": "Halte Sumur Bor",
    "id": "node/4235169895"
  },
  "geometry": {
    "type": "Point",
    "coordinates": [
      106.733249,
      -6.1547534
    ]
  }
},
{
  "type": "Feature",
  "id": "node/4235172920",
  "properties": {
    "addr:city": "East Jakarta",
    "addr:postcode": "13930",
    "addr:street": "Jalan Jatinegara Timur",
    "amenity": "bus_station",
    "name": "Halte Kampung Melayu",
    "id": "node/4235172920"
  },
  "geometry": {
    "type": "Point",
    "coordinates": [
      106.8670296,
      -6.224317
    ]
  }
},
{
  "type": "Feature",
  "id": "node/4235174796",
  "properties": {
    "addr:city": "Central Jakarta",
    "addr:postcode": "10430",
    "addr:street": "Jalan Keramat Raya",
    "amenity": "bus_station",
    "name": "Halte Kramat Sentiong Nu",
    "id": "node/4235174796"
  },
  "geometry": {
    "type": "Point",
    "coordinates": [
      106.8460309,
      -6.1880787
    ]
  }
},
{
  "type": "Feature",
  "id": "node/4235174967",
  "properties": {
    "addr:city": "South Jakarta",
    "addr:postcode": "12790",
    "addr:street": "Mampang Prapatan",
    "amenity": "bus_station",
    "name": "Halte Busway Mampang Prapatan",
    "id": "node/4235174967"
  },
  "geometry": {
    "type": "Point",
    "coordinates": [
      106.8257218,
      -6.2420827
    ]
  }
},
{
  "type": "Feature",
  "id": "node/4235175230",
  "properties": {
    "addr:city": "Central Jakarta",
    "addr:postcode": "10420",
    "addr:street": "Jalan Kramat Raya",
    "amenity": "bus_station",
    "name": "Halte Pal Putih",
    "id": "node/4235175230"
  },
  "geometry": {
    "type": "Point",
    "coordinates": [
      106.8428742,
      -6.1816483
    ]
  }
},
{
  "type": "Feature",
  "id": "node/4235200076",
  "properties": {
    "addr:city": "South Jakarta",
    "addr:postcode": "12930",
    "addr:street": "Jalan Jenderal Gatot Subroto",
    "amenity": "bus_station",
    "name": "Halte Semanggi",
    "id": "node/4235200076"
  },
  "geometry": {
    "type": "Point",
    "coordinates": [
      106.8138941,
      -6.2213804
    ]
  }
},
{
  "type": "Feature",
  "id": "node/4235205554",
  "properties": {
    "addr:city": "West Jakarta",
    "addr:postcode": "11470",
    "addr:street": "Daan Mogot",
    "amenity": "bus_station",
    "name": "Halte Jembatan Baru",
    "id": "node/4235205554"
  },
  "geometry": {
    "type": "Point",
    "coordinates": [
      106.7332742,
      -6.1546696
    ]
  }
},
{
  "type": "Feature",
  "id": "node/4235207829",
  "properties": {
    "addr:city": "East Jakarta",
    "addr:postcode": "13830",
    "addr:street": "Jalan Tol Lingkar Luar Jakarta",
    "amenity": "bus_station",
    "name": "Halte Tanah Merdeka",
    "id": "node/4235207829"
  },
  "geometry": {
    "type": "Point",
    "coordinates": [
      106.8703611,
      -6.3076085
    ]
  }
},
{
  "type": "Feature",
  "id": "node/4235222728",
  "properties": {
    "addr:city": "West Jakarta",
    "addr:postcode": "11410",
    "addr:street": "Palmerah Barat",
    "amenity": "bus_station",
    "name": "Halte Stasiun",
    "id": "node/4235222728"
  },
  "geometry": {
    "type": "Point",
    "coordinates": [
      106.7971714,
      -6.2075322
    ]
  }
},
{
  "type": "Feature",
  "id": "node/4242435294",
  "properties": {
    "addr:city": "south jakarta",
    "addr:postcode": "12850",
    "addr:street": "Jalan Sultan Agung",
    "amenity": "bus_station",
    "name": "Terminal Manggarai",
    "id": "node/4242435294"
  },
  "geometry": {
    "type": "Point",
    "coordinates": [
      106.8474547,
      -6.2088365
    ]
  }
},
{
  "type": "Feature",
  "id": "node/4242446428",
  "properties": {
    "addr:city": "east jakarta",
    "addr:postcode": "13220",
    "addr:street": "Jalan Perserikatan",
    "amenity": "bus_station",
    "name": "Terminal Rawamangun",
    "id": "node/4242446428"
  },
  "geometry": {
    "type": "Point",
    "coordinates": [
      106.8907196,
      -6.1980618
    ]
  }
},
{
  "type": "Feature",
  "id": "node/4242452723",
  "properties": {
    "addr:city": "North Jakarta",
    "addr:postcode": "14350",
    "addr:street": "Jl. Enggano",
    "amenity": "bus_station",
    "name": "Terminal Tanjung Priok",
    "id": "node/4242452723"
  },
  "geometry": {
    "type": "Point",
    "coordinates": [
      106.8814035,
      -6.109787
    ]
  }
},
{
  "type": "Feature",
  "id": "node/4242459999",
  "properties": {
    "addr:city": "South Jakarta",
    "addr:postcode": "12520",
    "addr:street": "Jalan Raya Pasar Minggu",
    "amenity": "bus_station",
    "name": "Terminal Pasar Minggu",
    "id": "node/4242459999"
  },
  "geometry": {
    "type": "Point",
    "coordinates": [
      106.8436449,
      -6.2831767
    ]
  }
},
{
  "type": "Feature",
  "id": "node/4243825205",
  "properties": {
    "addr:city": "Central Jakarta",
    "addr:housenumber": "17",
    "addr:postcode": "10620",
    "addr:street": "Jalan Angkasa, Kemayoran, Gn. Sahari Sel., Kemayoran",
    "amenity": "bus_station",
    "name": "Pool Damri Kemayoran",
    "id": "node/4243825205"
  },
  "geometry": {
    "type": "Point",
    "coordinates": [
      106.8485238,
      -6.1597202
    ]
  }
},
{
  "type": "Feature",
  "id": "node/4244042439",
  "properties": {
    "amenity": "bus_station",
    "name": "Terminal Kampung Rambutan",
    "id": "node/4244042439"
  },
  "geometry": {
    "type": "Point",
    "coordinates": [
      106.8823114,
      -6.3097983
    ]
  }
},
{
  "type": "Feature",
  "id": "node/4255831646",
  "properties": {
    "addr:city": "Central Jakarta",
    "addr:housenumber": "19",
    "addr:postcode": "10270",
    "addr:street": "Lobby Selatan Senayan City, Jl. Asia Afrika",
    "amenity": "bus_station",
    "name": "DayTrans Senayan City",
    "id": "node/4255831646"
  },
  "geometry": {
    "type": "Point",
    "coordinates": [
      106.796827,
      -6.2282196
    ]
  }
},
{
  "type": "Feature",
  "id": "node/4255868207",
  "properties": {
    "addr:city": "Kemanggisan, West Jakarta",
    "addr:housenumber": "11",
    "addr:postcode": "11480",
    "addr:street": "Jl. Kb. Jeruk RayaRT.6/RW.12",
    "amenity": "bus_station",
    "name": "DayTrans Binus Kebon Jeruk",
    "id": "node/4255868207"
  },
  "geometry": {
    "type": "Point",
    "coordinates": [
      106.7826809,
      -6.2005923
    ]
  }
},
{
  "type": "Feature",
  "id": "node/4255911140",
  "properties": {
    "addr:city": "Central Jakarta",
    "addr:housenumber": "14D",
    "addr:postcode": "10220",
    "addr:street": "Jl. Karet Pasar Baru Barat",
    "amenity": "bus_station",
    "name": "DayTrans Karet",
    "id": "node/4255911140"
  },
  "geometry": {
    "type": "Point",
    "coordinates": [
      106.8165051,
      -6.205578
    ]
  }
},
{
  "type": "Feature",
  "id": "node/4255948334",
  "properties": {
    "addr:city": "Bintaro",
    "addr:postcode": "15224",
    "addr:street": "Taman Menteng Sektor 7, Jl. Wahid Hasyim",
    "amenity": "bus_station",
    "name": "DayTrans Bintaro",
    "id": "node/4255948334"
  },
  "geometry": {
    "type": "Point",
    "coordinates": [
      106.7249983,
      -6.273429
    ]
  }
},
{
  "type": "Feature",
  "id": "node/4407828998",
  "properties": {
    "addr:street": "Bekasi Raya",
    "amenity": "bus_station",
    "id": "node/4407828998"
  },
  "geometry": {
    "type": "Point",
    "coordinates": [
      106.9615621,
      -6.1871336
    ]
  }
}
]
}
