{
"type": "FeatureCollection",
"features": [
{
  "type": "Feature",
  "id": "way/306654455",
  "properties": {
    "amenity": "marketplace",
    "name": "Petit Marché",
    "id": "way/306654455"
  },
  "geometry": {
    "type": "Point",
    "coordinates": [
      13.5829035,
      7.3270994
    ]
  }
},
{
  "type": "Feature",
  "id": "way/358818306",
  "properties": {
    "amenity": "marketplace",
    "building": "yes",
    "id": "way/358818306"
  },
  "geometry": {
    "type": "Point",
    "coordinates": [
      13.5948185,
      7.3352936
    ]
  }
},
{
  "type": "Feature",
  "id": "way/421458665",
  "properties": {
    "amenity": "marketplace",
    "landuse": "retail",
    "name": "Marche de Dang",
    "id": "way/421458665"
  },
  "geometry": {
    "type": "Point",
    "coordinates": [
      13.5557146,
      7.4270208
    ]
  }
},
{
  "type": "Feature",
  "id": "node/4855637545",
  "properties": {
    "amenity": "marketplace",
    "name": "Marché de Bamyanga",
    "id": "node/4855637545"
  },
  "geometry": {
    "type": "Point",
    "coordinates": [
      13.5764753,
      7.2932811
    ]
  }
}
]
}
