{
"type": "FeatureCollection",
"features": [
{
  "type": "Feature",
  "id": "way/235099160",
  "properties": {
    "amenity": "townhall",
    "building": "yes",
    "man_made": "tower",
    "name": "Ministère de la Santé",
    "office": "administrative",
    "source": "Bing;survey",
    "id": "way/235099160"
  },
  "geometry": {
    "type": "Point",
    "coordinates": [
      2.4552067,
      6.3658853
    ]
  }
},
{
  "type": "Feature",
  "id": "way/366465312",
  "properties": {
    "amenity": "townhall",
    "building": "yes",
    "name": "Arrondissement de Zoungamè",
    "id": "way/366465312"
  },
  "geometry": {
    "type": "Point",
    "coordinates": [
      2.5442779,
      6.4598508
    ]
  }
},
{
  "type": "Feature",
  "id": "way/410746872",
  "properties": {
    "amenity": "townhall",
    "building": "yes",
    "name": "Arrondissement de Késsounou",
    "source": "survey;GPS",
    "id": "way/410746872"
  },
  "geometry": {
    "type": "Point",
    "coordinates": [
      2.5214456,
      6.5787226
    ]
  }
},
{
  "type": "Feature",
  "id": "way/415781858",
  "properties": {
    "amenity": "townhall",
    "building": "yes",
    "name": "Arrondissement de Tohouè",
    "id": "way/415781858"
  },
  "geometry": {
    "type": "Point",
    "coordinates": [
      2.6679751,
      6.432394
    ]
  }
},
{
  "type": "Feature",
  "id": "node/1102519112",
  "properties": {
    "amenity": "townhall",
    "name": "Mairie de Cotonou",
    "id": "node/1102519112"
  },
  "geometry": {
    "type": "Point",
    "coordinates": [
      2.4595376,
      6.3671433
    ]
  }
},
{
  "type": "Feature",
  "id": "node/3636317141",
  "properties": {
    "amenity": "townhall",
    "name": "Mairie d'Adjarra",
    "id": "node/3636317141"
  },
  "geometry": {
    "type": "Point",
    "coordinates": [
      2.667614,
      6.5226053
    ]
  }
},
{
  "type": "Feature",
  "id": "node/4212421285",
  "properties": {
    "amenity": "townhall",
    "name": "Mairie Seme Podji",
    "id": "node/4212421285"
  },
  "geometry": {
    "type": "Point",
    "coordinates": [
      2.6037637,
      6.3818969
    ]
  }
}
]
}
