{
"type": "FeatureCollection",
"features": [
{
  "type": "Feature",
  "id": "relation/6719287",
  "properties": {
    "amenity": "bus_station",
    "name": "Terminal Kalimas Barat",
    "type": "multipolygon",
    "id": "relation/6719287"
  },
  "geometry": {
    "type": "Point",
    "coordinates": [
      112.7378401,
      -7.2231606
    ]
  }
},
{
  "type": "Feature",
  "id": "relation/6730893",
  "properties": {
    "amenity": "bus_station",
    "name": "Terminal Kalimas",
    "type": "multipolygon",
    "id": "relation/6730893"
  },
  "geometry": {
    "type": "Point",
    "coordinates": [
      112.7345311,
      -7.1989272
    ]
  }
},
{
  "type": "Feature",
  "id": "relation/6852560",
  "properties": {
    "addr:full": "Jalan Tambakoso Wilangon",
    "alt_name": "Terminal Osowilangun",
    "amenity": "bus_station",
    "name": "Terminal Tambak Osowilangon",
    "type": "multipolygon",
    "wikidata": "Q20427658",
    "wikipedia": "id:Terminal Tambak",
    "id": "relation/6852560"
  },
  "geometry": {
    "type": "Point",
    "coordinates": [
      112.6531744,
      -7.2180814
    ]
  }
},
{
  "type": "Feature",
  "id": "relation/6892085",
  "properties": {
    "amenity": "bus_station",
    "name": "Terminal Menanggal",
    "type": "multipolygon",
    "id": "relation/6892085"
  },
  "geometry": {
    "type": "Point",
    "coordinates": [
      112.7225351,
      -7.3415822
    ]
  }
},
{
  "type": "Feature",
  "id": "relation/6902194",
  "properties": {
    "addr:city": "Surabaya",
    "addr:full": "Jalan Joyoboyo",
    "addr:street": "Jl. Jayabaya",
    "amenity": "bus_station",
    "name": "Terminal Joyoboyo",
    "type": "multipolygon",
    "id": "relation/6902194"
  },
  "geometry": {
    "type": "Point",
    "coordinates": [
      112.7366755,
      -7.2989293
    ]
  }
},
{
  "type": "Feature",
  "id": "relation/6908245",
  "properties": {
    "addr:full": "Jalan Benowo",
    "amenity": "bus_station",
    "name": "Terminal Benowo",
    "type": "multipolygon",
    "id": "relation/6908245"
  },
  "geometry": {
    "type": "Point",
    "coordinates": [
      112.607897,
      -7.2355939
    ]
  }
},
{
  "type": "Feature",
  "id": "relation/7147897",
  "properties": {
    "addr:full": "Jalan Dukuh Kupang XXV",
    "amenity": "bus_station",
    "name": "Terminal Dukuh Kupang",
    "type": "multipolygon",
    "id": "relation/7147897"
  },
  "geometry": {
    "type": "Point",
    "coordinates": [
      112.7119748,
      -7.2813878
    ]
  }
},
{
  "type": "Feature",
  "id": "relation/7147898",
  "properties": {
    "addr:full": "Jalan Kali Kedinding",
    "amenity": "bus_station",
    "name": "Terminal Kedung Cowek",
    "type": "multipolygon",
    "id": "relation/7147898"
  },
  "geometry": {
    "type": "Point",
    "coordinates": [
      112.7793549,
      -7.2127926
    ]
  }
},
{
  "type": "Feature",
  "id": "relation/7147931",
  "properties": {
    "addr:full": "Jalan Keputih Tegal",
    "amenity": "bus_station",
    "name": "Terminal Keputih",
    "type": "multipolygon",
    "id": "relation/7147931"
  },
  "geometry": {
    "type": "Point",
    "coordinates": [
      112.8018345,
      -7.2946104
    ]
  }
},
{
  "type": "Feature",
  "id": "relation/7158883",
  "properties": {
    "amenity": "bus_station",
    "name": "Terminal Balongsari",
    "type": "multipolygon",
    "id": "relation/7158883"
  },
  "geometry": {
    "type": "Point",
    "coordinates": [
      112.6786652,
      -7.2592365
    ]
  }
},
{
  "type": "Feature",
  "id": "relation/7158965",
  "properties": {
    "amenity": "bus_station",
    "name": "Terminal Kenjeran",
    "type": "multipolygon",
    "id": "relation/7158965"
  },
  "geometry": {
    "type": "Point",
    "coordinates": [
      112.7945524,
      -7.2405641
    ]
  }
},
{
  "type": "Feature",
  "id": "relation/7158966",
  "properties": {
    "amenity": "bus_station",
    "name": "Terminal Manukan",
    "type": "multipolygon",
    "id": "relation/7158966"
  },
  "geometry": {
    "type": "Point",
    "coordinates": [
      112.6667056,
      -7.268143
    ]
  }
},
{
  "type": "Feature",
  "id": "way/480790475",
  "properties": {
    "addr:city": "Bungurasih, Waru, Surabaya, East Java",
    "addr:postcode": "61256",
    "addr:street": "Jl. Pintu Masuk Ramayana Terminal Bungurasih",
    "amenity": "bus_station",
    "building": "bus_station",
    "name": "Shelter Bus Damri Purabaya-Juanda",
    "id": "way/480790475"
  },
  "geometry": {
    "type": "Point",
    "coordinates": [
      112.7238631,
      -7.3511131
    ]
  }
},
{
  "type": "Feature",
  "id": "way/485783915",
  "properties": {
    "alt_name": "Terminal Bungurasih",
    "amenity": "bus_station",
    "building": "bus_station",
    "name": "Terminal Purabaya",
    "id": "way/485783915"
  },
  "geometry": {
    "type": "Point",
    "coordinates": [
      112.7247512,
      -7.35107
    ]
  }
},
{
  "type": "Feature",
  "id": "way/486886496",
  "properties": {
    "addr:full": "jalan bratang jaya",
    "amenity": "bus_station",
    "name": "Terminal Bus Bratang Jaya",
    "id": "way/486886496"
  },
  "geometry": {
    "type": "Point",
    "coordinates": [
      112.7615479,
      -7.298878
    ]
  }
}
]
}
